<?xml version="1.0" encoding="UTF-8"?>
<gpx version="1.1" creator="TurboSanta Route Planner">
  <trk>
    <name>TurboSanta Route (10m density)</name>
    <trkseg>
      <trkpt lat="50.9163610" lon="-1.8259800">
      </trkpt>
      <trkpt lat="50.9163540" lon="-1.8259940">
      </trkpt>
      <trkpt lat="50.9162934" lon="-1.8259278">
        <name>Hillbury Road</name>
      </trkpt>
      <trkpt lat="50.9162328" lon="-1.8258616">
        <name>Hillbury Road</name>
      </trkpt>
      <trkpt lat="50.9161722" lon="-1.8257954">
        <name>Hillbury Road</name>
      </trkpt>
      <trkpt lat="50.9161116" lon="-1.8257292">
        <name>Hillbury Road</name>
      </trkpt>
      <trkpt lat="50.9160510" lon="-1.8256630">
        <name>Hillbury Road</name>
      </trkpt>
      <trkpt lat="50.9159973" lon="-1.8255933">
        <name>Hillbury Road</name>
      </trkpt>
      <trkpt lat="50.9159435" lon="-1.8255235">
        <name>Hillbury Road</name>
      </trkpt>
      <trkpt lat="50.9158897" lon="-1.8254537">
        <name>Hillbury Road</name>
      </trkpt>
      <trkpt lat="50.9158360" lon="-1.8253840">
        <name>Hillbury Road</name>
      </trkpt>
      <trkpt lat="50.9157658" lon="-1.8252969">
        <name>Hillbury Road</name>
      </trkpt>
      <trkpt lat="50.9156956" lon="-1.8252098">
        <name>Hillbury Road</name>
      </trkpt>
      <trkpt lat="50.9156254" lon="-1.8251227">
        <name>Hillbury Road</name>
      </trkpt>
      <trkpt lat="50.9155552" lon="-1.8250356">
        <name>Hillbury Road</name>
      </trkpt>
      <trkpt lat="50.9154850" lon="-1.8249485">
        <name>Hillbury Road</name>
      </trkpt>
      <trkpt lat="50.9154148" lon="-1.8248614">
        <name>Hillbury Road</name>
      </trkpt>
      <trkpt lat="50.9153446" lon="-1.8247743">
        <name>Hillbury Road</name>
      </trkpt>
      <trkpt lat="50.9152744" lon="-1.8246872">
        <name>Hillbury Road</name>
      </trkpt>
      <trkpt lat="50.9152042" lon="-1.8246001">
        <name>Hillbury Road</name>
      </trkpt>
      <trkpt lat="50.9151340" lon="-1.8245130">
        <name>Hillbury Road</name>
      </trkpt>
      <trkpt lat="50.9150780" lon="-1.8244440">
        <name>Hillbury Road</name>
      </trkpt>
      <trkpt lat="50.9150220" lon="-1.8243750">
        <name>Hillbury Road</name>
      </trkpt>
      <trkpt lat="50.9149660" lon="-1.8243060">
        <name>Hillbury Road</name>
      </trkpt>
      <trkpt lat="50.9149023" lon="-1.8242273">
        <name>Hillbury Road</name>
      </trkpt>
      <trkpt lat="50.9148387" lon="-1.8241487">
        <name>Hillbury Road</name>
      </trkpt>
      <trkpt lat="50.9147750" lon="-1.8240700">
        <name>Hillbury Road</name>
      </trkpt>
      <trkpt lat="50.9147059" lon="-1.8239897">
        <name>Hillbury Road</name>
      </trkpt>
      <trkpt lat="50.9146367" lon="-1.8239095">
        <name>Hillbury Road</name>
      </trkpt>
      <trkpt lat="50.9145676" lon="-1.8238293">
        <name>Hillbury Road</name>
      </trkpt>
      <trkpt lat="50.9144985" lon="-1.8237490">
        <name>Hillbury Road</name>
      </trkpt>
      <trkpt lat="50.9144294" lon="-1.8236687">
        <name>Hillbury Road</name>
      </trkpt>
      <trkpt lat="50.9143603" lon="-1.8235885">
        <name>Hillbury Road</name>
      </trkpt>
      <trkpt lat="50.9142911" lon="-1.8235083">
        <name>Hillbury Road</name>
      </trkpt>
      <trkpt lat="50.9142220" lon="-1.8234280">
        <name>Hillbury Road</name>
      </trkpt>
      <trkpt lat="50.9141551" lon="-1.8233503">
        <name>Hillbury Road</name>
      </trkpt>
      <trkpt lat="50.9140883" lon="-1.8232725">
        <name>Hillbury Road</name>
      </trkpt>
      <trkpt lat="50.9140214" lon="-1.8231948">
        <name>Hillbury Road</name>
      </trkpt>
      <trkpt lat="50.9139545" lon="-1.8231170">
        <name>Hillbury Road</name>
      </trkpt>
      <trkpt lat="50.9138876" lon="-1.8230392">
        <name>Hillbury Road</name>
      </trkpt>
      <trkpt lat="50.9138207" lon="-1.8229615">
        <name>Hillbury Road</name>
      </trkpt>
      <trkpt lat="50.9137539" lon="-1.8228837">
        <name>Hillbury Road</name>
      </trkpt>
      <trkpt lat="50.9136870" lon="-1.8228060">
        <name>Hillbury Road</name>
      </trkpt>
      <trkpt lat="50.9136237" lon="-1.8227327">
        <name>Hillbury Road</name>
      </trkpt>
      <trkpt lat="50.9135605" lon="-1.8226595">
        <name>Hillbury Road</name>
      </trkpt>
      <trkpt lat="50.9134973" lon="-1.8225863">
        <name>Hillbury Road</name>
      </trkpt>
      <trkpt lat="50.9134340" lon="-1.8225130">
        <name>Hillbury Road</name>
      </trkpt>
      <trkpt lat="50.9133880" lon="-1.8224650">
        <name>Hillbury Road</name>
      </trkpt>
      <trkpt lat="50.9133370" lon="-1.8224007">
        <name>Hillbury Road</name>
      </trkpt>
      <trkpt lat="50.9132860" lon="-1.8223363">
        <name>Hillbury Road</name>
      </trkpt>
      <trkpt lat="50.9132350" lon="-1.8222720">
        <name>Hillbury Road</name>
      </trkpt>
      <trkpt lat="50.9131660" lon="-1.8222030">
        <name>Hillbury Road</name>
      </trkpt>
      <trkpt lat="50.9130970" lon="-1.8221340">
        <name>Hillbury Road</name>
      </trkpt>
      <trkpt lat="50.9130412" lon="-1.8220702">
        <name>Hillbury Road</name>
      </trkpt>
      <trkpt lat="50.9129855" lon="-1.8220065">
        <name>Hillbury Road</name>
      </trkpt>
      <trkpt lat="50.9129298" lon="-1.8219428">
        <name>Hillbury Road</name>
      </trkpt>
      <trkpt lat="50.9128740" lon="-1.8218790">
        <name>Hillbury Road</name>
      </trkpt>
      <trkpt lat="50.9128096" lon="-1.8218050">
        <name>Hillbury Road</name>
      </trkpt>
      <trkpt lat="50.9127452" lon="-1.8217310">
        <name>Hillbury Road</name>
      </trkpt>
      <trkpt lat="50.9126808" lon="-1.8216570">
        <name>Hillbury Road</name>
      </trkpt>
      <trkpt lat="50.9126164" lon="-1.8215830">
        <name>Hillbury Road</name>
      </trkpt>
      <trkpt lat="50.9125520" lon="-1.8215090">
        <name>Hillbury Road</name>
      </trkpt>
      <trkpt lat="50.9125127" lon="-1.8216283">
        <name>Hillbury Road</name>
      </trkpt>
      <trkpt lat="50.9124733" lon="-1.8217477">
        <name>Hillbury Road</name>
      </trkpt>
      <trkpt lat="50.9124340" lon="-1.8218670">
        <name>Hillbury Road</name>
      </trkpt>
      <trkpt lat="50.9124015" lon="-1.8219660">
        <name>Hillbury Road</name>
      </trkpt>
      <trkpt lat="50.9123690" lon="-1.8220650">
        <name>Hillbury Road</name>
      </trkpt>
      <trkpt lat="50.9123417" lon="-1.8221673">
        <name>Hillbury Road</name>
      </trkpt>
      <trkpt lat="50.9123145" lon="-1.8222695">
        <name>Hillbury Road</name>
      </trkpt>
      <trkpt lat="50.9122873" lon="-1.8223717">
        <name>Hillbury Road</name>
      </trkpt>
      <trkpt lat="50.9122600" lon="-1.8224740">
        <name>Hillbury Road</name>
      </trkpt>
      <trkpt lat="50.9122310" lon="-1.8225790">
        <name>Hillbury Road</name>
      </trkpt>
      <trkpt lat="50.9122098" lon="-1.8226905">
        <name>Hillbury Road</name>
      </trkpt>
      <trkpt lat="50.9121885" lon="-1.8228020">
        <name>Hillbury Road</name>
      </trkpt>
      <trkpt lat="50.9121672" lon="-1.8229135">
        <name>Hillbury Road</name>
      </trkpt>
      <trkpt lat="50.9121460" lon="-1.8230250">
        <name>Hillbury Road</name>
      </trkpt>
      <trkpt lat="50.9120997" lon="-1.8231145">
        <name>Hillbury Road</name>
      </trkpt>
      <trkpt lat="50.9120535" lon="-1.8232040">
        <name>Hillbury Road</name>
      </trkpt>
      <trkpt lat="50.9120073" lon="-1.8232935">
        <name>Hillbury Road</name>
      </trkpt>
      <trkpt lat="50.9119610" lon="-1.8233830">
        <name>Hillbury Road</name>
      </trkpt>
      <trkpt lat="50.9119162" lon="-1.8234967">
        <name>Hillbury Road</name>
      </trkpt>
      <trkpt lat="50.9118715" lon="-1.8236105">
        <name>Hillbury Road</name>
      </trkpt>
      <trkpt lat="50.9118268" lon="-1.8237243">
        <name>Hillbury Road</name>
      </trkpt>
      <trkpt lat="50.9117820" lon="-1.8238380">
        <name>Hillbury Road</name>
      </trkpt>
      <trkpt lat="50.9117430" lon="-1.8239380">
        <name>Hillbury Road</name>
      </trkpt>
      <trkpt lat="50.9117068" lon="-1.8240355">
        <name>Hillbury Road</name>
      </trkpt>
      <trkpt lat="50.9116705" lon="-1.8241330">
        <name>Hillbury Road</name>
      </trkpt>
      <trkpt lat="50.9116342" lon="-1.8242305">
        <name>Hillbury Road</name>
      </trkpt>
      <trkpt lat="50.9115980" lon="-1.8243280">
        <name>Hillbury Road</name>
      </trkpt>
      <trkpt lat="50.9115770" lon="-1.8243410">
        <name>Hillbury Road</name>
      </trkpt>
      <trkpt lat="50.9115400" lon="-1.8244300">
        <name>Birchwood Drive</name>
      </trkpt>
      <trkpt lat="50.9115030" lon="-1.8245190">
        <name>Birchwood Drive</name>
      </trkpt>
      <trkpt lat="50.9114525" lon="-1.8246000">
        <name>Birchwood Drive</name>
      </trkpt>
      <trkpt lat="50.9114020" lon="-1.8246810">
        <name>Birchwood Drive</name>
      </trkpt>
      <trkpt lat="50.9113660" lon="-1.8247355">
        <name>Birchwood Drive</name>
      </trkpt>
      <trkpt lat="50.9113300" lon="-1.8247900">
        <name>Birchwood Drive</name>
      </trkpt>
      <trkpt lat="50.9112597" lon="-1.8248693">
        <name>Birchwood Drive</name>
      </trkpt>
      <trkpt lat="50.9111893" lon="-1.8249487">
        <name>Birchwood Drive</name>
      </trkpt>
      <trkpt lat="50.9111190" lon="-1.8250280">
        <name>Birchwood Drive</name>
      </trkpt>
      <trkpt lat="50.9110780" lon="-1.8250810">
        <name>Birchwood Drive</name>
      </trkpt>
      <trkpt lat="50.9110370" lon="-1.8251340">
        <name>Birchwood Drive</name>
      </trkpt>
      <trkpt lat="50.9109775" lon="-1.8252200">
        <name>Birchwood Drive</name>
      </trkpt>
      <trkpt lat="50.9109180" lon="-1.8253060">
        <name>Birchwood Drive</name>
      </trkpt>
      <trkpt lat="50.9108855" lon="-1.8253660">
        <name>Birchwood Drive</name>
      </trkpt>
      <trkpt lat="50.9108530" lon="-1.8254260">
        <name>Birchwood Drive</name>
      </trkpt>
      <trkpt lat="50.9107990" lon="-1.8255400">
        <name>Birchwood Drive</name>
      </trkpt>
      <trkpt lat="50.9107700" lon="-1.8256130">
        <name>Birchwood Drive</name>
      </trkpt>
      <trkpt lat="50.9107410" lon="-1.8256860">
        <name>Birchwood Drive</name>
      </trkpt>
      <trkpt lat="50.9107195" lon="-1.8257585">
        <name>Birchwood Drive</name>
      </trkpt>
      <trkpt lat="50.9106980" lon="-1.8258310">
        <name>Birchwood Drive</name>
      </trkpt>
      <trkpt lat="50.9106770" lon="-1.8259220">
        <name>Birchwood Drive</name>
      </trkpt>
      <trkpt lat="50.9106560" lon="-1.8260130">
        <name>Birchwood Drive</name>
      </trkpt>
      <trkpt lat="50.9106435" lon="-1.8261385">
        <name>Birchwood Drive</name>
      </trkpt>
      <trkpt lat="50.9106310" lon="-1.8262640">
        <name>Birchwood Drive</name>
      </trkpt>
      <trkpt lat="50.9106270" lon="-1.8263730">
        <name>Birchwood Drive</name>
      </trkpt>
      <trkpt lat="50.9106230" lon="-1.8264820">
        <name>Birchwood Drive</name>
      </trkpt>
      <trkpt lat="50.9106190" lon="-1.8265800">
        <name>Birchwood Drive</name>
      </trkpt>
      <trkpt lat="50.9106235" lon="-1.8266730">
        <name>Birchwood Drive</name>
      </trkpt>
      <trkpt lat="50.9106280" lon="-1.8267660">
        <name>Birchwood Drive</name>
      </trkpt>
      <trkpt lat="50.9106415" lon="-1.8268625">
        <name>Birchwood Drive</name>
      </trkpt>
      <trkpt lat="50.9106550" lon="-1.8269590">
        <name>Birchwood Drive</name>
      </trkpt>
      <trkpt lat="50.9106788" lon="-1.8270663">
        <name>Birchwood Drive</name>
      </trkpt>
      <trkpt lat="50.9107025" lon="-1.8271735">
        <name>Birchwood Drive</name>
      </trkpt>
      <trkpt lat="50.9107262" lon="-1.8272807">
        <name>Birchwood Drive</name>
      </trkpt>
      <trkpt lat="50.9107500" lon="-1.8273880">
        <name>Birchwood Drive</name>
      </trkpt>
      <trkpt lat="50.9107670" lon="-1.8274655">
        <name>Birchwood Drive</name>
      </trkpt>
      <trkpt lat="50.9107840" lon="-1.8275430">
        <name>Birchwood Drive</name>
      </trkpt>
      <trkpt lat="50.9108097" lon="-1.8276510">
        <name>Birchwood Drive</name>
      </trkpt>
      <trkpt lat="50.9108355" lon="-1.8277590">
        <name>Birchwood Drive</name>
      </trkpt>
      <trkpt lat="50.9108613" lon="-1.8278670">
        <name>Birchwood Drive</name>
      </trkpt>
      <trkpt lat="50.9108870" lon="-1.8279750">
        <name>Birchwood Drive</name>
      </trkpt>
      <trkpt lat="50.9109109" lon="-1.8280941">
        <name>Birchwood Drive</name>
      </trkpt>
      <trkpt lat="50.9109348" lon="-1.8282132">
        <name>Birchwood Drive</name>
      </trkpt>
      <trkpt lat="50.9109586" lon="-1.8283324">
        <name>Birchwood Drive</name>
      </trkpt>
      <trkpt lat="50.9109825" lon="-1.8284515">
        <name>Birchwood Drive</name>
      </trkpt>
      <trkpt lat="50.9110064" lon="-1.8285706">
        <name>Birchwood Drive</name>
      </trkpt>
      <trkpt lat="50.9110303" lon="-1.8286898">
        <name>Birchwood Drive</name>
      </trkpt>
      <trkpt lat="50.9110541" lon="-1.8288089">
        <name>Birchwood Drive</name>
      </trkpt>
      <trkpt lat="50.9110780" lon="-1.8289280">
        <name>Birchwood Drive</name>
      </trkpt>
      <trkpt lat="50.9110863" lon="-1.8290287">
        <name>Birchwood Drive</name>
      </trkpt>
      <trkpt lat="50.9110947" lon="-1.8291293">
        <name>Birchwood Drive</name>
      </trkpt>
      <trkpt lat="50.9111030" lon="-1.8292300">
        <name>Birchwood Drive</name>
      </trkpt>
      <trkpt lat="50.9111005" lon="-1.8293555">
        <name>Birchwood Drive</name>
      </trkpt>
      <trkpt lat="50.9110980" lon="-1.8294810">
        <name>Birchwood Drive</name>
      </trkpt>
      <trkpt lat="50.9110833" lon="-1.8295850">
        <name>Birchwood Drive</name>
      </trkpt>
      <trkpt lat="50.9110687" lon="-1.8296890">
        <name>Birchwood Drive</name>
      </trkpt>
      <trkpt lat="50.9110540" lon="-1.8297930">
        <name>Birchwood Drive</name>
      </trkpt>
      <trkpt lat="50.9110345" lon="-1.8299310">
        <name>Birchwood Drive</name>
      </trkpt>
      <trkpt lat="50.9110150" lon="-1.8300690">
        <name>Birchwood Drive</name>
      </trkpt>
      <trkpt lat="50.9110020" lon="-1.8302013">
        <name>Birchwood Drive</name>
      </trkpt>
      <trkpt lat="50.9109890" lon="-1.8303335">
        <name>Birchwood Drive</name>
      </trkpt>
      <trkpt lat="50.9109760" lon="-1.8304657">
        <name>Birchwood Drive</name>
      </trkpt>
      <trkpt lat="50.9109630" lon="-1.8305980">
        <name>Birchwood Drive</name>
      </trkpt>
      <trkpt lat="50.9109640" lon="-1.8307385">
        <name>Birchwood Drive</name>
      </trkpt>
      <trkpt lat="50.9109650" lon="-1.8308790">
        <name>Birchwood Drive</name>
      </trkpt>
      <trkpt lat="50.9109790" lon="-1.8309757">
        <name>Birchwood Drive</name>
      </trkpt>
      <trkpt lat="50.9109930" lon="-1.8310723">
        <name>Birchwood Drive</name>
      </trkpt>
      <trkpt lat="50.9110070" lon="-1.8311690">
        <name>Birchwood Drive</name>
      </trkpt>
      <trkpt lat="50.9110300" lon="-1.8312945">
        <name>Birchwood Drive</name>
      </trkpt>
      <trkpt lat="50.9110530" lon="-1.8314200">
        <name>Birchwood Drive</name>
      </trkpt>
      <trkpt lat="50.9110585" lon="-1.8315465">
        <name>Birchwood Drive</name>
      </trkpt>
      <trkpt lat="50.9110640" lon="-1.8316730">
        <name>Birchwood Drive</name>
      </trkpt>
      <trkpt lat="50.9110603" lon="-1.8317943">
        <name>Birchwood Drive</name>
      </trkpt>
      <trkpt lat="50.9110567" lon="-1.8319157">
        <name>Birchwood Drive</name>
      </trkpt>
      <trkpt lat="50.9110530" lon="-1.8320370">
        <name>Birchwood Drive</name>
      </trkpt>
      <trkpt lat="50.9110490" lon="-1.8321650">
        <name>Birchwood Drive</name>
      </trkpt>
      <trkpt lat="50.9110417" lon="-1.8322847">
        <name>Birchwood Drive</name>
      </trkpt>
      <trkpt lat="50.9110345" lon="-1.8324045">
        <name>Birchwood Drive</name>
      </trkpt>
      <trkpt lat="50.9110273" lon="-1.8325243">
        <name>Birchwood Drive</name>
      </trkpt>
      <trkpt lat="50.9110200" lon="-1.8326440">
        <name>Birchwood Drive</name>
      </trkpt>
      <trkpt lat="50.9110053" lon="-1.8327847">
        <name>Birchwood Drive</name>
      </trkpt>
      <trkpt lat="50.9109907" lon="-1.8329253">
        <name>Birchwood Drive</name>
      </trkpt>
      <trkpt lat="50.9109760" lon="-1.8330660">
        <name>Birchwood Drive</name>
      </trkpt>
      <trkpt lat="50.9109613" lon="-1.8332067">
        <name>Birchwood Drive</name>
      </trkpt>
      <trkpt lat="50.9109467" lon="-1.8333473">
        <name>Birchwood Drive</name>
      </trkpt>
      <trkpt lat="50.9109320" lon="-1.8334880">
        <name>Birchwood Drive</name>
      </trkpt>
      <trkpt lat="50.9109173" lon="-1.8336287">
        <name>Birchwood Drive</name>
      </trkpt>
      <trkpt lat="50.9109027" lon="-1.8337693">
        <name>Birchwood Drive</name>
      </trkpt>
      <trkpt lat="50.9108880" lon="-1.8339100">
        <name>Birchwood Drive</name>
      </trkpt>
      <trkpt lat="50.9108572" lon="-1.8340288">
        <name>Birchwood Drive</name>
      </trkpt>
      <trkpt lat="50.9108264" lon="-1.8341476">
        <name>Birchwood Drive</name>
      </trkpt>
      <trkpt lat="50.9107956" lon="-1.8342664">
        <name>Birchwood Drive</name>
      </trkpt>
      <trkpt lat="50.9107648" lon="-1.8343852">
        <name>Birchwood Drive</name>
      </trkpt>
      <trkpt lat="50.9107340" lon="-1.8345040">
        <name>Birchwood Drive</name>
      </trkpt>
      <trkpt lat="50.9107070" lon="-1.8345740">
        <name>Birchwood Drive</name>
      </trkpt>
      <trkpt lat="50.9106800" lon="-1.8346440">
        <name>Birchwood Drive</name>
      </trkpt>
      <trkpt lat="50.9106228" lon="-1.8347297">
        <name>Birchwood Drive</name>
      </trkpt>
      <trkpt lat="50.9105655" lon="-1.8348155">
        <name>Birchwood Drive</name>
      </trkpt>
      <trkpt lat="50.9105082" lon="-1.8349012">
        <name>Birchwood Drive</name>
      </trkpt>
      <trkpt lat="50.9104510" lon="-1.8349870">
        <name>Birchwood Drive</name>
      </trkpt>
      <trkpt lat="50.9103955" lon="-1.8350695">
        <name>Birchwood Drive</name>
      </trkpt>
      <trkpt lat="50.9103400" lon="-1.8351520">
        <name>Birchwood Drive</name>
      </trkpt>
      <trkpt lat="50.9103881" lon="-1.8352598">
        <name>Birchwood Drive</name>
      </trkpt>
      <trkpt lat="50.9104362" lon="-1.8353676">
        <name>Birchwood Drive</name>
      </trkpt>
      <trkpt lat="50.9104843" lon="-1.8354753">
        <name>Birchwood Drive</name>
      </trkpt>
      <trkpt lat="50.9105324" lon="-1.8355831">
        <name>Birchwood Drive</name>
      </trkpt>
      <trkpt lat="50.9105806" lon="-1.8356909">
        <name>Birchwood Drive</name>
      </trkpt>
      <trkpt lat="50.9106287" lon="-1.8357987">
        <name>Birchwood Drive</name>
      </trkpt>
      <trkpt lat="50.9106768" lon="-1.8359064">
        <name>Birchwood Drive</name>
      </trkpt>
      <trkpt lat="50.9107249" lon="-1.8360142">
        <name>Birchwood Drive</name>
      </trkpt>
      <trkpt lat="50.9107730" lon="-1.8361220">
        <name>Birchwood Drive</name>
      </trkpt>
      <trkpt lat="50.9108213" lon="-1.8362252">
        <name>Birchwood Drive</name>
      </trkpt>
      <trkpt lat="50.9108697" lon="-1.8363283">
        <name>Birchwood Drive</name>
      </trkpt>
      <trkpt lat="50.9109180" lon="-1.8364315">
        <name>Birchwood Drive</name>
      </trkpt>
      <trkpt lat="50.9109663" lon="-1.8365347">
        <name>Birchwood Drive</name>
      </trkpt>
      <trkpt lat="50.9110147" lon="-1.8366378">
        <name>Birchwood Drive</name>
      </trkpt>
      <trkpt lat="50.9110630" lon="-1.8367410">
        <name>Birchwood Drive</name>
      </trkpt>
      <trkpt lat="50.9110690" lon="-1.8367530">
        <name>Birchwood Drive</name>
      </trkpt>
      <trkpt lat="50.9111152" lon="-1.8368518">
        <name>Birchwood Drive</name>
      </trkpt>
      <trkpt lat="50.9111615" lon="-1.8369505">
        <name>Birchwood Drive</name>
      </trkpt>
      <trkpt lat="50.9112078" lon="-1.8370492">
        <name>Birchwood Drive</name>
      </trkpt>
      <trkpt lat="50.9112540" lon="-1.8371480">
        <name>Birchwood Drive</name>
      </trkpt>
      <trkpt lat="50.9113008" lon="-1.8372453">
        <name>Birchwood Drive</name>
      </trkpt>
      <trkpt lat="50.9113475" lon="-1.8373425">
        <name>Birchwood Drive</name>
      </trkpt>
      <trkpt lat="50.9113943" lon="-1.8374397">
        <name>Birchwood Drive</name>
      </trkpt>
      <trkpt lat="50.9114410" lon="-1.8375370">
        <name>Birchwood Drive</name>
      </trkpt>
      <trkpt lat="50.9114797" lon="-1.8376403">
        <name>Birchwood Drive</name>
      </trkpt>
      <trkpt lat="50.9115183" lon="-1.8377437">
        <name>Birchwood Drive</name>
      </trkpt>
      <trkpt lat="50.9115570" lon="-1.8378470">
        <name>Birchwood Drive</name>
      </trkpt>
      <trkpt lat="50.9115580" lon="-1.8379615">
        <name>Birchwood Drive</name>
      </trkpt>
      <trkpt lat="50.9115590" lon="-1.8380760">
        <name>Birchwood Drive</name>
      </trkpt>
      <trkpt lat="50.9115685" lon="-1.8382090">
        <name>Birchwood Drive</name>
      </trkpt>
      <trkpt lat="50.9115780" lon="-1.8383420">
        <name>Birchwood Drive</name>
      </trkpt>
      <trkpt lat="50.9115877" lon="-1.8384440">
        <name>Birchwood Drive</name>
      </trkpt>
      <trkpt lat="50.9115973" lon="-1.8385460">
        <name>Birchwood Drive</name>
      </trkpt>
      <trkpt lat="50.9116070" lon="-1.8386480">
        <name>Birchwood Drive</name>
      </trkpt>
      <trkpt lat="50.9116130" lon="-1.8387040">
        <name>Birchwood Drive</name>
      </trkpt>
      <trkpt lat="50.9116267" lon="-1.8388303">
        <name>Birchwood Drive</name>
      </trkpt>
      <trkpt lat="50.9116403" lon="-1.8389567">
        <name>Birchwood Drive</name>
      </trkpt>
      <trkpt lat="50.9116540" lon="-1.8390830">
        <name>Birchwood Drive</name>
      </trkpt>
      <trkpt lat="50.9116677" lon="-1.8392093">
        <name>Birchwood Drive</name>
      </trkpt>
      <trkpt lat="50.9116813" lon="-1.8393357">
        <name>Birchwood Drive</name>
      </trkpt>
      <trkpt lat="50.9116950" lon="-1.8394620">
        <name>Birchwood Drive</name>
      </trkpt>
      <trkpt lat="50.9117084" lon="-1.8395812">
        <name>Birchwood Drive</name>
      </trkpt>
      <trkpt lat="50.9117218" lon="-1.8397004">
        <name>Birchwood Drive</name>
      </trkpt>
      <trkpt lat="50.9117352" lon="-1.8398196">
        <name>Birchwood Drive</name>
      </trkpt>
      <trkpt lat="50.9117486" lon="-1.8399388">
        <name>Birchwood Drive</name>
      </trkpt>
      <trkpt lat="50.9117620" lon="-1.8400580">
        <name>Birchwood Drive</name>
      </trkpt>
      <trkpt lat="50.9117800" lon="-1.8401780">
        <name>Birchwood Drive</name>
      </trkpt>
      <trkpt lat="50.9117970" lon="-1.8402996">
        <name>Earlswood Drive</name>
      </trkpt>
      <trkpt lat="50.9118140" lon="-1.8404212">
        <name>Earlswood Drive</name>
      </trkpt>
      <trkpt lat="50.9118310" lon="-1.8405428">
        <name>Earlswood Drive</name>
      </trkpt>
      <trkpt lat="50.9118480" lon="-1.8406644">
        <name>Earlswood Drive</name>
      </trkpt>
      <trkpt lat="50.9118650" lon="-1.8407860">
        <name>Earlswood Drive</name>
      </trkpt>
      <trkpt lat="50.9118820" lon="-1.8408905">
        <name>Earlswood Drive</name>
      </trkpt>
      <trkpt lat="50.9118990" lon="-1.8409950">
        <name>Earlswood Drive</name>
      </trkpt>
      <trkpt lat="50.9119100" lon="-1.8410755">
        <name>Earlswood Drive</name>
      </trkpt>
      <trkpt lat="50.9119210" lon="-1.8411560">
        <name>Earlswood Drive</name>
      </trkpt>
      <trkpt lat="50.9119335" lon="-1.8412505">
        <name>Earlswood Drive</name>
      </trkpt>
      <trkpt lat="50.9119460" lon="-1.8413450">
        <name>Earlswood Drive</name>
      </trkpt>
      <trkpt lat="50.9119590" lon="-1.8414430">
        <name>Earlswood Drive</name>
      </trkpt>
      <trkpt lat="50.9119720" lon="-1.8415410">
        <name>Earlswood Drive</name>
      </trkpt>
      <trkpt lat="50.9119830" lon="-1.8416230">
        <name>Earlswood Drive</name>
      </trkpt>
      <trkpt lat="50.9120520" lon="-1.8415955">
        <name>Earlswood Drive</name>
      </trkpt>
      <trkpt lat="50.9121210" lon="-1.8415680">
        <name>Earlswood Drive</name>
      </trkpt>
      <trkpt lat="50.9121900" lon="-1.8415405">
        <name>Earlswood Drive</name>
      </trkpt>
      <trkpt lat="50.9122590" lon="-1.8415130">
        <name>Earlswood Drive</name>
      </trkpt>
      <trkpt lat="50.9122470" lon="-1.8414115">
        <name>Earlswood Drive</name>
      </trkpt>
      <trkpt lat="50.9122350" lon="-1.8413100">
        <name>Earlswood Drive</name>
      </trkpt>
      <trkpt lat="50.9121628" lon="-1.8413188">
        <name>Earlswood Drive</name>
      </trkpt>
      <trkpt lat="50.9120905" lon="-1.8413275">
        <name>Earlswood Drive</name>
      </trkpt>
      <trkpt lat="50.9120183" lon="-1.8413362">
        <name>Earlswood Drive</name>
      </trkpt>
      <trkpt lat="50.9119460" lon="-1.8413450">
        <name>Earlswood Drive</name>
      </trkpt>
      <trkpt lat="50.9119303" lon="-1.8412283">
        <name>Earlswood Drive</name>
      </trkpt>
      <trkpt lat="50.9119147" lon="-1.8411117">
        <name>Earlswood Drive</name>
      </trkpt>
      <trkpt lat="50.9118990" lon="-1.8409950">
        <name>Earlswood Drive</name>
      </trkpt>
      <trkpt lat="50.9118820" lon="-1.8408905">
        <name>Earlswood Drive</name>
      </trkpt>
      <trkpt lat="50.9118650" lon="-1.8407860">
        <name>Earlswood Drive</name>
      </trkpt>
      <trkpt lat="50.9118480" lon="-1.8406644">
        <name>Earlswood Drive</name>
      </trkpt>
      <trkpt lat="50.9118310" lon="-1.8405428">
        <name>Earlswood Drive</name>
      </trkpt>
      <trkpt lat="50.9118140" lon="-1.8404212">
        <name>Earlswood Drive</name>
      </trkpt>
      <trkpt lat="50.9117970" lon="-1.8402996">
        <name>Earlswood Drive</name>
      </trkpt>
      <trkpt lat="50.9117800" lon="-1.8401780">
        <name>Earlswood Drive</name>
      </trkpt>
      <trkpt lat="50.9117620" lon="-1.8400580">
        <name>Earlswood Drive</name>
      </trkpt>
      <trkpt lat="50.9117486" lon="-1.8399388">
        <name>Earlswood Drive</name>
      </trkpt>
      <trkpt lat="50.9117352" lon="-1.8398196">
        <name>Earlswood Drive</name>
      </trkpt>
      <trkpt lat="50.9117218" lon="-1.8397004">
        <name>Earlswood Drive</name>
      </trkpt>
      <trkpt lat="50.9117084" lon="-1.8395812">
        <name>Earlswood Drive</name>
      </trkpt>
      <trkpt lat="50.9116950" lon="-1.8394620">
        <name>Earlswood Drive</name>
      </trkpt>
      <trkpt lat="50.9116803" lon="-1.8393263">
        <name>Earlswood Drive</name>
      </trkpt>
      <trkpt lat="50.9116657" lon="-1.8391907">
        <name>Earlswood Drive</name>
      </trkpt>
      <trkpt lat="50.9116510" lon="-1.8390550">
        <name>Earlswood Drive</name>
      </trkpt>
      <trkpt lat="50.9116363" lon="-1.8389193">
        <name>Earlswood Drive</name>
      </trkpt>
      <trkpt lat="50.9116217" lon="-1.8387837">
        <name>Earlswood Drive</name>
      </trkpt>
      <trkpt lat="50.9116070" lon="-1.8386480">
        <name>Earlswood Drive</name>
      </trkpt>
      <trkpt lat="50.9115973" lon="-1.8385460">
        <name>Earlswood Drive</name>
      </trkpt>
      <trkpt lat="50.9115877" lon="-1.8384440">
        <name>Earlswood Drive</name>
      </trkpt>
      <trkpt lat="50.9115780" lon="-1.8383420">
        <name>Earlswood Drive</name>
      </trkpt>
      <trkpt lat="50.9115685" lon="-1.8382090">
        <name>Earlswood Drive</name>
      </trkpt>
      <trkpt lat="50.9115590" lon="-1.8380760">
        <name>Earlswood Drive</name>
      </trkpt>
      <trkpt lat="50.9115580" lon="-1.8379615">
        <name>Earlswood Drive</name>
      </trkpt>
      <trkpt lat="50.9115570" lon="-1.8378470">
        <name>Earlswood Drive</name>
      </trkpt>
      <trkpt lat="50.9115743" lon="-1.8377380">
        <name>Earlswood Drive</name>
      </trkpt>
      <trkpt lat="50.9115917" lon="-1.8376290">
        <name>Earlswood Drive</name>
      </trkpt>
      <trkpt lat="50.9116090" lon="-1.8375200">
        <name>Earlswood Drive</name>
      </trkpt>
      <trkpt lat="50.9116360" lon="-1.8374257">
        <name>Earlswood Drive</name>
      </trkpt>
      <trkpt lat="50.9116630" lon="-1.8373313">
        <name>Earlswood Drive</name>
      </trkpt>
      <trkpt lat="50.9116900" lon="-1.8372370">
        <name>Earlswood Drive</name>
      </trkpt>
      <trkpt lat="50.9117240" lon="-1.8371177">
        <name>Ringwood Road</name>
      </trkpt>
      <trkpt lat="50.9117580" lon="-1.8369985">
        <name>Ringwood Road</name>
      </trkpt>
      <trkpt lat="50.9117920" lon="-1.8368792">
        <name>Ringwood Road</name>
      </trkpt>
      <trkpt lat="50.9118260" lon="-1.8367600">
        <name>Ringwood Road</name>
      </trkpt>
      <trkpt lat="50.9118600" lon="-1.8366408">
        <name>Ringwood Road</name>
      </trkpt>
      <trkpt lat="50.9118940" lon="-1.8365215">
        <name>Ringwood Road</name>
      </trkpt>
      <trkpt lat="50.9119280" lon="-1.8364023">
        <name>Ringwood Road</name>
      </trkpt>
      <trkpt lat="50.9119620" lon="-1.8362830">
        <name>Ringwood Road</name>
      </trkpt>
      <trkpt lat="50.9119970" lon="-1.8361620">
        <name>Ringwood Road</name>
      </trkpt>
      <trkpt lat="50.9120120" lon="-1.8361100">
        <name>Ringwood Road</name>
      </trkpt>
      <trkpt lat="50.9120475" lon="-1.8359870">
        <name>Ringwood Road</name>
      </trkpt>
      <trkpt lat="50.9120829" lon="-1.8358640">
        <name>Ringwood Road</name>
      </trkpt>
      <trkpt lat="50.9121184" lon="-1.8357410">
        <name>Ringwood Road</name>
      </trkpt>
      <trkpt lat="50.9121538" lon="-1.8356180">
        <name>Ringwood Road</name>
      </trkpt>
      <trkpt lat="50.9121893" lon="-1.8354950">
        <name>Ringwood Road</name>
      </trkpt>
      <trkpt lat="50.9122247" lon="-1.8353720">
        <name>Ringwood Road</name>
      </trkpt>
      <trkpt lat="50.9122602" lon="-1.8352490">
        <name>Ringwood Road</name>
      </trkpt>
      <trkpt lat="50.9122956" lon="-1.8351260">
        <name>Ringwood Road</name>
      </trkpt>
      <trkpt lat="50.9123311" lon="-1.8350030">
        <name>Ringwood Road</name>
      </trkpt>
      <trkpt lat="50.9123665" lon="-1.8348800">
        <name>Ringwood Road</name>
      </trkpt>
      <trkpt lat="50.9124020" lon="-1.8347570">
        <name>Ringwood Road</name>
      </trkpt>
      <trkpt lat="50.9124287" lon="-1.8346640">
        <name>Ringwood Road</name>
      </trkpt>
      <trkpt lat="50.9124553" lon="-1.8345710">
        <name>Ringwood Road</name>
      </trkpt>
      <trkpt lat="50.9124820" lon="-1.8344780">
        <name>Ringwood Road</name>
      </trkpt>
      <trkpt lat="50.9125123" lon="-1.8343687">
        <name>Ringwood Road</name>
      </trkpt>
      <trkpt lat="50.9125427" lon="-1.8342593">
        <name>Ringwood Road</name>
      </trkpt>
      <trkpt lat="50.9125730" lon="-1.8341500">
        <name>Ringwood Road</name>
      </trkpt>
      <trkpt lat="50.9126018" lon="-1.8340450">
        <name>Ringwood Road</name>
      </trkpt>
      <trkpt lat="50.9126305" lon="-1.8339400">
        <name>Ringwood Road</name>
      </trkpt>
      <trkpt lat="50.9126593" lon="-1.8338350">
        <name>Ringwood Road</name>
      </trkpt>
      <trkpt lat="50.9126880" lon="-1.8337300">
        <name>Ringwood Road</name>
      </trkpt>
      <trkpt lat="50.9127210" lon="-1.8336103">
        <name>Ringwood Road</name>
      </trkpt>
      <trkpt lat="50.9127540" lon="-1.8334907">
        <name>Ringwood Road</name>
      </trkpt>
      <trkpt lat="50.9127870" lon="-1.8333710">
        <name>Ringwood Road</name>
      </trkpt>
      <trkpt lat="50.9128120" lon="-1.8332790">
        <name>Ringwood Road</name>
      </trkpt>
      <trkpt lat="50.9128439" lon="-1.8331635">
        <name>Ringwood Road</name>
      </trkpt>
      <trkpt lat="50.9128757" lon="-1.8330480">
        <name>Ringwood Road</name>
      </trkpt>
      <trkpt lat="50.9129076" lon="-1.8329325">
        <name>Ringwood Road</name>
      </trkpt>
      <trkpt lat="50.9129395" lon="-1.8328170">
        <name>Ringwood Road</name>
      </trkpt>
      <trkpt lat="50.9129714" lon="-1.8327015">
        <name>Ringwood Road</name>
      </trkpt>
      <trkpt lat="50.9130033" lon="-1.8325860">
        <name>Ringwood Road</name>
      </trkpt>
      <trkpt lat="50.9130351" lon="-1.8324705">
        <name>Ringwood Road</name>
      </trkpt>
      <trkpt lat="50.9130670" lon="-1.8323550">
        <name>Ringwood Road</name>
      </trkpt>
      <trkpt lat="50.9131020" lon="-1.8322462">
        <name>Ringwood Road</name>
      </trkpt>
      <trkpt lat="50.9131370" lon="-1.8321375">
        <name>Ringwood Road</name>
      </trkpt>
      <trkpt lat="50.9131720" lon="-1.8320288">
        <name>Ringwood Road</name>
      </trkpt>
      <trkpt lat="50.9132070" lon="-1.8319200">
        <name>Ringwood Road</name>
      </trkpt>
      <trkpt lat="50.9132380" lon="-1.8318130">
        <name>Ringwood Road</name>
      </trkpt>
      <trkpt lat="50.9132690" lon="-1.8317060">
        <name>Ringwood Road</name>
      </trkpt>
      <trkpt lat="50.9132940" lon="-1.8316440">
        <name>Ringwood Road</name>
      </trkpt>
      <trkpt lat="50.9133377" lon="-1.8315365">
        <name>Ringwood Road</name>
      </trkpt>
      <trkpt lat="50.9133815" lon="-1.8314290">
        <name>Ringwood Road</name>
      </trkpt>
      <trkpt lat="50.9134253" lon="-1.8313215">
        <name>Ringwood Road</name>
      </trkpt>
      <trkpt lat="50.9134690" lon="-1.8312140">
        <name>Ringwood Road</name>
      </trkpt>
      <trkpt lat="50.9135244" lon="-1.8311273">
        <name>Daggons Road</name>
      </trkpt>
      <trkpt lat="50.9135799" lon="-1.8310406">
        <name>Daggons Road</name>
      </trkpt>
      <trkpt lat="50.9136353" lon="-1.8309539">
        <name>Daggons Road</name>
      </trkpt>
      <trkpt lat="50.9136907" lon="-1.8308671">
        <name>Daggons Road</name>
      </trkpt>
      <trkpt lat="50.9137461" lon="-1.8307804">
        <name>Daggons Road</name>
      </trkpt>
      <trkpt lat="50.9138016" lon="-1.8306937">
        <name>Daggons Road</name>
      </trkpt>
      <trkpt lat="50.9138570" lon="-1.8306070">
        <name>Daggons Road</name>
      </trkpt>
      <trkpt lat="50.9138690" lon="-1.8305900">
        <name>Daggons Road</name>
      </trkpt>
      <trkpt lat="50.9139295" lon="-1.8305050">
        <name>Daggons Road</name>
      </trkpt>
      <trkpt lat="50.9139900" lon="-1.8304200">
        <name>Daggons Road</name>
      </trkpt>
      <trkpt lat="50.9140403" lon="-1.8303510">
        <name>Daggons Road</name>
      </trkpt>
      <trkpt lat="50.9140907" lon="-1.8302820">
        <name>Daggons Road</name>
      </trkpt>
      <trkpt lat="50.9141410" lon="-1.8302130">
        <name>Daggons Road</name>
      </trkpt>
      <trkpt lat="50.9141970" lon="-1.8301390">
        <name>Daggons Road</name>
      </trkpt>
      <trkpt lat="50.9142530" lon="-1.8300650">
        <name>Daggons Road</name>
      </trkpt>
      <trkpt lat="50.9143182" lon="-1.8299798">
        <name>Daggons Road</name>
      </trkpt>
      <trkpt lat="50.9143833" lon="-1.8298947">
        <name>Daggons Road</name>
      </trkpt>
      <trkpt lat="50.9144485" lon="-1.8298095">
        <name>Daggons Road</name>
      </trkpt>
      <trkpt lat="50.9145137" lon="-1.8297243">
        <name>Daggons Road</name>
      </trkpt>
      <trkpt lat="50.9145788" lon="-1.8296392">
        <name>Daggons Road</name>
      </trkpt>
      <trkpt lat="50.9146440" lon="-1.8295540">
        <name>Daggons Road</name>
      </trkpt>
      <trkpt lat="50.9147122" lon="-1.8294649">
        <name>Daggons Road</name>
      </trkpt>
      <trkpt lat="50.9147804" lon="-1.8293758">
        <name>Daggons Road</name>
      </trkpt>
      <trkpt lat="50.9148487" lon="-1.8292867">
        <name>Daggons Road</name>
      </trkpt>
      <trkpt lat="50.9149169" lon="-1.8291976">
        <name>Daggons Road</name>
      </trkpt>
      <trkpt lat="50.9149851" lon="-1.8291084">
        <name>Daggons Road</name>
      </trkpt>
      <trkpt lat="50.9150533" lon="-1.8290193">
        <name>Daggons Road</name>
      </trkpt>
      <trkpt lat="50.9151216" lon="-1.8289302">
        <name>Daggons Road</name>
      </trkpt>
      <trkpt lat="50.9151898" lon="-1.8288411">
        <name>Daggons Road</name>
      </trkpt>
      <trkpt lat="50.9152580" lon="-1.8287520">
        <name>Daggons Road</name>
      </trkpt>
      <trkpt lat="50.9152930" lon="-1.8287010">
        <name>Daggons Road</name>
      </trkpt>
      <trkpt lat="50.9153582" lon="-1.8286052">
        <name>Daggons Road</name>
      </trkpt>
      <trkpt lat="50.9154234" lon="-1.8285094">
        <name>Daggons Road</name>
      </trkpt>
      <trkpt lat="50.9154886" lon="-1.8284136">
        <name>Daggons Road</name>
      </trkpt>
      <trkpt lat="50.9155538" lon="-1.8283178">
        <name>Daggons Road</name>
      </trkpt>
      <trkpt lat="50.9156190" lon="-1.8282220">
        <name>Daggons Road</name>
      </trkpt>
      <trkpt lat="50.9156842" lon="-1.8281262">
        <name>Daggons Road</name>
      </trkpt>
      <trkpt lat="50.9157494" lon="-1.8280304">
        <name>Daggons Road</name>
      </trkpt>
      <trkpt lat="50.9158146" lon="-1.8279346">
        <name>Daggons Road</name>
      </trkpt>
      <trkpt lat="50.9158798" lon="-1.8278388">
        <name>Daggons Road</name>
      </trkpt>
      <trkpt lat="50.9159450" lon="-1.8277430">
        <name>Daggons Road</name>
      </trkpt>
      <trkpt lat="50.9159840" lon="-1.8276590">
        <name>Daggons Road</name>
      </trkpt>
      <trkpt lat="50.9160338" lon="-1.8275513">
        <name>Daggons Road</name>
      </trkpt>
      <trkpt lat="50.9160837" lon="-1.8274437">
        <name>Daggons Road</name>
      </trkpt>
      <trkpt lat="50.9161335" lon="-1.8273360">
        <name>Daggons Road</name>
      </trkpt>
      <trkpt lat="50.9161833" lon="-1.8272283">
        <name>Daggons Road</name>
      </trkpt>
      <trkpt lat="50.9162332" lon="-1.8271207">
        <name>Daggons Road</name>
      </trkpt>
      <trkpt lat="50.9162830" lon="-1.8270130">
        <name>Daggons Road</name>
      </trkpt>
      <trkpt lat="50.9163175" lon="-1.8269380">
        <name>Daggons Road</name>
      </trkpt>
      <trkpt lat="50.9163520" lon="-1.8268630">
        <name>Daggons Road</name>
      </trkpt>
      <trkpt lat="50.9164026" lon="-1.8267608">
        <name>Daggons Road</name>
      </trkpt>
      <trkpt lat="50.9164532" lon="-1.8266586">
        <name>Daggons Road</name>
      </trkpt>
      <trkpt lat="50.9165038" lon="-1.8265564">
        <name>Daggons Road</name>
      </trkpt>
      <trkpt lat="50.9165544" lon="-1.8264542">
        <name>Daggons Road</name>
      </trkpt>
      <trkpt lat="50.9166050" lon="-1.8263520">
        <name>Daggons Road</name>
      </trkpt>
      <trkpt lat="50.9165710" lon="-1.8262725">
        <name>Daggons Road</name>
      </trkpt>
      <trkpt lat="50.9165370" lon="-1.8261930">
        <name>Daggons Road</name>
      </trkpt>
      <trkpt lat="50.9165190" lon="-1.8261730">
        <name>Daggons Road</name>
      </trkpt>
    </trkseg>
  </trk>
</gpx>
