<?xml version="1.0" encoding="UTF-8"?>
<gpx version="1.1" creator="TurboSanta Route Planner">
  <trk>
    <name>TurboSanta Route (10m density)</name>
    <trkseg>
      <trkpt lat="50.9363740" lon="-1.7857880">
        <name>Burgate Fields</name>
      </trkpt>
      <trkpt lat="50.9363580" lon="-1.7857250">
        <name>Burgate Fields</name>
      </trkpt>
      <trkpt lat="50.9362905" lon="-1.7857927">
        <name>Salisbury Road</name>
      </trkpt>
      <trkpt lat="50.9362230" lon="-1.7858603">
        <name>Salisbury Road</name>
      </trkpt>
      <trkpt lat="50.9361555" lon="-1.7859280">
        <name>Salisbury Road</name>
      </trkpt>
      <trkpt lat="50.9360880" lon="-1.7859957">
        <name>Salisbury Road</name>
      </trkpt>
      <trkpt lat="50.9360205" lon="-1.7860633">
        <name>Salisbury Road</name>
      </trkpt>
      <trkpt lat="50.9359530" lon="-1.7861310">
        <name>Salisbury Road</name>
      </trkpt>
      <trkpt lat="50.9358828" lon="-1.7861882">
        <name>Salisbury Road</name>
      </trkpt>
      <trkpt lat="50.9358126" lon="-1.7862454">
        <name>Salisbury Road</name>
      </trkpt>
      <trkpt lat="50.9357424" lon="-1.7863026">
        <name>Salisbury Road</name>
      </trkpt>
      <trkpt lat="50.9356722" lon="-1.7863598">
        <name>Salisbury Road</name>
      </trkpt>
      <trkpt lat="50.9356020" lon="-1.7864170">
        <name>Salisbury Road</name>
      </trkpt>
      <trkpt lat="50.9355289" lon="-1.7864737">
        <name>Salisbury Road</name>
      </trkpt>
      <trkpt lat="50.9354558" lon="-1.7865305">
        <name>Salisbury Road</name>
      </trkpt>
      <trkpt lat="50.9353826" lon="-1.7865872">
        <name>Salisbury Road</name>
      </trkpt>
      <trkpt lat="50.9353095" lon="-1.7866440">
        <name>Salisbury Road</name>
      </trkpt>
      <trkpt lat="50.9352364" lon="-1.7867008">
        <name>Salisbury Road</name>
      </trkpt>
      <trkpt lat="50.9351633" lon="-1.7867575">
        <name>Salisbury Road</name>
      </trkpt>
      <trkpt lat="50.9350901" lon="-1.7868143">
        <name>Salisbury Road</name>
      </trkpt>
      <trkpt lat="50.9350170" lon="-1.7868710">
        <name>Salisbury Road</name>
      </trkpt>
      <trkpt lat="50.9349530" lon="-1.7869210">
        <name>Salisbury Road</name>
      </trkpt>
      <trkpt lat="50.9349810" lon="-1.7870390">
        <name>Salisbury Road</name>
      </trkpt>
      <trkpt lat="50.9349823" lon="-1.7871797">
        <name>Salisbury Road</name>
      </trkpt>
      <trkpt lat="50.9349837" lon="-1.7873203">
        <name>Salisbury Road</name>
      </trkpt>
      <trkpt lat="50.9349850" lon="-1.7874610">
        <name>Salisbury Road</name>
      </trkpt>
      <trkpt lat="50.9349857" lon="-1.7875890">
        <name>Salisbury Road</name>
      </trkpt>
      <trkpt lat="50.9349863" lon="-1.7877170">
        <name>Salisbury Road</name>
      </trkpt>
      <trkpt lat="50.9349870" lon="-1.7878450">
        <name>Salisbury Road</name>
      </trkpt>
      <trkpt lat="50.9349870" lon="-1.7878640">
        <name>Salisbury Road</name>
      </trkpt>
      <trkpt lat="50.9349877" lon="-1.7879855">
        <name>Waverley Road</name>
      </trkpt>
      <trkpt lat="50.9349885" lon="-1.7881070">
        <name>Waverley Road</name>
      </trkpt>
      <trkpt lat="50.9349893" lon="-1.7882285">
        <name>Waverley Road</name>
      </trkpt>
      <trkpt lat="50.9349900" lon="-1.7883500">
        <name>Waverley Road</name>
      </trkpt>
      <trkpt lat="50.9349910" lon="-1.7884903">
        <name>Waverley Road</name>
      </trkpt>
      <trkpt lat="50.9349920" lon="-1.7886307">
        <name>Waverley Road</name>
      </trkpt>
      <trkpt lat="50.9349930" lon="-1.7887710">
        <name>Waverley Road</name>
      </trkpt>
      <trkpt lat="50.9349940" lon="-1.7889113">
        <name>Waverley Road</name>
      </trkpt>
      <trkpt lat="50.9349950" lon="-1.7890517">
        <name>Waverley Road</name>
      </trkpt>
      <trkpt lat="50.9349960" lon="-1.7891920">
        <name>Waverley Road</name>
      </trkpt>
      <trkpt lat="50.9349978" lon="-1.7893082">
        <name>Waverley Road</name>
      </trkpt>
      <trkpt lat="50.9349996" lon="-1.7894244">
        <name>Waverley Road</name>
      </trkpt>
      <trkpt lat="50.9350014" lon="-1.7895406">
        <name>Waverley Road</name>
      </trkpt>
      <trkpt lat="50.9350032" lon="-1.7896568">
        <name>Waverley Road</name>
      </trkpt>
      <trkpt lat="50.9350050" lon="-1.7897730">
        <name>Waverley Road</name>
      </trkpt>
      <trkpt lat="50.9350066" lon="-1.7899056">
        <name>Waverley Road</name>
      </trkpt>
      <trkpt lat="50.9350081" lon="-1.7900381">
        <name>Waverley Road</name>
      </trkpt>
      <trkpt lat="50.9350097" lon="-1.7901707">
        <name>Waverley Road</name>
      </trkpt>
      <trkpt lat="50.9350113" lon="-1.7903033">
        <name>Waverley Road</name>
      </trkpt>
      <trkpt lat="50.9350129" lon="-1.7904359">
        <name>Waverley Road</name>
      </trkpt>
      <trkpt lat="50.9350144" lon="-1.7905684">
        <name>Waverley Road</name>
      </trkpt>
      <trkpt lat="50.9350160" lon="-1.7907010">
        <name>Waverley Road</name>
      </trkpt>
      <trkpt lat="50.9350176" lon="-1.7908336">
        <name>Waverley Road</name>
      </trkpt>
      <trkpt lat="50.9350191" lon="-1.7909661">
        <name>Waverley Road</name>
      </trkpt>
      <trkpt lat="50.9350207" lon="-1.7910987">
        <name>Waverley Road</name>
      </trkpt>
      <trkpt lat="50.9350223" lon="-1.7912313">
        <name>Waverley Road</name>
      </trkpt>
      <trkpt lat="50.9350239" lon="-1.7913639">
        <name>Waverley Road</name>
      </trkpt>
      <trkpt lat="50.9350254" lon="-1.7914964">
        <name>Waverley Road</name>
      </trkpt>
      <trkpt lat="50.9350270" lon="-1.7916290">
        <name>Waverley Road</name>
      </trkpt>
      <trkpt lat="50.9350283" lon="-1.7917445">
        <name>Waverley Road</name>
      </trkpt>
      <trkpt lat="50.9350295" lon="-1.7918600">
        <name>Waverley Road</name>
      </trkpt>
      <trkpt lat="50.9350307" lon="-1.7919755">
        <name>Waverley Road</name>
      </trkpt>
      <trkpt lat="50.9350320" lon="-1.7920910">
        <name>Waverley Road</name>
      </trkpt>
      <trkpt lat="50.9350915" lon="-1.7920820">
        <name>Waverley Road</name>
      </trkpt>
      <trkpt lat="50.9351510" lon="-1.7920730">
        <name>Waverley Road</name>
      </trkpt>
      <trkpt lat="50.9352235" lon="-1.7920625">
        <name>Waverley Road</name>
      </trkpt>
      <trkpt lat="50.9352960" lon="-1.7920520">
        <name>Waverley Road</name>
      </trkpt>
      <trkpt lat="50.9353013" lon="-1.7921898">
        <name>Waverley Road</name>
      </trkpt>
      <trkpt lat="50.9353067" lon="-1.7923277">
        <name>Waverley Road</name>
      </trkpt>
      <trkpt lat="50.9353120" lon="-1.7924655">
        <name>Waverley Road</name>
      </trkpt>
      <trkpt lat="50.9353173" lon="-1.7926033">
        <name>Waverley Road</name>
      </trkpt>
      <trkpt lat="50.9353227" lon="-1.7927412">
        <name>Waverley Road</name>
      </trkpt>
      <trkpt lat="50.9353280" lon="-1.7928790">
        <name>Waverley Road</name>
      </trkpt>
      <trkpt lat="50.9353290" lon="-1.7930070">
        <name>Waverley Road</name>
      </trkpt>
      <trkpt lat="50.9353300" lon="-1.7931350">
        <name>Waverley Road</name>
      </trkpt>
      <trkpt lat="50.9353280" lon="-1.7931850">
        <name>Waverley Road</name>
      </trkpt>
      <trkpt lat="50.9353250" lon="-1.7932685">
        <name>Waverley Road</name>
      </trkpt>
      <trkpt lat="50.9353220" lon="-1.7933520">
        <name>Waverley Road</name>
      </trkpt>
      <trkpt lat="50.9353150" lon="-1.7934880">
        <name>Waverley Road</name>
      </trkpt>
      <trkpt lat="50.9352950" lon="-1.7936190">
        <name>Waverley Road</name>
      </trkpt>
      <trkpt lat="50.9352750" lon="-1.7937500">
        <name>Waverley Road</name>
      </trkpt>
      <trkpt lat="50.9352403" lon="-1.7938557">
        <name>Waverley Road</name>
      </trkpt>
      <trkpt lat="50.9352057" lon="-1.7939613">
        <name>Waverley Road</name>
      </trkpt>
      <trkpt lat="50.9351710" lon="-1.7940670">
        <name>Waverley Road</name>
      </trkpt>
      <trkpt lat="50.9352130" lon="-1.7941060">
        <name>Waverley Road</name>
      </trkpt>
      <trkpt lat="50.9352290" lon="-1.7941210">
        <name>Waverley Road</name>
      </trkpt>
      <trkpt lat="50.9353036" lon="-1.7941950">
        <name>Pennys Lane</name>
      </trkpt>
      <trkpt lat="50.9353782" lon="-1.7942690">
        <name>Pennys Lane</name>
      </trkpt>
      <trkpt lat="50.9354529" lon="-1.7943430">
        <name>Pennys Lane</name>
      </trkpt>
      <trkpt lat="50.9355275" lon="-1.7944170">
        <name>Pennys Lane</name>
      </trkpt>
      <trkpt lat="50.9356021" lon="-1.7944910">
        <name>Pennys Lane</name>
      </trkpt>
      <trkpt lat="50.9356767" lon="-1.7945650">
        <name>Pennys Lane</name>
      </trkpt>
      <trkpt lat="50.9357514" lon="-1.7946390">
        <name>Pennys Lane</name>
      </trkpt>
      <trkpt lat="50.9358260" lon="-1.7947130">
        <name>Pennys Lane</name>
      </trkpt>
      <trkpt lat="50.9358905" lon="-1.7947650">
        <name>Pennys Lane</name>
      </trkpt>
      <trkpt lat="50.9359550" lon="-1.7948170">
        <name>Pennys Lane</name>
      </trkpt>
      <trkpt lat="50.9359960" lon="-1.7948525">
        <name>Pennys Lane</name>
      </trkpt>
      <trkpt lat="50.9360370" lon="-1.7948880">
        <name>Pennys Lane</name>
      </trkpt>
      <trkpt lat="50.9361085" lon="-1.7949500">
        <name>Pennys Lane</name>
      </trkpt>
      <trkpt lat="50.9361800" lon="-1.7950120">
        <name>Pennys Lane</name>
      </trkpt>
      <trkpt lat="50.9362515" lon="-1.7950740">
        <name>Pennys Lane</name>
      </trkpt>
      <trkpt lat="50.9363230" lon="-1.7951360">
        <name>Pennys Lane</name>
      </trkpt>
      <trkpt lat="50.9363580" lon="-1.7950500">
        <name>Pennys Lane</name>
      </trkpt>
      <trkpt lat="50.9363930" lon="-1.7949640">
        <name>Pennys Lane</name>
      </trkpt>
      <trkpt lat="50.9364250" lon="-1.7948850">
        <name>Pennys Lane</name>
      </trkpt>
      <trkpt lat="50.9364570" lon="-1.7948060">
        <name>Pennys Lane</name>
      </trkpt>
      <trkpt lat="50.9364977" lon="-1.7947330">
        <name>Burnham Road</name>
      </trkpt>
      <trkpt lat="50.9365383" lon="-1.7946600">
        <name>Burnham Road</name>
      </trkpt>
      <trkpt lat="50.9365790" lon="-1.7945870">
        <name>Burnham Road</name>
      </trkpt>
      <trkpt lat="50.9365910" lon="-1.7945650">
        <name>Burnham Road</name>
      </trkpt>
      <trkpt lat="50.9366480" lon="-1.7944970">
        <name>Burnham Road</name>
      </trkpt>
      <trkpt lat="50.9367190" lon="-1.7944260">
        <name>Burnham Road</name>
      </trkpt>
      <trkpt lat="50.9367940" lon="-1.7943680">
        <name>Burnham Road</name>
      </trkpt>
      <trkpt lat="50.9368595" lon="-1.7943285">
        <name>Burnham Road</name>
      </trkpt>
      <trkpt lat="50.9369250" lon="-1.7942890">
        <name>Burnham Road</name>
      </trkpt>
      <trkpt lat="50.9370040" lon="-1.7942650">
        <name>Burnham Road</name>
      </trkpt>
      <trkpt lat="50.9370625" lon="-1.7942630">
        <name>Burnham Road</name>
      </trkpt>
      <trkpt lat="50.9371210" lon="-1.7942610">
        <name>Burnham Road</name>
      </trkpt>
      <trkpt lat="50.9371750" lon="-1.7942625">
        <name>Burnham Road</name>
      </trkpt>
      <trkpt lat="50.9372290" lon="-1.7942640">
        <name>Burnham Road</name>
      </trkpt>
      <trkpt lat="50.9372987" lon="-1.7942607">
        <name>Burnham Road</name>
      </trkpt>
      <trkpt lat="50.9373683" lon="-1.7942573">
        <name>Burnham Road</name>
      </trkpt>
      <trkpt lat="50.9374380" lon="-1.7942540">
        <name>Burnham Road</name>
      </trkpt>
      <trkpt lat="50.9375240" lon="-1.7942480">
        <name>Burnham Road</name>
      </trkpt>
      <trkpt lat="50.9375450" lon="-1.7942470">
        <name>Whitsbury Road</name>
      </trkpt>
      <trkpt lat="50.9376020" lon="-1.7942167">
        <name>Whitsbury Road</name>
      </trkpt>
      <trkpt lat="50.9376590" lon="-1.7941863">
        <name>Whitsbury Road</name>
      </trkpt>
      <trkpt lat="50.9377160" lon="-1.7941560">
        <name>Whitsbury Road</name>
      </trkpt>
      <trkpt lat="50.9377660" lon="-1.7941220">
        <name>Whitsbury Road</name>
      </trkpt>
      <trkpt lat="50.9378200" lon="-1.7940910">
        <name>Whitsbury Road</name>
      </trkpt>
      <trkpt lat="50.9378570" lon="-1.7940700">
        <name>Whitsbury Road</name>
      </trkpt>
      <trkpt lat="50.9379235" lon="-1.7940095">
        <name>Whitsbury Road</name>
      </trkpt>
      <trkpt lat="50.9379900" lon="-1.7939490">
        <name>Whitsbury Road</name>
      </trkpt>
      <trkpt lat="50.9380535" lon="-1.7938915">
        <name>Whitsbury Road</name>
      </trkpt>
      <trkpt lat="50.9381170" lon="-1.7938340">
        <name>Whitsbury Road</name>
      </trkpt>
      <trkpt lat="50.9381805" lon="-1.7937765">
        <name>Whitsbury Road</name>
      </trkpt>
      <trkpt lat="50.9382440" lon="-1.7937190">
        <name>Whitsbury Road</name>
      </trkpt>
      <trkpt lat="50.9383160" lon="-1.7937030">
        <name>Whitsbury Road</name>
      </trkpt>
      <trkpt lat="50.9383750" lon="-1.7936940">
        <name>Whitsbury Road</name>
      </trkpt>
      <trkpt lat="50.9384400" lon="-1.7936910">
        <name>Whitsbury Road</name>
      </trkpt>
      <trkpt lat="50.9385040" lon="-1.7936700">
        <name>Augustus Avenue</name>
      </trkpt>
      <trkpt lat="50.9385740" lon="-1.7936320">
        <name>Augustus Avenue</name>
      </trkpt>
      <trkpt lat="50.9386365" lon="-1.7935810">
        <name>Augustus Avenue</name>
      </trkpt>
      <trkpt lat="50.9386990" lon="-1.7935300">
        <name>Augustus Avenue</name>
      </trkpt>
      <trkpt lat="50.9387395" lon="-1.7934960">
        <name>Augustus Avenue</name>
      </trkpt>
      <trkpt lat="50.9387800" lon="-1.7934620">
        <name>Augustus Avenue</name>
      </trkpt>
      <trkpt lat="50.9388150" lon="-1.7934340">
        <name>Augustus Avenue</name>
      </trkpt>
      <trkpt lat="50.9388780" lon="-1.7933890">
        <name>Augustus Avenue</name>
      </trkpt>
      <trkpt lat="50.9389540" lon="-1.7933380">
        <name>Augustus Avenue</name>
      </trkpt>
      <trkpt lat="50.9390100" lon="-1.7932870">
        <name>Augustus Avenue</name>
      </trkpt>
      <trkpt lat="50.9390220" lon="-1.7932710">
        <name>Augustus Avenue</name>
      </trkpt>
      <trkpt lat="50.9390650" lon="-1.7932140">
        <name>Augustus Avenue</name>
      </trkpt>
      <trkpt lat="50.9391170" lon="-1.7931395">
        <name>Augustus Avenue</name>
      </trkpt>
      <trkpt lat="50.9391690" lon="-1.7930650">
        <name>Augustus Avenue</name>
      </trkpt>
      <trkpt lat="50.9392180" lon="-1.7929905">
        <name>Augustus Avenue</name>
      </trkpt>
      <trkpt lat="50.9392670" lon="-1.7929160">
        <name>Augustus Avenue</name>
      </trkpt>
      <trkpt lat="50.9393250" lon="-1.7928220">
        <name>Augustus Avenue</name>
      </trkpt>
      <trkpt lat="50.9393600" lon="-1.7927540">
        <name>Augustus Avenue</name>
      </trkpt>
      <trkpt lat="50.9393940" lon="-1.7926640">
        <name>Augustus Avenue</name>
      </trkpt>
      <trkpt lat="50.9393980" lon="-1.7925930">
        <name>Augustus Avenue</name>
      </trkpt>
      <trkpt lat="50.9393880" lon="-1.7925380">
        <name>Augustus Avenue</name>
      </trkpt>
      <trkpt lat="50.9393770" lon="-1.7924880">
        <name>Augustus Avenue</name>
      </trkpt>
      <trkpt lat="50.9393540" lon="-1.7924350">
        <name>Augustus Avenue</name>
      </trkpt>
      <trkpt lat="50.9393100" lon="-1.7923795">
        <name>Augustus Avenue</name>
      </trkpt>
      <trkpt lat="50.9392660" lon="-1.7923240">
        <name>Augustus Avenue</name>
      </trkpt>
      <trkpt lat="50.9392165" lon="-1.7922845">
        <name>Augustus Avenue</name>
      </trkpt>
      <trkpt lat="50.9391670" lon="-1.7922450">
        <name>Augustus Avenue</name>
      </trkpt>
      <trkpt lat="50.9391135" lon="-1.7922155">
        <name>Augustus Avenue</name>
      </trkpt>
      <trkpt lat="50.9390600" lon="-1.7921860">
        <name>Augustus Avenue</name>
      </trkpt>
      <trkpt lat="50.9389980" lon="-1.7921700">
        <name>Augustus Avenue</name>
      </trkpt>
      <trkpt lat="50.9389490" lon="-1.7921580">
        <name>Augustus Avenue</name>
      </trkpt>
      <trkpt lat="50.9388740" lon="-1.7921600">
        <name>Augustus Avenue</name>
      </trkpt>
      <trkpt lat="50.9387990" lon="-1.7921620">
        <name>Augustus Avenue</name>
      </trkpt>
      <trkpt lat="50.9387350" lon="-1.7921720">
        <name>Augustus Avenue</name>
      </trkpt>
      <trkpt lat="50.9386710" lon="-1.7921820">
        <name>Augustus Avenue</name>
      </trkpt>
      <trkpt lat="50.9386015" lon="-1.7922105">
        <name>Augustus Avenue</name>
      </trkpt>
      <trkpt lat="50.9385320" lon="-1.7922390">
        <name>Augustus Avenue</name>
      </trkpt>
      <trkpt lat="50.9384825" lon="-1.7922585">
        <name>Augustus Avenue</name>
      </trkpt>
      <trkpt lat="50.9384330" lon="-1.7922780">
        <name>Augustus Avenue</name>
      </trkpt>
      <trkpt lat="50.9383480" lon="-1.7923190">
        <name>Augustus Avenue</name>
      </trkpt>
      <trkpt lat="50.9382660" lon="-1.7923370">
        <name>Augustus Avenue</name>
      </trkpt>
      <trkpt lat="50.9381890" lon="-1.7923340">
        <name>Augustus Avenue</name>
      </trkpt>
      <trkpt lat="50.9381220" lon="-1.7923300">
        <name>Augustus Avenue</name>
      </trkpt>
      <trkpt lat="50.9380675" lon="-1.7923340">
        <name>Augustus Avenue</name>
      </trkpt>
      <trkpt lat="50.9380130" lon="-1.7923380">
        <name>Augustus Avenue</name>
      </trkpt>
      <trkpt lat="50.9379860" lon="-1.7923580">
        <name>Augustus Avenue</name>
      </trkpt>
      <trkpt lat="50.9379740" lon="-1.7923810">
        <name>Augustus Avenue</name>
      </trkpt>
      <trkpt lat="50.9379580" lon="-1.7924270">
        <name>Augustus Avenue</name>
      </trkpt>
      <trkpt lat="50.9378720" lon="-1.7924320">
        <name>Augustus Avenue</name>
      </trkpt>
      <trkpt lat="50.9377920" lon="-1.7924545">
        <name>Augustus Avenue</name>
      </trkpt>
      <trkpt lat="50.9377120" lon="-1.7924770">
        <name>Augustus Avenue</name>
      </trkpt>
      <trkpt lat="50.9376910" lon="-1.7924920">
        <name>Augustus Avenue</name>
      </trkpt>
      <trkpt lat="50.9376500" lon="-1.7925210">
        <name>Augustus Avenue</name>
      </trkpt>
      <trkpt lat="50.9375880" lon="-1.7925960">
        <name>Augustus Avenue</name>
      </trkpt>
      <trkpt lat="50.9375410" lon="-1.7926910">
        <name>Augustus Avenue</name>
      </trkpt>
      <trkpt lat="50.9374950" lon="-1.7928100">
        <name>Caspars Way</name>
      </trkpt>
      <trkpt lat="50.9374800" lon="-1.7928885">
        <name>Caspars Way</name>
      </trkpt>
      <trkpt lat="50.9374650" lon="-1.7929670">
        <name>Caspars Way</name>
      </trkpt>
      <trkpt lat="50.9374560" lon="-1.7930430">
        <name>Caspars Way</name>
      </trkpt>
      <trkpt lat="50.9374470" lon="-1.7931190">
        <name>Caspars Way</name>
      </trkpt>
      <trkpt lat="50.9374640" lon="-1.7932040">
        <name>Caspars Way</name>
      </trkpt>
      <trkpt lat="50.9374955" lon="-1.7932935">
        <name>Caspars Way</name>
      </trkpt>
      <trkpt lat="50.9375270" lon="-1.7933830">
        <name>Caspars Way</name>
      </trkpt>
      <trkpt lat="50.9375670" lon="-1.7934798">
        <name>Caspars Way</name>
      </trkpt>
      <trkpt lat="50.9376070" lon="-1.7935766">
        <name>Caspars Way</name>
      </trkpt>
      <trkpt lat="50.9376470" lon="-1.7936734">
        <name>Caspars Way</name>
      </trkpt>
      <trkpt lat="50.9376870" lon="-1.7937702">
        <name>Caspars Way</name>
      </trkpt>
      <trkpt lat="50.9377270" lon="-1.7938670">
        <name>Caspars Way</name>
      </trkpt>
      <trkpt lat="50.9377735" lon="-1.7939790">
        <name>Caspars Way</name>
      </trkpt>
      <trkpt lat="50.9378200" lon="-1.7940910">
        <name>Caspars Way</name>
      </trkpt>
      <trkpt lat="50.9377660" lon="-1.7941220">
        <name>Caspars Way</name>
      </trkpt>
      <trkpt lat="50.9377160" lon="-1.7941560">
        <name>Caspars Way</name>
      </trkpt>
      <trkpt lat="50.9376590" lon="-1.7941863">
        <name>Caspars Way</name>
      </trkpt>
      <trkpt lat="50.9376020" lon="-1.7942167">
        <name>Caspars Way</name>
      </trkpt>
      <trkpt lat="50.9375450" lon="-1.7942470">
        <name>Caspars Way</name>
      </trkpt>
      <trkpt lat="50.9374915" lon="-1.7942505">
        <name>Caspars Way</name>
      </trkpt>
      <trkpt lat="50.9374380" lon="-1.7942540">
        <name>Caspars Way</name>
      </trkpt>
      <trkpt lat="50.9373683" lon="-1.7942573">
        <name>Caspars Way</name>
      </trkpt>
      <trkpt lat="50.9372987" lon="-1.7942607">
        <name>Caspars Way</name>
      </trkpt>
      <trkpt lat="50.9372290" lon="-1.7942640">
        <name>Caspars Way</name>
      </trkpt>
      <trkpt lat="50.9371750" lon="-1.7942625">
        <name>Caspars Way</name>
      </trkpt>
      <trkpt lat="50.9371210" lon="-1.7942610">
        <name>Caspars Way</name>
      </trkpt>
      <trkpt lat="50.9370625" lon="-1.7942630">
        <name>Caspars Way</name>
      </trkpt>
      <trkpt lat="50.9370040" lon="-1.7942650">
        <name>Caspars Way</name>
      </trkpt>
      <trkpt lat="50.9369250" lon="-1.7942890">
        <name>Caspars Way</name>
      </trkpt>
      <trkpt lat="50.9368710" lon="-1.7943210">
        <name>Caspars Way</name>
      </trkpt>
      <trkpt lat="50.9367940" lon="-1.7943680">
        <name>Caspars Way</name>
      </trkpt>
      <trkpt lat="50.9367190" lon="-1.7944260">
        <name>Caspars Way</name>
      </trkpt>
      <trkpt lat="50.9366480" lon="-1.7944970">
        <name>Caspars Way</name>
      </trkpt>
      <trkpt lat="50.9365910" lon="-1.7945650">
        <name>Caspars Way</name>
      </trkpt>
      <trkpt lat="50.9365790" lon="-1.7945870">
        <name>Caspars Way</name>
      </trkpt>
      <trkpt lat="50.9365383" lon="-1.7946600">
        <name>Caspars Way</name>
      </trkpt>
      <trkpt lat="50.9364977" lon="-1.7947330">
        <name>Caspars Way</name>
      </trkpt>
      <trkpt lat="50.9364570" lon="-1.7948060">
        <name>Caspars Way</name>
      </trkpt>
      <trkpt lat="50.9364123" lon="-1.7949160">
        <name>Caspars Way</name>
      </trkpt>
      <trkpt lat="50.9363677" lon="-1.7950260">
        <name>Caspars Way</name>
      </trkpt>
      <trkpt lat="50.9363230" lon="-1.7951360">
        <name>Caspars Way</name>
      </trkpt>
      <trkpt lat="50.9363745" lon="-1.7951795">
        <name>Caspars Way</name>
      </trkpt>
      <trkpt lat="50.9364260" lon="-1.7952230">
        <name>Caspars Way</name>
      </trkpt>
      <trkpt lat="50.9364725" lon="-1.7952625">
        <name>Caspars Way</name>
      </trkpt>
      <trkpt lat="50.9365190" lon="-1.7953020">
        <name>Caspars Way</name>
      </trkpt>
      <trkpt lat="50.9365894" lon="-1.7953620">
        <name>Caspars Way</name>
      </trkpt>
      <trkpt lat="50.9366598" lon="-1.7954220">
        <name>Caspars Way</name>
      </trkpt>
      <trkpt lat="50.9367302" lon="-1.7954820">
        <name>Caspars Way</name>
      </trkpt>
      <trkpt lat="50.9368006" lon="-1.7955420">
        <name>Caspars Way</name>
      </trkpt>
      <trkpt lat="50.9368710" lon="-1.7956020">
        <name>Caspars Way</name>
      </trkpt>
      <trkpt lat="50.9369465" lon="-1.7956657">
        <name>Caspars Way</name>
      </trkpt>
      <trkpt lat="50.9370220" lon="-1.7957295">
        <name>Caspars Way</name>
      </trkpt>
      <trkpt lat="50.9370975" lon="-1.7957933">
        <name>Caspars Way</name>
      </trkpt>
      <trkpt lat="50.9371730" lon="-1.7958570">
        <name>Caspars Way</name>
      </trkpt>
      <trkpt lat="50.9372160" lon="-1.7958940">
        <name>Caspars Way</name>
      </trkpt>
      <trkpt lat="50.9372590" lon="-1.7959310">
        <name>Caspars Way</name>
      </trkpt>
      <trkpt lat="50.9373391" lon="-1.7959944">
        <name>Caspars Way</name>
      </trkpt>
      <trkpt lat="50.9374192" lon="-1.7960577">
        <name>Caspars Way</name>
      </trkpt>
      <trkpt lat="50.9374994" lon="-1.7961211">
        <name>Caspars Way</name>
      </trkpt>
      <trkpt lat="50.9375795" lon="-1.7961845">
        <name>Caspars Way</name>
      </trkpt>
      <trkpt lat="50.9376596" lon="-1.7962479">
        <name>Caspars Way</name>
      </trkpt>
      <trkpt lat="50.9377397" lon="-1.7963113">
        <name>Caspars Way</name>
      </trkpt>
      <trkpt lat="50.9378199" lon="-1.7963746">
        <name>Caspars Way</name>
      </trkpt>
      <trkpt lat="50.9379000" lon="-1.7964380">
        <name>Caspars Way</name>
      </trkpt>
      <trkpt lat="50.9379180" lon="-1.7964520">
        <name>Caspars Way</name>
      </trkpt>
      <trkpt lat="50.9379958" lon="-1.7964988">
        <name>Caspars Way</name>
      </trkpt>
      <trkpt lat="50.9380736" lon="-1.7965456">
        <name>Caspars Way</name>
      </trkpt>
      <trkpt lat="50.9381514" lon="-1.7965924">
        <name>Caspars Way</name>
      </trkpt>
      <trkpt lat="50.9382292" lon="-1.7966392">
        <name>Caspars Way</name>
      </trkpt>
      <trkpt lat="50.9383070" lon="-1.7966860">
        <name>Caspars Way</name>
      </trkpt>
      <trkpt lat="50.9383858" lon="-1.7967196">
        <name>Caspars Way</name>
      </trkpt>
      <trkpt lat="50.9384646" lon="-1.7967532">
        <name>Caspars Way</name>
      </trkpt>
      <trkpt lat="50.9385434" lon="-1.7967868">
        <name>Caspars Way</name>
      </trkpt>
      <trkpt lat="50.9386222" lon="-1.7968204">
        <name>Caspars Way</name>
      </trkpt>
      <trkpt lat="50.9387010" lon="-1.7968540">
        <name>Caspars Way</name>
      </trkpt>
      <trkpt lat="50.9386960" lon="-1.7969240">
        <name>Caspars Way</name>
      </trkpt>
      <trkpt lat="50.9386870" lon="-1.7970500">
        <name>Caspars Way</name>
      </trkpt>
      <trkpt lat="50.9386800" lon="-1.7971840">
        <name>Caspars Way</name>
      </trkpt>
      <trkpt lat="50.9386820" lon="-1.7972400">
        <name>Caspars Way</name>
      </trkpt>
      <trkpt lat="50.9386860" lon="-1.7973275">
        <name>Caspars Way</name>
      </trkpt>
      <trkpt lat="50.9386900" lon="-1.7974150">
        <name>Caspars Way</name>
      </trkpt>
      <trkpt lat="50.9387050" lon="-1.7974955">
        <name>Caspars Way</name>
      </trkpt>
      <trkpt lat="50.9387200" lon="-1.7975760">
        <name>Caspars Way</name>
      </trkpt>
      <trkpt lat="50.9387550" lon="-1.7976743">
        <name>Caspars Way</name>
      </trkpt>
      <trkpt lat="50.9387900" lon="-1.7977727">
        <name>Caspars Way</name>
      </trkpt>
      <trkpt lat="50.9388250" lon="-1.7978710">
        <name>Caspars Way</name>
      </trkpt>
      <trkpt lat="50.9388500" lon="-1.7979425">
        <name>Caspars Way</name>
      </trkpt>
      <trkpt lat="50.9388750" lon="-1.7980140">
        <name>Caspars Way</name>
      </trkpt>
      <trkpt lat="50.9389087" lon="-1.7981120">
        <name>Caspars Way</name>
      </trkpt>
      <trkpt lat="50.9389423" lon="-1.7982100">
        <name>Caspars Way</name>
      </trkpt>
      <trkpt lat="50.9389760" lon="-1.7983080">
        <name>Caspars Way</name>
      </trkpt>
      <trkpt lat="50.9389965" lon="-1.7984065">
        <name>Caspars Way</name>
      </trkpt>
      <trkpt lat="50.9390170" lon="-1.7985050">
        <name>Caspars Way</name>
      </trkpt>
      <trkpt lat="50.9390210" lon="-1.7985230">
        <name>Caspars Way</name>
      </trkpt>
      <trkpt lat="50.9390420" lon="-1.7986323">
        <name>Caspars Way</name>
      </trkpt>
      <trkpt lat="50.9390630" lon="-1.7987417">
        <name>Caspars Way</name>
      </trkpt>
      <trkpt lat="50.9390840" lon="-1.7988510">
        <name>Caspars Way</name>
      </trkpt>
      <trkpt lat="50.9391240" lon="-1.7989667">
        <name>Caspars Way</name>
      </trkpt>
      <trkpt lat="50.9391640" lon="-1.7990825">
        <name>Caspars Way</name>
      </trkpt>
      <trkpt lat="50.9392040" lon="-1.7991983">
        <name>Caspars Way</name>
      </trkpt>
      <trkpt lat="50.9392440" lon="-1.7993140">
        <name>Caspars Way</name>
      </trkpt>
      <trkpt lat="50.9392045" lon="-1.7994070">
        <name>Caspars Way</name>
      </trkpt>
      <trkpt lat="50.9391650" lon="-1.7995000">
        <name>Caspars Way</name>
      </trkpt>
      <trkpt lat="50.9391145" lon="-1.7995750">
        <name>Caspars Way</name>
      </trkpt>
      <trkpt lat="50.9390640" lon="-1.7996500">
        <name>Caspars Way</name>
      </trkpt>
      <trkpt lat="50.9389945" lon="-1.7997145">
        <name>Caspars Way</name>
      </trkpt>
      <trkpt lat="50.9389250" lon="-1.7997790">
        <name>Caspars Way</name>
      </trkpt>
      <trkpt lat="50.9388530" lon="-1.7998520">
        <name>Caspars Way</name>
      </trkpt>
      <trkpt lat="50.9388400" lon="-1.7998650">
        <name>Caspars Way</name>
      </trkpt>
      <trkpt lat="50.9388807" lon="-1.7999633">
        <name>Caspars Way</name>
      </trkpt>
      <trkpt lat="50.9389213" lon="-1.8000617">
        <name>Caspars Way</name>
      </trkpt>
      <trkpt lat="50.9389620" lon="-1.8001600">
        <name>Caspars Way</name>
      </trkpt>
      <trkpt lat="50.9389213" lon="-1.8000617">
        <name>Caspars Way</name>
      </trkpt>
      <trkpt lat="50.9388807" lon="-1.7999633">
        <name>Caspars Way</name>
      </trkpt>
      <trkpt lat="50.9388400" lon="-1.7998650">
        <name>Caspars Way</name>
      </trkpt>
      <trkpt lat="50.9388825" lon="-1.7998220">
        <name>Caspars Way</name>
      </trkpt>
      <trkpt lat="50.9389250" lon="-1.7997790">
        <name>Caspars Way</name>
      </trkpt>
      <trkpt lat="50.9389945" lon="-1.7997145">
        <name>Caspars Way</name>
      </trkpt>
      <trkpt lat="50.9390640" lon="-1.7996500">
        <name>Caspars Way</name>
      </trkpt>
      <trkpt lat="50.9391145" lon="-1.7995750">
        <name>Caspars Way</name>
      </trkpt>
      <trkpt lat="50.9391650" lon="-1.7995000">
        <name>Caspars Way</name>
      </trkpt>
      <trkpt lat="50.9392045" lon="-1.7994070">
        <name>Caspars Way</name>
      </trkpt>
      <trkpt lat="50.9392440" lon="-1.7993140">
        <name>Caspars Way</name>
      </trkpt>
      <trkpt lat="50.9392040" lon="-1.7991983">
        <name>Augustus Avenue</name>
      </trkpt>
      <trkpt lat="50.9391640" lon="-1.7990825">
        <name>Augustus Avenue</name>
      </trkpt>
      <trkpt lat="50.9391240" lon="-1.7989667">
        <name>Augustus Avenue</name>
      </trkpt>
      <trkpt lat="50.9390840" lon="-1.7988510">
        <name>Augustus Avenue</name>
      </trkpt>
      <trkpt lat="50.9390617" lon="-1.7987357">
        <name>Augustus Avenue</name>
      </trkpt>
      <trkpt lat="50.9390393" lon="-1.7986203">
        <name>Augustus Avenue</name>
      </trkpt>
      <trkpt lat="50.9390170" lon="-1.7985050">
        <name>Augustus Avenue</name>
      </trkpt>
      <trkpt lat="50.9389965" lon="-1.7984065">
        <name>Augustus Avenue</name>
      </trkpt>
      <trkpt lat="50.9389760" lon="-1.7983080">
        <name>Augustus Avenue</name>
      </trkpt>
      <trkpt lat="50.9389365" lon="-1.7981930">
        <name>Augustus Avenue</name>
      </trkpt>
      <trkpt lat="50.9388970" lon="-1.7980780">
        <name>Augustus Avenue</name>
      </trkpt>
      <trkpt lat="50.9388750" lon="-1.7980140">
        <name>Augustus Avenue</name>
      </trkpt>
      <trkpt lat="50.9388500" lon="-1.7979425">
        <name>Augustus Avenue</name>
      </trkpt>
      <trkpt lat="50.9388250" lon="-1.7978710">
        <name>Augustus Avenue</name>
      </trkpt>
      <trkpt lat="50.9387900" lon="-1.7977727">
        <name>Augustus Avenue</name>
      </trkpt>
      <trkpt lat="50.9387550" lon="-1.7976743">
        <name>Augustus Avenue</name>
      </trkpt>
      <trkpt lat="50.9387200" lon="-1.7975760">
        <name>Augustus Avenue</name>
      </trkpt>
      <trkpt lat="50.9387050" lon="-1.7974955">
        <name>Augustus Avenue</name>
      </trkpt>
      <trkpt lat="50.9386900" lon="-1.7974150">
        <name>Augustus Avenue</name>
      </trkpt>
      <trkpt lat="50.9386850" lon="-1.7972995">
        <name>Augustus Avenue</name>
      </trkpt>
      <trkpt lat="50.9386800" lon="-1.7971840">
        <name>Augustus Avenue</name>
      </trkpt>
      <trkpt lat="50.9386870" lon="-1.7970500">
        <name>Augustus Avenue</name>
      </trkpt>
      <trkpt lat="50.9386960" lon="-1.7969240">
        <name>Augustus Avenue</name>
      </trkpt>
      <trkpt lat="50.9387010" lon="-1.7968540">
        <name>Augustus Avenue</name>
      </trkpt>
      <trkpt lat="50.9386173" lon="-1.7968183">
        <name>Augustus Avenue</name>
      </trkpt>
      <trkpt lat="50.9385337" lon="-1.7967827">
        <name>Augustus Avenue</name>
      </trkpt>
      <trkpt lat="50.9384500" lon="-1.7967470">
        <name>Augustus Avenue</name>
      </trkpt>
      <trkpt lat="50.9383785" lon="-1.7967165">
        <name>Augustus Avenue</name>
      </trkpt>
      <trkpt lat="50.9383070" lon="-1.7966860">
        <name>Augustus Avenue</name>
      </trkpt>
      <trkpt lat="50.9382292" lon="-1.7966392">
        <name>Augustus Avenue</name>
      </trkpt>
      <trkpt lat="50.9381514" lon="-1.7965924">
        <name>Augustus Avenue</name>
      </trkpt>
      <trkpt lat="50.9380736" lon="-1.7965456">
        <name>Augustus Avenue</name>
      </trkpt>
      <trkpt lat="50.9379958" lon="-1.7964988">
        <name>Augustus Avenue</name>
      </trkpt>
      <trkpt lat="50.9379180" lon="-1.7964520">
        <name>Augustus Avenue</name>
      </trkpt>
      <trkpt lat="50.9379000" lon="-1.7964380">
        <name>Augustus Avenue</name>
      </trkpt>
      <trkpt lat="50.9378199" lon="-1.7963746">
        <name>Augustus Avenue</name>
      </trkpt>
      <trkpt lat="50.9377397" lon="-1.7963113">
        <name>Augustus Avenue</name>
      </trkpt>
      <trkpt lat="50.9376596" lon="-1.7962479">
        <name>Augustus Avenue</name>
      </trkpt>
      <trkpt lat="50.9375795" lon="-1.7961845">
        <name>Augustus Avenue</name>
      </trkpt>
      <trkpt lat="50.9374994" lon="-1.7961211">
        <name>Augustus Avenue</name>
      </trkpt>
      <trkpt lat="50.9374192" lon="-1.7960577">
        <name>Augustus Avenue</name>
      </trkpt>
      <trkpt lat="50.9373391" lon="-1.7959944">
        <name>Augustus Avenue</name>
      </trkpt>
      <trkpt lat="50.9372590" lon="-1.7959310">
        <name>Augustus Avenue</name>
      </trkpt>
      <trkpt lat="50.9372160" lon="-1.7958940">
        <name>Augustus Avenue</name>
      </trkpt>
      <trkpt lat="50.9371730" lon="-1.7958570">
        <name>Augustus Avenue</name>
      </trkpt>
      <trkpt lat="50.9370950" lon="-1.7957910">
        <name>Augustus Avenue</name>
      </trkpt>
      <trkpt lat="50.9370170" lon="-1.7957250">
        <name>Augustus Avenue</name>
      </trkpt>
      <trkpt lat="50.9369440" lon="-1.7956635">
        <name>Augustus Avenue</name>
      </trkpt>
      <trkpt lat="50.9368710" lon="-1.7956020">
        <name>Augustus Avenue</name>
      </trkpt>
      <trkpt lat="50.9367968" lon="-1.7955388">
        <name>Whitsbury Road</name>
      </trkpt>
      <trkpt lat="50.9367227" lon="-1.7954757">
        <name>Whitsbury Road</name>
      </trkpt>
      <trkpt lat="50.9366485" lon="-1.7954125">
        <name>Whitsbury Road</name>
      </trkpt>
      <trkpt lat="50.9365743" lon="-1.7953493">
        <name>Whitsbury Road</name>
      </trkpt>
      <trkpt lat="50.9365002" lon="-1.7952862">
        <name>Whitsbury Road</name>
      </trkpt>
      <trkpt lat="50.9364260" lon="-1.7952230">
        <name>Whitsbury Road</name>
      </trkpt>
      <trkpt lat="50.9363745" lon="-1.7951795">
        <name>Whitsbury Road</name>
      </trkpt>
      <trkpt lat="50.9363230" lon="-1.7951360">
        <name>Whitsbury Road</name>
      </trkpt>
      <trkpt lat="50.9362515" lon="-1.7950740">
        <name>Whitsbury Road</name>
      </trkpt>
      <trkpt lat="50.9361800" lon="-1.7950120">
        <name>Whitsbury Road</name>
      </trkpt>
      <trkpt lat="50.9361085" lon="-1.7949500">
        <name>Whitsbury Road</name>
      </trkpt>
      <trkpt lat="50.9360370" lon="-1.7948880">
        <name>Whitsbury Road</name>
      </trkpt>
      <trkpt lat="50.9359960" lon="-1.7948525">
        <name>Whitsbury Road</name>
      </trkpt>
      <trkpt lat="50.9359550" lon="-1.7948170">
        <name>Whitsbury Road</name>
      </trkpt>
      <trkpt lat="50.9358905" lon="-1.7947650">
        <name>Whitsbury Road</name>
      </trkpt>
      <trkpt lat="50.9358260" lon="-1.7947130">
        <name>Whitsbury Road</name>
      </trkpt>
      <trkpt lat="50.9358110" lon="-1.7946980">
        <name>Whitsbury Road</name>
      </trkpt>
      <trkpt lat="50.9357382" lon="-1.7946259">
        <name>Whitsbury Road</name>
      </trkpt>
      <trkpt lat="50.9356655" lon="-1.7945537">
        <name>Whitsbury Road</name>
      </trkpt>
      <trkpt lat="50.9355927" lon="-1.7944816">
        <name>Whitsbury Road</name>
      </trkpt>
      <trkpt lat="50.9355200" lon="-1.7944095">
        <name>Whitsbury Road</name>
      </trkpt>
      <trkpt lat="50.9354473" lon="-1.7943374">
        <name>Whitsbury Road</name>
      </trkpt>
      <trkpt lat="50.9353745" lon="-1.7942653">
        <name>Whitsbury Road</name>
      </trkpt>
      <trkpt lat="50.9353018" lon="-1.7941931">
        <name>Whitsbury Road</name>
      </trkpt>
      <trkpt lat="50.9352290" lon="-1.7941210">
        <name>Whitsbury Road</name>
      </trkpt>
      <trkpt lat="50.9351710" lon="-1.7940670">
        <name>Whitsbury Road</name>
      </trkpt>
      <trkpt lat="50.9351095" lon="-1.7940050">
        <name>Whitsbury Road</name>
      </trkpt>
      <trkpt lat="50.9350480" lon="-1.7939430">
        <name>Whitsbury Road</name>
      </trkpt>
      <trkpt lat="50.9349880" lon="-1.7938828">
        <name>Whitsbury Road</name>
      </trkpt>
      <trkpt lat="50.9349280" lon="-1.7938225">
        <name>Whitsbury Road</name>
      </trkpt>
      <trkpt lat="50.9348680" lon="-1.7937622">
        <name>Whitsbury Road</name>
      </trkpt>
      <trkpt lat="50.9348080" lon="-1.7937020">
        <name>Whitsbury Road</name>
      </trkpt>
      <trkpt lat="50.9347690" lon="-1.7937983">
        <name>Whitsbury Road</name>
      </trkpt>
      <trkpt lat="50.9347300" lon="-1.7938947">
        <name>Whitsbury Road</name>
      </trkpt>
      <trkpt lat="50.9346910" lon="-1.7939910">
        <name>Whitsbury Road</name>
      </trkpt>
      <trkpt lat="50.9346810" lon="-1.7940140">
        <name>Whitsbury Road</name>
      </trkpt>
      <trkpt lat="50.9346530" lon="-1.7940770">
        <name>Whitsbury Road</name>
      </trkpt>
      <trkpt lat="50.9346120" lon="-1.7941710">
        <name>Neave Road</name>
      </trkpt>
      <trkpt lat="50.9345710" lon="-1.7942650">
        <name>Neave Road</name>
      </trkpt>
      <trkpt lat="50.9345220" lon="-1.7943640">
        <name>Neave Road</name>
      </trkpt>
      <trkpt lat="50.9344730" lon="-1.7944630">
        <name>Neave Road</name>
      </trkpt>
      <trkpt lat="50.9344177" lon="-1.7945587">
        <name>Neave Road</name>
      </trkpt>
      <trkpt lat="50.9343623" lon="-1.7946543">
        <name>Neave Road</name>
      </trkpt>
      <trkpt lat="50.9343070" lon="-1.7947500">
        <name>Neave Road</name>
      </trkpt>
      <trkpt lat="50.9342507" lon="-1.7948373">
        <name>Neave Road</name>
      </trkpt>
      <trkpt lat="50.9341945" lon="-1.7949245">
        <name>Neave Road</name>
      </trkpt>
      <trkpt lat="50.9341382" lon="-1.7950118">
        <name>Neave Road</name>
      </trkpt>
      <trkpt lat="50.9340820" lon="-1.7950990">
        <name>Neave Road</name>
      </trkpt>
      <trkpt lat="50.9340120" lon="-1.7951807">
        <name>Neave Road</name>
      </trkpt>
      <trkpt lat="50.9339420" lon="-1.7952623">
        <name>Neave Road</name>
      </trkpt>
      <trkpt lat="50.9338720" lon="-1.7953440">
        <name>Neave Road</name>
      </trkpt>
      <trkpt lat="50.9338160" lon="-1.7954130">
        <name>Neave Road</name>
      </trkpt>
      <trkpt lat="50.9337462" lon="-1.7954685">
        <name>Neave Road</name>
      </trkpt>
      <trkpt lat="50.9336765" lon="-1.7955240">
        <name>Neave Road</name>
      </trkpt>
      <trkpt lat="50.9336068" lon="-1.7955795">
        <name>Neave Road</name>
      </trkpt>
      <trkpt lat="50.9335370" lon="-1.7956350">
        <name>Neave Road</name>
      </trkpt>
      <trkpt lat="50.9334870" lon="-1.7956640">
        <name>Neave Road</name>
      </trkpt>
      <trkpt lat="50.9334117" lon="-1.7957067">
        <name>Neave Road</name>
      </trkpt>
      <trkpt lat="50.9333365" lon="-1.7957495">
        <name>Neave Road</name>
      </trkpt>
      <trkpt lat="50.9332613" lon="-1.7957923">
        <name>Neave Road</name>
      </trkpt>
      <trkpt lat="50.9331860" lon="-1.7958350">
        <name>Neave Road</name>
      </trkpt>
      <trkpt lat="50.9331237" lon="-1.7958610">
        <name>Neave Road</name>
      </trkpt>
      <trkpt lat="50.9330613" lon="-1.7958870">
        <name>Neave Road</name>
      </trkpt>
      <trkpt lat="50.9329990" lon="-1.7959130">
        <name>Neave Road</name>
      </trkpt>
      <trkpt lat="50.9329355" lon="-1.7959220">
        <name>Neave Road</name>
      </trkpt>
      <trkpt lat="50.9328720" lon="-1.7959310">
        <name>Neave Road</name>
      </trkpt>
      <trkpt lat="50.9327910" lon="-1.7959430">
        <name>Neave Road</name>
      </trkpt>
      <trkpt lat="50.9327100" lon="-1.7959550">
        <name>Neave Road</name>
      </trkpt>
      <trkpt lat="50.9326397" lon="-1.7959653">
        <name>Neave Road</name>
      </trkpt>
      <trkpt lat="50.9325693" lon="-1.7959757">
        <name>Neave Road</name>
      </trkpt>
      <trkpt lat="50.9324990" lon="-1.7959860">
        <name>Neave Road</name>
      </trkpt>
      <trkpt lat="50.9324320" lon="-1.7960003">
        <name>Neave Road</name>
      </trkpt>
      <trkpt lat="50.9323650" lon="-1.7960145">
        <name>Neave Road</name>
      </trkpt>
      <trkpt lat="50.9322980" lon="-1.7960288">
        <name>Neave Road</name>
      </trkpt>
      <trkpt lat="50.9322310" lon="-1.7960430">
        <name>Neave Road</name>
      </trkpt>
      <trkpt lat="50.9321703" lon="-1.7960807">
        <name>Neave Road</name>
      </trkpt>
      <trkpt lat="50.9321097" lon="-1.7961183">
        <name>Neave Road</name>
      </trkpt>
      <trkpt lat="50.9320490" lon="-1.7961560">
        <name>Neave Road</name>
      </trkpt>
      <trkpt lat="50.9320110" lon="-1.7962160">
        <name>Neave Road</name>
      </trkpt>
      <trkpt lat="50.9319790" lon="-1.7963160">
        <name>Neave Road</name>
      </trkpt>
      <trkpt lat="50.9319470" lon="-1.7964160">
        <name>Neave Road</name>
      </trkpt>
      <trkpt lat="50.9319300" lon="-1.7964680">
        <name>Neave Road</name>
      </trkpt>
      <trkpt lat="50.9319140" lon="-1.7965820">
        <name>Neave Road</name>
      </trkpt>
      <trkpt lat="50.9318980" lon="-1.7966960">
        <name>Neave Road</name>
      </trkpt>
      <trkpt lat="50.9318820" lon="-1.7968100">
        <name>Neave Road</name>
      </trkpt>
      <trkpt lat="50.9318012" lon="-1.7968103">
        <name>Neave Road</name>
      </trkpt>
      <trkpt lat="50.9317205" lon="-1.7968105">
        <name>Neave Road</name>
      </trkpt>
      <trkpt lat="50.9316398" lon="-1.7968107">
        <name>Neave Road</name>
      </trkpt>
      <trkpt lat="50.9315590" lon="-1.7968110">
        <name>Neave Road</name>
      </trkpt>
      <trkpt lat="50.9314915" lon="-1.7968105">
        <name>Neave Road</name>
      </trkpt>
      <trkpt lat="50.9314240" lon="-1.7968100">
        <name>Neave Road</name>
      </trkpt>
      <trkpt lat="50.9313565" lon="-1.7968095">
        <name>Neave Road</name>
      </trkpt>
      <trkpt lat="50.9312890" lon="-1.7968090">
        <name>Neave Road</name>
      </trkpt>
      <trkpt lat="50.9312138" lon="-1.7968013">
      </trkpt>
      <trkpt lat="50.9311387" lon="-1.7967937">
      </trkpt>
      <trkpt lat="50.9310635" lon="-1.7967860">
      </trkpt>
      <trkpt lat="50.9309883" lon="-1.7967783">
      </trkpt>
      <trkpt lat="50.9309132" lon="-1.7967707">
      </trkpt>
      <trkpt lat="50.9308380" lon="-1.7967630">
      </trkpt>
      <trkpt lat="50.9307705" lon="-1.7967585">
      </trkpt>
      <trkpt lat="50.9307030" lon="-1.7967540">
      </trkpt>
      <trkpt lat="50.9306133" lon="-1.7967480">
      </trkpt>
      <trkpt lat="50.9305237" lon="-1.7967420">
      </trkpt>
      <trkpt lat="50.9304340" lon="-1.7967360">
      </trkpt>
      <trkpt lat="50.9303526" lon="-1.7967230">
      </trkpt>
      <trkpt lat="50.9302712" lon="-1.7967100">
      </trkpt>
      <trkpt lat="50.9301898" lon="-1.7966970">
      </trkpt>
      <trkpt lat="50.9301084" lon="-1.7966840">
      </trkpt>
      <trkpt lat="50.9300270" lon="-1.7966710">
      </trkpt>
      <trkpt lat="50.9299450" lon="-1.7966633">
      </trkpt>
      <trkpt lat="50.9298630" lon="-1.7966557">
      </trkpt>
      <trkpt lat="50.9297810" lon="-1.7966480">
      </trkpt>
      <trkpt lat="50.9297340" lon="-1.7966475">
      </trkpt>
      <trkpt lat="50.9296870" lon="-1.7966470">
      </trkpt>
      <trkpt lat="50.9296305" lon="-1.7966460">
      </trkpt>
      <trkpt lat="50.9295740" lon="-1.7966450">
      </trkpt>
      <trkpt lat="50.9295067" lon="-1.7966647">
      </trkpt>
      <trkpt lat="50.9294393" lon="-1.7966843">
      </trkpt>
      <trkpt lat="50.9293720" lon="-1.7967040">
      </trkpt>
      <trkpt lat="50.9292962" lon="-1.7967358">
        <name>Seton Way</name>
      </trkpt>
      <trkpt lat="50.9292203" lon="-1.7967677">
        <name>Seton Way</name>
      </trkpt>
      <trkpt lat="50.9291445" lon="-1.7967995">
        <name>Seton Way</name>
      </trkpt>
      <trkpt lat="50.9290687" lon="-1.7968313">
        <name>Seton Way</name>
      </trkpt>
      <trkpt lat="50.9289928" lon="-1.7968632">
        <name>Seton Way</name>
      </trkpt>
      <trkpt lat="50.9289170" lon="-1.7968950">
        <name>Seton Way</name>
      </trkpt>
      <trkpt lat="50.9288397" lon="-1.7969130">
        <name>Seton Way</name>
      </trkpt>
      <trkpt lat="50.9287623" lon="-1.7969310">
        <name>Seton Way</name>
      </trkpt>
      <trkpt lat="50.9286850" lon="-1.7969490">
        <name>Seton Way</name>
      </trkpt>
      <trkpt lat="50.9286250" lon="-1.7969515">
        <name>Seton Way</name>
      </trkpt>
      <trkpt lat="50.9285650" lon="-1.7969540">
        <name>Seton Way</name>
      </trkpt>
      <trkpt lat="50.9285100" lon="-1.7969565">
        <name>Seton Way</name>
      </trkpt>
      <trkpt lat="50.9284550" lon="-1.7969590">
        <name>Seton Way</name>
      </trkpt>
      <trkpt lat="50.9283660" lon="-1.7969462">
        <name>Seton Way</name>
      </trkpt>
      <trkpt lat="50.9282770" lon="-1.7969335">
        <name>Seton Way</name>
      </trkpt>
      <trkpt lat="50.9281880" lon="-1.7969207">
        <name>Seton Way</name>
      </trkpt>
      <trkpt lat="50.9280990" lon="-1.7969080">
        <name>Seton Way</name>
      </trkpt>
      <trkpt lat="50.9280190" lon="-1.7968783">
      </trkpt>
      <trkpt lat="50.9279390" lon="-1.7968487">
      </trkpt>
      <trkpt lat="50.9278590" lon="-1.7968190">
      </trkpt>
      <trkpt lat="50.9277970" lon="-1.7968003">
      </trkpt>
      <trkpt lat="50.9277350" lon="-1.7967817">
      </trkpt>
      <trkpt lat="50.9276730" lon="-1.7967630">
      </trkpt>
      <trkpt lat="50.9275890" lon="-1.7967760">
      </trkpt>
      <trkpt lat="50.9275620" lon="-1.7967800">
      </trkpt>
      <trkpt lat="50.9274975" lon="-1.7967900">
        <name>Neave Road</name>
      </trkpt>
      <trkpt lat="50.9274330" lon="-1.7968000">
        <name>Neave Road</name>
      </trkpt>
      <trkpt lat="50.9273503" lon="-1.7968277">
        <name>Neave Road</name>
      </trkpt>
      <trkpt lat="50.9272677" lon="-1.7968553">
        <name>Neave Road</name>
      </trkpt>
      <trkpt lat="50.9271850" lon="-1.7968830">
        <name>Neave Road</name>
      </trkpt>
    </trkseg>
  </trk>
</gpx>