<?xml version="1.0" encoding="UTF-8"?>
<gpx version="1.1" creator="TurboSanta Route Planner">
  <wpt lat="50.7769518" lon="-1.7422557">
    <name>Stop 36</name>
  </wpt>
  <trk>
    <name>TurboSanta Route (10m density)</name>
    <trkseg>
      <trkpt lat="50.7790830" lon="-1.7286650">
        <name>Poplar Lane</name>
      </trkpt>
      <trkpt lat="50.7790560" lon="-1.7287980">
        <name>Poplar Lane</name>
      </trkpt>
      <trkpt lat="50.7790290" lon="-1.7289310">
        <name>Poplar Lane</name>
      </trkpt>
      <trkpt lat="50.7790020" lon="-1.7290640">
        <name>Poplar Lane</name>
      </trkpt>
      <trkpt lat="50.7789658" lon="-1.7291884">
        <name>Poplar Lane</name>
      </trkpt>
      <trkpt lat="50.7789296" lon="-1.7293128">
        <name>Poplar Lane</name>
      </trkpt>
      <trkpt lat="50.7788934" lon="-1.7294372">
        <name>Poplar Lane</name>
      </trkpt>
      <trkpt lat="50.7788572" lon="-1.7295616">
        <name>Poplar Lane</name>
      </trkpt>
      <trkpt lat="50.7788210" lon="-1.7296860">
        <name>Poplar Lane</name>
      </trkpt>
      <trkpt lat="50.7787822" lon="-1.7298097">
        <name>Poplar Lane</name>
      </trkpt>
      <trkpt lat="50.7787434" lon="-1.7299333">
        <name>Poplar Lane</name>
      </trkpt>
      <trkpt lat="50.7787046" lon="-1.7300570">
        <name>Poplar Lane</name>
      </trkpt>
      <trkpt lat="50.7786658" lon="-1.7301807">
        <name>Poplar Lane</name>
      </trkpt>
      <trkpt lat="50.7786270" lon="-1.7303043">
        <name>Poplar Lane</name>
      </trkpt>
      <trkpt lat="50.7785882" lon="-1.7304280">
        <name>Poplar Lane</name>
      </trkpt>
      <trkpt lat="50.7785494" lon="-1.7305517">
        <name>Poplar Lane</name>
      </trkpt>
      <trkpt lat="50.7785106" lon="-1.7306753">
        <name>Poplar Lane</name>
      </trkpt>
      <trkpt lat="50.7784718" lon="-1.7307990">
        <name>Poplar Lane</name>
      </trkpt>
      <trkpt lat="50.7784330" lon="-1.7309227">
        <name>Poplar Lane</name>
      </trkpt>
      <trkpt lat="50.7783942" lon="-1.7310463">
        <name>Poplar Lane</name>
      </trkpt>
      <trkpt lat="50.7783554" lon="-1.7311700">
        <name>Poplar Lane</name>
      </trkpt>
      <trkpt lat="50.7783166" lon="-1.7312937">
        <name>Poplar Lane</name>
      </trkpt>
      <trkpt lat="50.7782778" lon="-1.7314173">
        <name>Poplar Lane</name>
      </trkpt>
      <trkpt lat="50.7782390" lon="-1.7315410">
        <name>Poplar Lane</name>
      </trkpt>
      <trkpt lat="50.7782150" lon="-1.7315180">
        <name>Poplar Lane</name>
      </trkpt>
      <trkpt lat="50.7781474" lon="-1.7314540">
      </trkpt>
      <trkpt lat="50.7780799" lon="-1.7313900">
      </trkpt>
      <trkpt lat="50.7780123" lon="-1.7313260">
      </trkpt>
      <trkpt lat="50.7779447" lon="-1.7312620">
      </trkpt>
      <trkpt lat="50.7778771" lon="-1.7311980">
      </trkpt>
      <trkpt lat="50.7778096" lon="-1.7311340">
      </trkpt>
      <trkpt lat="50.7777420" lon="-1.7310700">
      </trkpt>
      <trkpt lat="50.7776795" lon="-1.7310223">
      </trkpt>
      <trkpt lat="50.7776170" lon="-1.7309745">
      </trkpt>
      <trkpt lat="50.7775545" lon="-1.7309268">
      </trkpt>
      <trkpt lat="50.7774920" lon="-1.7308790">
      </trkpt>
      <trkpt lat="50.7774280" lon="-1.7309170">
      </trkpt>
      <trkpt lat="50.7774920" lon="-1.7309700">
      </trkpt>
      <trkpt lat="50.7775560" lon="-1.7310230">
      </trkpt>
      <trkpt lat="50.7776200" lon="-1.7310760">
      </trkpt>
      <trkpt lat="50.7776840" lon="-1.7311290">
      </trkpt>
      <trkpt lat="50.7777551" lon="-1.7311931">
      </trkpt>
      <trkpt lat="50.7778263" lon="-1.7312572">
      </trkpt>
      <trkpt lat="50.7778974" lon="-1.7313214">
      </trkpt>
      <trkpt lat="50.7779685" lon="-1.7313855">
      </trkpt>
      <trkpt lat="50.7780396" lon="-1.7314496">
      </trkpt>
      <trkpt lat="50.7781107" lon="-1.7315137">
      </trkpt>
      <trkpt lat="50.7781819" lon="-1.7315779">
      </trkpt>
      <trkpt lat="50.7782530" lon="-1.7316420">
      </trkpt>
      <trkpt lat="50.7783330" lon="-1.7317066">
      </trkpt>
      <trkpt lat="50.7784130" lon="-1.7317711">
      </trkpt>
      <trkpt lat="50.7784930" lon="-1.7318357">
      </trkpt>
      <trkpt lat="50.7785730" lon="-1.7319003">
      </trkpt>
      <trkpt lat="50.7786530" lon="-1.7319649">
      </trkpt>
      <trkpt lat="50.7787330" lon="-1.7320294">
      </trkpt>
      <trkpt lat="50.7788130" lon="-1.7320940">
      </trkpt>
      <trkpt lat="50.7788873" lon="-1.7321620">
      </trkpt>
      <trkpt lat="50.7789617" lon="-1.7322300">
      </trkpt>
      <trkpt lat="50.7790360" lon="-1.7322980">
      </trkpt>
      <trkpt lat="50.7791027" lon="-1.7323590">
        <name>Ringwood Road</name>
      </trkpt>
      <trkpt lat="50.7791693" lon="-1.7324200">
        <name>Ringwood Road</name>
      </trkpt>
      <trkpt lat="50.7792360" lon="-1.7324810">
        <name>Ringwood Road</name>
      </trkpt>
      <trkpt lat="50.7793149" lon="-1.7325483">
        <name>Ringwood Road</name>
      </trkpt>
      <trkpt lat="50.7793937" lon="-1.7326156">
        <name>Ringwood Road</name>
      </trkpt>
      <trkpt lat="50.7794726" lon="-1.7326829">
        <name>Ringwood Road</name>
      </trkpt>
      <trkpt lat="50.7795514" lon="-1.7327501">
        <name>Ringwood Road</name>
      </trkpt>
      <trkpt lat="50.7796303" lon="-1.7328174">
        <name>Ringwood Road</name>
      </trkpt>
      <trkpt lat="50.7797091" lon="-1.7328847">
        <name>Ringwood Road</name>
      </trkpt>
      <trkpt lat="50.7797880" lon="-1.7329520">
        <name>Ringwood Road</name>
      </trkpt>
      <trkpt lat="50.7798570" lon="-1.7330220">
        <name>Ringwood Road</name>
      </trkpt>
      <trkpt lat="50.7799260" lon="-1.7330920">
        <name>Ringwood Road</name>
      </trkpt>
      <trkpt lat="50.7799950" lon="-1.7331620">
        <name>Ringwood Road</name>
      </trkpt>
      <trkpt lat="50.7800640" lon="-1.7332320">
        <name>Ringwood Road</name>
      </trkpt>
      <trkpt lat="50.7801330" lon="-1.7333020">
        <name>Ringwood Road</name>
      </trkpt>
      <trkpt lat="50.7801965" lon="-1.7333655">
        <name>Ringwood Road</name>
      </trkpt>
      <trkpt lat="50.7802600" lon="-1.7334290">
        <name>Ringwood Road</name>
      </trkpt>
      <trkpt lat="50.7803168" lon="-1.7335064">
        <name>Ringwood Road</name>
      </trkpt>
      <trkpt lat="50.7803736" lon="-1.7335838">
        <name>Ringwood Road</name>
      </trkpt>
      <trkpt lat="50.7804304" lon="-1.7336612">
        <name>Ringwood Road</name>
      </trkpt>
      <trkpt lat="50.7804872" lon="-1.7337386">
        <name>Ringwood Road</name>
      </trkpt>
      <trkpt lat="50.7805440" lon="-1.7338160">
        <name>Ringwood Road</name>
      </trkpt>
      <trkpt lat="50.7805130" lon="-1.7338680">
        <name>Ringwood Road</name>
      </trkpt>
      <trkpt lat="50.7804657" lon="-1.7339490">
        <name>Ringwood Road</name>
      </trkpt>
      <trkpt lat="50.7804183" lon="-1.7340300">
        <name>Ringwood Road</name>
      </trkpt>
      <trkpt lat="50.7803710" lon="-1.7341110">
        <name>Ringwood Road</name>
      </trkpt>
      <trkpt lat="50.7804040" lon="-1.7342155">
        <name>Ringwood Road</name>
      </trkpt>
      <trkpt lat="50.7804370" lon="-1.7343200">
        <name>Ringwood Road</name>
      </trkpt>
      <trkpt lat="50.7804690" lon="-1.7344158">
        <name>Ringwood Road</name>
      </trkpt>
      <trkpt lat="50.7805010" lon="-1.7345115">
        <name>Ringwood Road</name>
      </trkpt>
      <trkpt lat="50.7805330" lon="-1.7346073">
        <name>Ringwood Road</name>
      </trkpt>
      <trkpt lat="50.7805650" lon="-1.7347030">
        <name>Ringwood Road</name>
      </trkpt>
      <trkpt lat="50.7805935" lon="-1.7347915">
        <name>Ringwood Road</name>
      </trkpt>
      <trkpt lat="50.7806220" lon="-1.7348800">
        <name>Ringwood Road</name>
      </trkpt>
      <trkpt lat="50.7806435" lon="-1.7349440">
        <name>Ringwood Road</name>
      </trkpt>
      <trkpt lat="50.7806650" lon="-1.7350080">
        <name>Ringwood Road</name>
      </trkpt>
      <trkpt lat="50.7807030" lon="-1.7351300">
        <name>Ringwood Road</name>
      </trkpt>
      <trkpt lat="50.7807424" lon="-1.7352554">
        <name>Ringwood Road</name>
      </trkpt>
      <trkpt lat="50.7807819" lon="-1.7353809">
        <name>Ringwood Road</name>
      </trkpt>
      <trkpt lat="50.7808213" lon="-1.7355063">
        <name>Ringwood Road</name>
      </trkpt>
      <trkpt lat="50.7808607" lon="-1.7356317">
        <name>Ringwood Road</name>
      </trkpt>
      <trkpt lat="50.7809001" lon="-1.7357571">
        <name>Ringwood Road</name>
      </trkpt>
      <trkpt lat="50.7809396" lon="-1.7358826">
        <name>Ringwood Road</name>
      </trkpt>
      <trkpt lat="50.7809790" lon="-1.7360080">
        <name>Ringwood Road</name>
      </trkpt>
      <trkpt lat="50.7810010" lon="-1.7361050">
        <name>Burley Road</name>
      </trkpt>
      <trkpt lat="50.7810770" lon="-1.7361020">
        <name>Burley Road</name>
      </trkpt>
      <trkpt lat="50.7811110" lon="-1.7360510">
        <name>Burley Road</name>
      </trkpt>
      <trkpt lat="50.7811495" lon="-1.7359500">
        <name>Burley Road</name>
      </trkpt>
      <trkpt lat="50.7811880" lon="-1.7358490">
        <name>Burley Road</name>
      </trkpt>
      <trkpt lat="50.7812120" lon="-1.7357810">
        <name>Burley Road</name>
      </trkpt>
      <trkpt lat="50.7812425" lon="-1.7356835">
        <name>Burley Road</name>
      </trkpt>
      <trkpt lat="50.7812730" lon="-1.7355860">
        <name>Burley Road</name>
      </trkpt>
      <trkpt lat="50.7813080" lon="-1.7354810">
        <name>Ringwood Road</name>
      </trkpt>
      <trkpt lat="50.7813430" lon="-1.7353760">
        <name>Ringwood Road</name>
      </trkpt>
      <trkpt lat="50.7813780" lon="-1.7352710">
        <name>Ringwood Road</name>
      </trkpt>
      <trkpt lat="50.7814015" lon="-1.7352065">
        <name>Ringwood Road</name>
      </trkpt>
      <trkpt lat="50.7814250" lon="-1.7351420">
        <name>Ringwood Road</name>
      </trkpt>
      <trkpt lat="50.7814650" lon="-1.7351170">
        <name>Ringwood Road</name>
      </trkpt>
      <trkpt lat="50.7814790" lon="-1.7351240">
        <name>Ringwood Road</name>
      </trkpt>
      <trkpt lat="50.7815613" lon="-1.7351730">
        <name>Ringwood Road</name>
      </trkpt>
      <trkpt lat="50.7816437" lon="-1.7352220">
        <name>Ringwood Road</name>
      </trkpt>
      <trkpt lat="50.7817260" lon="-1.7352710">
        <name>Ringwood Road</name>
      </trkpt>
      <trkpt lat="50.7817710" lon="-1.7352980">
        <name>Ringwood Road</name>
      </trkpt>
      <trkpt lat="50.7818467" lon="-1.7353461">
        <name>Ringwood Road</name>
      </trkpt>
      <trkpt lat="50.7819225" lon="-1.7353943">
        <name>Ringwood Road</name>
      </trkpt>
      <trkpt lat="50.7819983" lon="-1.7354424">
        <name>Ringwood Road</name>
      </trkpt>
      <trkpt lat="50.7820740" lon="-1.7354905">
        <name>Ringwood Road</name>
      </trkpt>
      <trkpt lat="50.7821497" lon="-1.7355386">
        <name>Ringwood Road</name>
      </trkpt>
      <trkpt lat="50.7822255" lon="-1.7355867">
        <name>Ringwood Road</name>
      </trkpt>
      <trkpt lat="50.7823012" lon="-1.7356349">
        <name>Ringwood Road</name>
      </trkpt>
      <trkpt lat="50.7823770" lon="-1.7356830">
        <name>Ringwood Road</name>
      </trkpt>
      <trkpt lat="50.7824485" lon="-1.7357230">
        <name>Ringwood Road</name>
      </trkpt>
      <trkpt lat="50.7825200" lon="-1.7357630">
        <name>Ringwood Road</name>
      </trkpt>
      <trkpt lat="50.7825915" lon="-1.7358030">
        <name>Ringwood Road</name>
      </trkpt>
      <trkpt lat="50.7826630" lon="-1.7358430">
        <name>Ringwood Road</name>
      </trkpt>
      <trkpt lat="50.7827435" lon="-1.7358880">
        <name>Ringwood Road</name>
      </trkpt>
      <trkpt lat="50.7828240" lon="-1.7359330">
        <name>Ringwood Road</name>
      </trkpt>
      <trkpt lat="50.7828455" lon="-1.7358405">
        <name>Ringwood Road</name>
      </trkpt>
      <trkpt lat="50.7828670" lon="-1.7357480">
        <name>Ringwood Road</name>
      </trkpt>
      <trkpt lat="50.7828937" lon="-1.7356453">
        <name>Ringwood Road</name>
      </trkpt>
      <trkpt lat="50.7829203" lon="-1.7355427">
        <name>Ringwood Road</name>
      </trkpt>
      <trkpt lat="50.7829470" lon="-1.7354400">
        <name>Ringwood Road</name>
      </trkpt>
      <trkpt lat="50.7829740" lon="-1.7353780">
        <name>Betsy Lane</name>
      </trkpt>
      <trkpt lat="50.7829830" lon="-1.7353690">
        <name>Betsy Lane</name>
      </trkpt>
      <trkpt lat="50.7830260" lon="-1.7353260">
        <name>Betsy Lane</name>
      </trkpt>
      <trkpt lat="50.7831087" lon="-1.7352873">
        <name>Betsy Lane</name>
      </trkpt>
      <trkpt lat="50.7831913" lon="-1.7352487">
        <name>Betsy Lane</name>
      </trkpt>
      <trkpt lat="50.7832740" lon="-1.7352100">
        <name>Betsy Lane</name>
      </trkpt>
      <trkpt lat="50.7833320" lon="-1.7352310">
        <name>Betsy Lane</name>
      </trkpt>
      <trkpt lat="50.7833900" lon="-1.7352520">
        <name>Betsy Lane</name>
      </trkpt>
      <trkpt lat="50.7834475" lon="-1.7352730">
        <name>Betsy Lane</name>
      </trkpt>
      <trkpt lat="50.7835050" lon="-1.7352940">
        <name>Betsy Lane</name>
      </trkpt>
      <trkpt lat="50.7835790" lon="-1.7352570">
        <name>Betsy Lane</name>
      </trkpt>
      <trkpt lat="50.7836370" lon="-1.7351520">
        <name>Betsy Lane</name>
      </trkpt>
      <trkpt lat="50.7836558" lon="-1.7350280">
        <name>Betsy Lane</name>
      </trkpt>
      <trkpt lat="50.7836745" lon="-1.7349040">
        <name>Betsy Lane</name>
      </trkpt>
      <trkpt lat="50.7836932" lon="-1.7347800">
        <name>Betsy Lane</name>
      </trkpt>
      <trkpt lat="50.7837120" lon="-1.7346560">
        <name>Betsy Lane</name>
      </trkpt>
      <trkpt lat="50.7837245" lon="-1.7345750">
        <name>Betsy Lane</name>
      </trkpt>
      <trkpt lat="50.7837370" lon="-1.7344940">
        <name>Betsy Lane</name>
      </trkpt>
      <trkpt lat="50.7837530" lon="-1.7343830">
        <name>Betsy Lane</name>
      </trkpt>
      <trkpt lat="50.7837690" lon="-1.7342720">
        <name>Betsy Lane</name>
      </trkpt>
      <trkpt lat="50.7837345" lon="-1.7342065">
        <name>Betsy Lane</name>
      </trkpt>
      <trkpt lat="50.7837000" lon="-1.7341410">
        <name>Betsy Lane</name>
      </trkpt>
      <trkpt lat="50.7836400" lon="-1.7341055">
        <name>Betsy Lane</name>
      </trkpt>
      <trkpt lat="50.7835800" lon="-1.7340700">
        <name>Betsy Lane</name>
      </trkpt>
      <trkpt lat="50.7835470" lon="-1.7340510">
        <name>Betsy Lane</name>
      </trkpt>
      <trkpt lat="50.7834790" lon="-1.7341090">
        <name>Betsy Lane</name>
      </trkpt>
      <trkpt lat="50.7834580" lon="-1.7342145">
        <name>Betsy Lane</name>
      </trkpt>
      <trkpt lat="50.7834370" lon="-1.7343200">
        <name>Betsy Lane</name>
      </trkpt>
      <trkpt lat="50.7834172" lon="-1.7344490">
        <name>Betsy Lane</name>
      </trkpt>
      <trkpt lat="50.7833975" lon="-1.7345780">
        <name>Betsy Lane</name>
      </trkpt>
      <trkpt lat="50.7833777" lon="-1.7347070">
        <name>Betsy Lane</name>
      </trkpt>
      <trkpt lat="50.7833580" lon="-1.7348360">
        <name>Betsy Lane</name>
      </trkpt>
      <trkpt lat="50.7833300" lon="-1.7349607">
        <name>Betsy Lane</name>
      </trkpt>
      <trkpt lat="50.7833020" lon="-1.7350853">
        <name>Betsy Lane</name>
      </trkpt>
      <trkpt lat="50.7832740" lon="-1.7352100">
        <name>Betsy Lane</name>
      </trkpt>
      <trkpt lat="50.7831913" lon="-1.7352487">
        <name>Betsy Lane</name>
      </trkpt>
      <trkpt lat="50.7831087" lon="-1.7352873">
        <name>Betsy Lane</name>
      </trkpt>
      <trkpt lat="50.7830260" lon="-1.7353260">
        <name>Betsy Lane</name>
      </trkpt>
      <trkpt lat="50.7829740" lon="-1.7353780">
        <name>Betsy Lane</name>
      </trkpt>
      <trkpt lat="50.7829470" lon="-1.7354400">
        <name>Betsy Lane</name>
      </trkpt>
      <trkpt lat="50.7829203" lon="-1.7355427">
        <name>Betsy Lane</name>
      </trkpt>
      <trkpt lat="50.7828937" lon="-1.7356453">
        <name>Betsy Lane</name>
      </trkpt>
      <trkpt lat="50.7828670" lon="-1.7357480">
        <name>Betsy Lane</name>
      </trkpt>
      <trkpt lat="50.7828455" lon="-1.7358405">
        <name>Betsy Lane</name>
      </trkpt>
      <trkpt lat="50.7828240" lon="-1.7359330">
        <name>Betsy Lane</name>
      </trkpt>
      <trkpt lat="50.7828810" lon="-1.7359697">
        <name>Betsy Lane</name>
      </trkpt>
      <trkpt lat="50.7829380" lon="-1.7360063">
        <name>Betsy Lane</name>
      </trkpt>
      <trkpt lat="50.7829950" lon="-1.7360430">
        <name>Betsy Lane</name>
      </trkpt>
      <trkpt lat="50.7830770" lon="-1.7360953">
        <name>Shackleton Square</name>
      </trkpt>
      <trkpt lat="50.7831590" lon="-1.7361477">
        <name>Shackleton Square</name>
      </trkpt>
      <trkpt lat="50.7832410" lon="-1.7362000">
        <name>Shackleton Square</name>
      </trkpt>
      <trkpt lat="50.7833163" lon="-1.7362445">
        <name>Shackleton Square</name>
      </trkpt>
      <trkpt lat="50.7833917" lon="-1.7362890">
        <name>Shackleton Square</name>
      </trkpt>
      <trkpt lat="50.7834670" lon="-1.7363335">
        <name>Shackleton Square</name>
      </trkpt>
      <trkpt lat="50.7835423" lon="-1.7363780">
        <name>Shackleton Square</name>
      </trkpt>
      <trkpt lat="50.7836177" lon="-1.7364225">
        <name>Shackleton Square</name>
      </trkpt>
      <trkpt lat="50.7836930" lon="-1.7364670">
        <name>Shackleton Square</name>
      </trkpt>
      <trkpt lat="50.7836750" lon="-1.7365400">
        <name>Shackleton Square</name>
      </trkpt>
      <trkpt lat="50.7836570" lon="-1.7366130">
        <name>Shackleton Square</name>
      </trkpt>
      <trkpt lat="50.7836150" lon="-1.7367147">
        <name>Shackleton Square</name>
      </trkpt>
      <trkpt lat="50.7835730" lon="-1.7368163">
        <name>Shackleton Square</name>
      </trkpt>
      <trkpt lat="50.7835310" lon="-1.7369180">
        <name>Shackleton Square</name>
      </trkpt>
      <trkpt lat="50.7835180" lon="-1.7369510">
        <name>Shackleton Square</name>
      </trkpt>
      <trkpt lat="50.7834870" lon="-1.7370270">
        <name>Shackleton Square</name>
      </trkpt>
      <trkpt lat="50.7834560" lon="-1.7371030">
        <name>Shackleton Square</name>
      </trkpt>
      <trkpt lat="50.7834410" lon="-1.7371720">
        <name>Shackleton Square</name>
      </trkpt>
      <trkpt lat="50.7834260" lon="-1.7372410">
        <name>Shackleton Square</name>
      </trkpt>
      <trkpt lat="50.7834245" lon="-1.7373190">
        <name>Shackleton Square</name>
      </trkpt>
      <trkpt lat="50.7834230" lon="-1.7373970">
        <name>Shackleton Square</name>
      </trkpt>
      <trkpt lat="50.7834330" lon="-1.7375330">
        <name>Shackleton Square</name>
      </trkpt>
      <trkpt lat="50.7834580" lon="-1.7376690">
        <name>Shackleton Square</name>
      </trkpt>
      <trkpt lat="50.7834690" lon="-1.7377700">
        <name>Shackleton Square</name>
      </trkpt>
      <trkpt lat="50.7834740" lon="-1.7379060">
        <name>Shackleton Square</name>
      </trkpt>
      <trkpt lat="50.7834680" lon="-1.7379790">
        <name>Shackleton Square</name>
      </trkpt>
      <trkpt lat="50.7834620" lon="-1.7380520">
        <name>Shackleton Square</name>
      </trkpt>
      <trkpt lat="50.7834330" lon="-1.7381650">
        <name>Shackleton Square</name>
      </trkpt>
      <trkpt lat="50.7833850" lon="-1.7382590">
        <name>Shackleton Square</name>
      </trkpt>
      <trkpt lat="50.7833390" lon="-1.7383060">
        <name>Shackleton Square</name>
      </trkpt>
      <trkpt lat="50.7832830" lon="-1.7383330">
        <name>Shackleton Square</name>
      </trkpt>
      <trkpt lat="50.7832110" lon="-1.7382700">
        <name>Shackleton Square</name>
      </trkpt>
      <trkpt lat="50.7831510" lon="-1.7381990">
        <name>Shackleton Square</name>
      </trkpt>
      <trkpt lat="50.7831070" lon="-1.7381830">
        <name>Shackleton Square</name>
      </trkpt>
      <trkpt lat="50.7830910" lon="-1.7381820">
        <name>Shackleton Square</name>
      </trkpt>
      <trkpt lat="50.7830100" lon="-1.7381760">
        <name>Shackleton Square</name>
      </trkpt>
      <trkpt lat="50.7829610" lon="-1.7381870">
        <name>Shackleton Square</name>
      </trkpt>
      <trkpt lat="50.7829120" lon="-1.7381980">
        <name>Shackleton Square</name>
      </trkpt>
      <trkpt lat="50.7828490" lon="-1.7382470">
        <name>Shackleton Square</name>
      </trkpt>
      <trkpt lat="50.7827950" lon="-1.7383260">
        <name>Shackleton Square</name>
      </trkpt>
      <trkpt lat="50.7827610" lon="-1.7384130">
        <name>Shackleton Square</name>
      </trkpt>
      <trkpt lat="50.7827270" lon="-1.7385000">
        <name>Shackleton Square</name>
      </trkpt>
      <trkpt lat="50.7826930" lon="-1.7385740">
        <name>Shackleton Square</name>
      </trkpt>
      <trkpt lat="50.7826590" lon="-1.7386480">
        <name>Shackleton Square</name>
      </trkpt>
      <trkpt lat="50.7826070" lon="-1.7387610">
        <name>Shackleton Square</name>
      </trkpt>
      <trkpt lat="50.7825550" lon="-1.7388740">
        <name>Shackleton Square</name>
      </trkpt>
      <trkpt lat="50.7824922" lon="-1.7389410">
        <name>Shackleton Square</name>
      </trkpt>
      <trkpt lat="50.7824294" lon="-1.7390080">
        <name>Shackleton Square</name>
      </trkpt>
      <trkpt lat="50.7823666" lon="-1.7390750">
        <name>Shackleton Square</name>
      </trkpt>
      <trkpt lat="50.7823038" lon="-1.7391420">
        <name>Shackleton Square</name>
      </trkpt>
      <trkpt lat="50.7822410" lon="-1.7392090">
        <name>Shackleton Square</name>
      </trkpt>
      <trkpt lat="50.7822070" lon="-1.7392450">
        <name>Shackleton Square</name>
      </trkpt>
      <trkpt lat="50.7821645" lon="-1.7391442">
        <name>Shackleton Square</name>
      </trkpt>
      <trkpt lat="50.7821220" lon="-1.7390435">
        <name>Shackleton Square</name>
      </trkpt>
      <trkpt lat="50.7820795" lon="-1.7389428">
        <name>Shackleton Square</name>
      </trkpt>
      <trkpt lat="50.7820370" lon="-1.7388420">
        <name>Shackleton Square</name>
      </trkpt>
      <trkpt lat="50.7819948" lon="-1.7387305">
        <name>Shackleton Square</name>
      </trkpt>
      <trkpt lat="50.7819527" lon="-1.7386190">
        <name>Shackleton Square</name>
      </trkpt>
      <trkpt lat="50.7819105" lon="-1.7385075">
        <name>Shackleton Square</name>
      </trkpt>
      <trkpt lat="50.7818683" lon="-1.7383960">
        <name>Shackleton Square</name>
      </trkpt>
      <trkpt lat="50.7818262" lon="-1.7382845">
        <name>Shackleton Square</name>
      </trkpt>
      <trkpt lat="50.7817840" lon="-1.7381730">
        <name>Shackleton Square</name>
      </trkpt>
      <trkpt lat="50.7817418" lon="-1.7380813">
        <name>Shackleton Square</name>
      </trkpt>
      <trkpt lat="50.7816995" lon="-1.7379895">
        <name>Shackleton Square</name>
      </trkpt>
      <trkpt lat="50.7816573" lon="-1.7378977">
        <name>Shackleton Square</name>
      </trkpt>
      <trkpt lat="50.7816150" lon="-1.7378060">
        <name>Shackleton Square</name>
      </trkpt>
      <trkpt lat="50.7815630" lon="-1.7378693">
        <name>Shackleton Square</name>
      </trkpt>
      <trkpt lat="50.7815110" lon="-1.7379327">
        <name>Shackleton Square</name>
      </trkpt>
      <trkpt lat="50.7814590" lon="-1.7379960">
        <name>Shackleton Square</name>
      </trkpt>
      <trkpt lat="50.7814270" lon="-1.7380540">
        <name>Shackleton Square</name>
      </trkpt>
      <trkpt lat="50.7813707" lon="-1.7381547">
        <name>Shackleton Square</name>
      </trkpt>
      <trkpt lat="50.7813143" lon="-1.7382553">
        <name>Shackleton Square</name>
      </trkpt>
      <trkpt lat="50.7812580" lon="-1.7383560">
        <name>Shackleton Square</name>
      </trkpt>
      <trkpt lat="50.7812073" lon="-1.7384565">
        <name>Shackleton Square</name>
      </trkpt>
      <trkpt lat="50.7811565" lon="-1.7385570">
        <name>Shackleton Square</name>
      </trkpt>
      <trkpt lat="50.7811058" lon="-1.7386575">
        <name>Shackleton Square</name>
      </trkpt>
      <trkpt lat="50.7810550" lon="-1.7387580">
        <name>Shackleton Square</name>
      </trkpt>
      <trkpt lat="50.7810027" lon="-1.7388693">
        <name>Shackleton Square</name>
      </trkpt>
      <trkpt lat="50.7809505" lon="-1.7389805">
        <name>Shackleton Square</name>
      </trkpt>
      <trkpt lat="50.7808982" lon="-1.7390918">
        <name>Shackleton Square</name>
      </trkpt>
      <trkpt lat="50.7808460" lon="-1.7392030">
        <name>Shackleton Square</name>
      </trkpt>
      <trkpt lat="50.7808025" lon="-1.7392853">
        <name>Betsy Lane</name>
      </trkpt>
      <trkpt lat="50.7807590" lon="-1.7393675">
        <name>Betsy Lane</name>
      </trkpt>
      <trkpt lat="50.7807155" lon="-1.7394498">
        <name>Betsy Lane</name>
      </trkpt>
      <trkpt lat="50.7806720" lon="-1.7395320">
        <name>Betsy Lane</name>
      </trkpt>
      <trkpt lat="50.7806360" lon="-1.7395915">
        <name>Betsy Lane</name>
      </trkpt>
      <trkpt lat="50.7806000" lon="-1.7396510">
        <name>Betsy Lane</name>
      </trkpt>
      <trkpt lat="50.7805423" lon="-1.7397140">
        <name>Betsy Lane</name>
      </trkpt>
      <trkpt lat="50.7804847" lon="-1.7397770">
        <name>Betsy Lane</name>
      </trkpt>
      <trkpt lat="50.7804270" lon="-1.7398400">
        <name>Betsy Lane</name>
      </trkpt>
      <trkpt lat="50.7804070" lon="-1.7398620">
        <name>Betsy Lane</name>
      </trkpt>
      <trkpt lat="50.7803615" lon="-1.7398990">
        <name>Betsy Lane</name>
      </trkpt>
      <trkpt lat="50.7803160" lon="-1.7399360">
        <name>Betsy Lane</name>
      </trkpt>
      <trkpt lat="50.7802605" lon="-1.7399735">
        <name>Betsy Lane</name>
      </trkpt>
      <trkpt lat="50.7802050" lon="-1.7400110">
        <name>Betsy Lane</name>
      </trkpt>
      <trkpt lat="50.7801275" lon="-1.7400330">
        <name>Betsy Lane</name>
      </trkpt>
      <trkpt lat="50.7800500" lon="-1.7400550">
        <name>Betsy Lane</name>
      </trkpt>
      <trkpt lat="50.7799723" lon="-1.7400623">
        <name>Rosehill Drive</name>
      </trkpt>
      <trkpt lat="50.7798947" lon="-1.7400697">
        <name>Rosehill Drive</name>
      </trkpt>
      <trkpt lat="50.7798170" lon="-1.7400770">
        <name>Rosehill Drive</name>
      </trkpt>
      <trkpt lat="50.7797710" lon="-1.7400940">
        <name>Rosehill Drive</name>
      </trkpt>
      <trkpt lat="50.7797440" lon="-1.7401230">
        <name>Rosehill Drive</name>
      </trkpt>
      <trkpt lat="50.7797200" lon="-1.7401780">
        <name>Rosehill Drive</name>
      </trkpt>
      <trkpt lat="50.7797130" lon="-1.7402680">
        <name>Rosehill Drive</name>
      </trkpt>
      <trkpt lat="50.7797260" lon="-1.7403900">
        <name>Rosehill Drive</name>
      </trkpt>
      <trkpt lat="50.7797420" lon="-1.7405155">
        <name>Rosehill Drive</name>
      </trkpt>
      <trkpt lat="50.7797580" lon="-1.7406410">
        <name>Rosehill Drive</name>
      </trkpt>
      <trkpt lat="50.7797810" lon="-1.7407275">
        <name>Rosehill Drive</name>
      </trkpt>
      <trkpt lat="50.7798040" lon="-1.7408140">
        <name>Rosehill Drive</name>
      </trkpt>
      <trkpt lat="50.7798300" lon="-1.7408900">
        <name>Rosehill Drive</name>
      </trkpt>
      <trkpt lat="50.7798560" lon="-1.7409660">
        <name>Rosehill Drive</name>
      </trkpt>
      <trkpt lat="50.7799037" lon="-1.7410493">
        <name>Rosehill Drive</name>
      </trkpt>
      <trkpt lat="50.7799513" lon="-1.7411327">
        <name>Rosehill Drive</name>
      </trkpt>
      <trkpt lat="50.7799990" lon="-1.7412160">
        <name>Rosehill Drive</name>
      </trkpt>
      <trkpt lat="50.7800375" lon="-1.7412670">
        <name>Rosehill Drive</name>
      </trkpt>
      <trkpt lat="50.7800760" lon="-1.7413180">
        <name>Rosehill Drive</name>
      </trkpt>
      <trkpt lat="50.7801170" lon="-1.7413520">
        <name>Rosehill Drive</name>
      </trkpt>
      <trkpt lat="50.7801915" lon="-1.7414145">
        <name>Rosehill Drive</name>
      </trkpt>
      <trkpt lat="50.7802660" lon="-1.7414770">
        <name>Rosehill Drive</name>
      </trkpt>
      <trkpt lat="50.7803293" lon="-1.7415003">
        <name>Rosehill Drive</name>
      </trkpt>
      <trkpt lat="50.7803927" lon="-1.7415237">
        <name>Rosehill Drive</name>
      </trkpt>
      <trkpt lat="50.7804560" lon="-1.7415470">
        <name>Rosehill Drive</name>
      </trkpt>
      <trkpt lat="50.7805245" lon="-1.7415410">
        <name>Rosehill Drive</name>
      </trkpt>
      <trkpt lat="50.7805930" lon="-1.7415350">
        <name>Rosehill Drive</name>
      </trkpt>
      <trkpt lat="50.7806465" lon="-1.7415200">
        <name>Rosehill Drive</name>
      </trkpt>
      <trkpt lat="50.7807000" lon="-1.7415050">
        <name>Rosehill Drive</name>
      </trkpt>
      <trkpt lat="50.7807857" lon="-1.7415073">
        <name>Rosehill Drive</name>
      </trkpt>
      <trkpt lat="50.7808713" lon="-1.7415097">
        <name>Rosehill Drive</name>
      </trkpt>
      <trkpt lat="50.7809570" lon="-1.7415120">
        <name>Rosehill Drive</name>
      </trkpt>
      <trkpt lat="50.7810405" lon="-1.7415345">
        <name>Rosehill Drive</name>
      </trkpt>
      <trkpt lat="50.7811240" lon="-1.7415570">
        <name>Rosehill Drive</name>
      </trkpt>
      <trkpt lat="50.7811670" lon="-1.7415680">
        <name>Rosehill Drive</name>
      </trkpt>
      <trkpt lat="50.7812460" lon="-1.7416280">
        <name>Rosehill Drive</name>
      </trkpt>
      <trkpt lat="50.7813250" lon="-1.7416880">
        <name>Rosehill Drive</name>
      </trkpt>
      <trkpt lat="50.7813895" lon="-1.7417390">
        <name>Rosehill Drive</name>
      </trkpt>
      <trkpt lat="50.7814540" lon="-1.7417900">
        <name>Rosehill Drive</name>
      </trkpt>
      <trkpt lat="50.7815143" lon="-1.7418390">
        <name>Rosehill Drive</name>
      </trkpt>
      <trkpt lat="50.7815745" lon="-1.7418880">
        <name>Rosehill Drive</name>
      </trkpt>
      <trkpt lat="50.7816347" lon="-1.7419370">
        <name>Rosehill Drive</name>
      </trkpt>
      <trkpt lat="50.7816950" lon="-1.7419860">
        <name>Rosehill Drive</name>
      </trkpt>
      <trkpt lat="50.7817475" lon="-1.7420055">
        <name>Rosehill Drive</name>
      </trkpt>
      <trkpt lat="50.7818000" lon="-1.7420250">
        <name>Rosehill Drive</name>
      </trkpt>
      <trkpt lat="50.7818530" lon="-1.7420295">
        <name>Rosehill Drive</name>
      </trkpt>
      <trkpt lat="50.7819060" lon="-1.7420340">
        <name>Rosehill Drive</name>
      </trkpt>
      <trkpt lat="50.7819615" lon="-1.7420405">
        <name>Rosehill Drive</name>
      </trkpt>
      <trkpt lat="50.7820170" lon="-1.7420470">
        <name>Rosehill Drive</name>
      </trkpt>
      <trkpt lat="50.7820793" lon="-1.7420127">
        <name>Rosehill Drive</name>
      </trkpt>
      <trkpt lat="50.7821417" lon="-1.7419783">
        <name>Rosehill Drive</name>
      </trkpt>
      <trkpt lat="50.7822040" lon="-1.7419440">
        <name>Rosehill Drive</name>
      </trkpt>
      <trkpt lat="50.7822690" lon="-1.7418865">
        <name>Rosehill Drive</name>
      </trkpt>
      <trkpt lat="50.7823340" lon="-1.7418290">
        <name>Rosehill Drive</name>
      </trkpt>
      <trkpt lat="50.7824090" lon="-1.7417630">
        <name>Rosehill Drive</name>
      </trkpt>
      <trkpt lat="50.7824840" lon="-1.7416970">
        <name>Rosehill Drive</name>
      </trkpt>
      <trkpt lat="50.7825590" lon="-1.7416310">
        <name>Rosehill Drive</name>
      </trkpt>
      <trkpt lat="50.7826180" lon="-1.7416040">
        <name>Rosehill Drive</name>
      </trkpt>
      <trkpt lat="50.7826795" lon="-1.7415995">
        <name>Rosehill Drive</name>
      </trkpt>
      <trkpt lat="50.7827410" lon="-1.7415950">
        <name>Rosehill Drive</name>
      </trkpt>
      <trkpt lat="50.7827820" lon="-1.7416350">
        <name>Rosehill Drive</name>
      </trkpt>
      <trkpt lat="50.7828560" lon="-1.7417070">
        <name>Rosehill Drive</name>
      </trkpt>
      <trkpt lat="50.7829300" lon="-1.7417790">
        <name>Rosehill Drive</name>
      </trkpt>
      <trkpt lat="50.7830020" lon="-1.7418555">
        <name>Rosehill Drive</name>
      </trkpt>
      <trkpt lat="50.7830740" lon="-1.7419320">
        <name>Rosehill Drive</name>
      </trkpt>
      <trkpt lat="50.7830393" lon="-1.7420490">
        <name>Rosehill Drive</name>
      </trkpt>
      <trkpt lat="50.7830046" lon="-1.7421660">
        <name>Rosehill Drive</name>
      </trkpt>
      <trkpt lat="50.7829699" lon="-1.7422830">
        <name>Rosehill Drive</name>
      </trkpt>
      <trkpt lat="50.7829351" lon="-1.7424000">
        <name>Rosehill Drive</name>
      </trkpt>
      <trkpt lat="50.7829004" lon="-1.7425170">
        <name>Rosehill Drive</name>
      </trkpt>
      <trkpt lat="50.7828657" lon="-1.7426340">
        <name>Rosehill Drive</name>
      </trkpt>
      <trkpt lat="50.7828310" lon="-1.7427510">
        <name>Rosehill Drive</name>
      </trkpt>
      <trkpt lat="50.7827963" lon="-1.7428680">
        <name>Rosehill Drive</name>
      </trkpt>
      <trkpt lat="50.7827617" lon="-1.7429850">
        <name>Rosehill Drive</name>
      </trkpt>
      <trkpt lat="50.7827270" lon="-1.7431020">
        <name>Rosehill Drive</name>
      </trkpt>
      <trkpt lat="50.7826968" lon="-1.7432132">
        <name>Rosehill Drive</name>
      </trkpt>
      <trkpt lat="50.7826666" lon="-1.7433244">
        <name>Rosehill Drive</name>
      </trkpt>
      <trkpt lat="50.7826364" lon="-1.7434356">
        <name>Rosehill Drive</name>
      </trkpt>
      <trkpt lat="50.7826062" lon="-1.7435468">
        <name>Rosehill Drive</name>
      </trkpt>
      <trkpt lat="50.7825760" lon="-1.7436580">
        <name>Rosehill Drive</name>
      </trkpt>
      <trkpt lat="50.7824927" lon="-1.7436061">
        <name>Rosehill Drive</name>
      </trkpt>
      <trkpt lat="50.7824094" lon="-1.7435543">
        <name>Rosehill Drive</name>
      </trkpt>
      <trkpt lat="50.7823261" lon="-1.7435024">
        <name>Rosehill Drive</name>
      </trkpt>
      <trkpt lat="50.7822429" lon="-1.7434506">
        <name>Rosehill Drive</name>
      </trkpt>
      <trkpt lat="50.7821596" lon="-1.7433987">
        <name>Rosehill Drive</name>
      </trkpt>
      <trkpt lat="50.7820763" lon="-1.7433469">
        <name>Rosehill Drive</name>
      </trkpt>
      <trkpt lat="50.7819930" lon="-1.7432950">
        <name>Rosehill Drive</name>
      </trkpt>
      <trkpt lat="50.7819235" lon="-1.7432775">
        <name>Rosehill Drive</name>
      </trkpt>
      <trkpt lat="50.7818540" lon="-1.7432600">
        <name>Rosehill Drive</name>
      </trkpt>
      <trkpt lat="50.7818230" lon="-1.7432730">
        <name>Ringwood Road</name>
      </trkpt>
      <trkpt lat="50.7817470" lon="-1.7433035">
        <name>Ringwood Road</name>
      </trkpt>
      <trkpt lat="50.7816710" lon="-1.7433340">
        <name>Ringwood Road</name>
      </trkpt>
      <trkpt lat="50.7816097" lon="-1.7433340">
        <name>Ringwood Road</name>
      </trkpt>
      <trkpt lat="50.7815483" lon="-1.7433340">
        <name>Ringwood Road</name>
      </trkpt>
      <trkpt lat="50.7814870" lon="-1.7433340">
        <name>Ringwood Road</name>
      </trkpt>
      <trkpt lat="50.7814033" lon="-1.7432890">
        <name>Ringwood Road</name>
      </trkpt>
      <trkpt lat="50.7813197" lon="-1.7432440">
        <name>Ringwood Road</name>
      </trkpt>
      <trkpt lat="50.7812360" lon="-1.7431990">
        <name>Ringwood Road</name>
      </trkpt>
      <trkpt lat="50.7811697" lon="-1.7431867">
        <name>Brookside Road</name>
      </trkpt>
      <trkpt lat="50.7811033" lon="-1.7431743">
        <name>Brookside Road</name>
      </trkpt>
      <trkpt lat="50.7810370" lon="-1.7431620">
        <name>Brookside Road</name>
      </trkpt>
      <trkpt lat="50.7809800" lon="-1.7431800">
        <name>Brookside Road</name>
      </trkpt>
      <trkpt lat="50.7809230" lon="-1.7431980">
        <name>Brookside Road</name>
      </trkpt>
      <trkpt lat="50.7808497" lon="-1.7432453">
        <name>Brookside Road</name>
      </trkpt>
      <trkpt lat="50.7807763" lon="-1.7432927">
        <name>Brookside Road</name>
      </trkpt>
      <trkpt lat="50.7807030" lon="-1.7433400">
        <name>Brookside Road</name>
      </trkpt>
      <trkpt lat="50.7806408" lon="-1.7433817">
        <name>Brookside Road</name>
      </trkpt>
      <trkpt lat="50.7805785" lon="-1.7434235">
        <name>Brookside Road</name>
      </trkpt>
      <trkpt lat="50.7805162" lon="-1.7434652">
        <name>Brookside Road</name>
      </trkpt>
      <trkpt lat="50.7804540" lon="-1.7435070">
        <name>Brookside Road</name>
      </trkpt>
      <trkpt lat="50.7804280" lon="-1.7435250">
        <name>Brookside Road</name>
      </trkpt>
      <trkpt lat="50.7804585" lon="-1.7436240">
        <name>Brookside Road</name>
      </trkpt>
      <trkpt lat="50.7804890" lon="-1.7437230">
        <name>Brookside Road</name>
      </trkpt>
      <trkpt lat="50.7805085" lon="-1.7437935">
        <name>Brookside Road</name>
      </trkpt>
      <trkpt lat="50.7805280" lon="-1.7438640">
        <name>Brookside Road</name>
      </trkpt>
      <trkpt lat="50.7805375" lon="-1.7439570">
        <name>Brookside Road</name>
      </trkpt>
      <trkpt lat="50.7805470" lon="-1.7440500">
        <name>Brookside Road</name>
      </trkpt>
      <trkpt lat="50.7805380" lon="-1.7441440">
        <name>Brookside Road</name>
      </trkpt>
      <trkpt lat="50.7805290" lon="-1.7442380">
        <name>Brookside Road</name>
      </trkpt>
      <trkpt lat="50.7805010" lon="-1.7443315">
        <name>Brookside Road</name>
      </trkpt>
      <trkpt lat="50.7804730" lon="-1.7444250">
        <name>Brookside Road</name>
      </trkpt>
      <trkpt lat="50.7804103" lon="-1.7445217">
        <name>Brookside Road</name>
      </trkpt>
      <trkpt lat="50.7803477" lon="-1.7446183">
        <name>Brookside Road</name>
      </trkpt>
      <trkpt lat="50.7802850" lon="-1.7447150">
        <name>Brookside Road</name>
      </trkpt>
      <trkpt lat="50.7802210" lon="-1.7447930">
        <name>Brookside Road</name>
      </trkpt>
      <trkpt lat="50.7801825" lon="-1.7448410">
        <name>Brookside Road</name>
      </trkpt>
      <trkpt lat="50.7801440" lon="-1.7448890">
        <name>Brookside Road</name>
      </trkpt>
      <trkpt lat="50.7801030" lon="-1.7449690">
        <name>Brookside Road</name>
      </trkpt>
      <trkpt lat="50.7800620" lon="-1.7450490">
        <name>Brookside Road</name>
      </trkpt>
      <trkpt lat="50.7800210" lon="-1.7451290">
        <name>Brookside Road</name>
      </trkpt>
      <trkpt lat="50.7799670" lon="-1.7451040">
        <name>Brookside Road</name>
      </trkpt>
      <trkpt lat="50.7799130" lon="-1.7450790">
        <name>Brookside Road</name>
      </trkpt>
      <trkpt lat="50.7799060" lon="-1.7450770">
        <name>Brookside Road</name>
      </trkpt>
      <trkpt lat="50.7798223" lon="-1.7450530">
        <name>Brookside Road</name>
      </trkpt>
      <trkpt lat="50.7797387" lon="-1.7450290">
        <name>Brookside Road</name>
      </trkpt>
      <trkpt lat="50.7796550" lon="-1.7450050">
        <name>Brookside Road</name>
      </trkpt>
      <trkpt lat="50.7795885" lon="-1.7449870">
        <name>Brookside Road</name>
      </trkpt>
      <trkpt lat="50.7795220" lon="-1.7449690">
        <name>Brookside Road</name>
      </trkpt>
      <trkpt lat="50.7794555" lon="-1.7449655">
        <name>Brookside Road</name>
      </trkpt>
      <trkpt lat="50.7793890" lon="-1.7449620">
        <name>Brookside Road</name>
      </trkpt>
      <trkpt lat="50.7793145" lon="-1.7450140">
        <name>Brookside Road</name>
      </trkpt>
      <trkpt lat="50.7792400" lon="-1.7450660">
        <name>Brookside Road</name>
      </trkpt>
      <trkpt lat="50.7792175" lon="-1.7451485">
        <name>Brookside Road</name>
      </trkpt>
      <trkpt lat="50.7791950" lon="-1.7452310">
        <name>Brookside Road</name>
      </trkpt>
      <trkpt lat="50.7792365" lon="-1.7453315">
        <name>Brookside Road</name>
      </trkpt>
      <trkpt lat="50.7792780" lon="-1.7454320">
        <name>Brookside Road</name>
      </trkpt>
      <trkpt lat="50.7792930" lon="-1.7455250">
        <name>Brookside Road</name>
      </trkpt>
      <trkpt lat="50.7793080" lon="-1.7456180">
        <name>Brookside Road</name>
      </trkpt>
      <trkpt lat="50.7793230" lon="-1.7457110">
        <name>Brookside Road</name>
      </trkpt>
      <trkpt lat="50.7793080" lon="-1.7456180">
        <name>Brookside Road</name>
      </trkpt>
      <trkpt lat="50.7792930" lon="-1.7455250">
        <name>Brookside Road</name>
      </trkpt>
      <trkpt lat="50.7792780" lon="-1.7454320">
        <name>Brookside Road</name>
      </trkpt>
      <trkpt lat="50.7792365" lon="-1.7453315">
        <name>Brookside Road</name>
      </trkpt>
      <trkpt lat="50.7791950" lon="-1.7452310">
        <name>Brookside Road</name>
      </trkpt>
      <trkpt lat="50.7792175" lon="-1.7451485">
        <name>Brookside Road</name>
      </trkpt>
      <trkpt lat="50.7792400" lon="-1.7450660">
        <name>Brookside Road</name>
      </trkpt>
      <trkpt lat="50.7793145" lon="-1.7450140">
        <name>Brookside Road</name>
      </trkpt>
      <trkpt lat="50.7793890" lon="-1.7449620">
        <name>Brookside Road</name>
      </trkpt>
      <trkpt lat="50.7794555" lon="-1.7449655">
        <name>Brookside Road</name>
      </trkpt>
      <trkpt lat="50.7795220" lon="-1.7449690">
        <name>Brookside Road</name>
      </trkpt>
      <trkpt lat="50.7795885" lon="-1.7449870">
        <name>Brookside Road</name>
      </trkpt>
      <trkpt lat="50.7796550" lon="-1.7450050">
        <name>Brookside Road</name>
      </trkpt>
      <trkpt lat="50.7797387" lon="-1.7450290">
        <name>Brookside Road</name>
      </trkpt>
      <trkpt lat="50.7798223" lon="-1.7450530">
        <name>Brookside Road</name>
      </trkpt>
      <trkpt lat="50.7799060" lon="-1.7450770">
        <name>Brookside Road</name>
      </trkpt>
      <trkpt lat="50.7799130" lon="-1.7450790">
        <name>Brookside Road</name>
      </trkpt>
      <trkpt lat="50.7799570" lon="-1.7450995">
        <name>Brookside Road</name>
      </trkpt>
      <trkpt lat="50.7800010" lon="-1.7451200">
        <name>Brookside Road</name>
      </trkpt>
      <trkpt lat="50.7800210" lon="-1.7451290">
        <name>Brookside Road</name>
      </trkpt>
      <trkpt lat="50.7800190" lon="-1.7452470">
        <name>Brookside Road</name>
      </trkpt>
      <trkpt lat="50.7800160" lon="-1.7453590">
        <name>Brookside Road</name>
      </trkpt>
      <trkpt lat="50.7800090" lon="-1.7454610">
        <name>Brookside Road</name>
      </trkpt>
      <trkpt lat="50.7800070" lon="-1.7454930">
        <name>Brookside Road</name>
      </trkpt>
      <trkpt lat="50.7800030" lon="-1.7455270">
        <name>Brookside Road</name>
      </trkpt>
      <trkpt lat="50.7799970" lon="-1.7455760">
        <name>Brookside Road</name>
      </trkpt>
      <trkpt lat="50.7799930" lon="-1.7456160">
        <name>Brookside Road</name>
      </trkpt>
      <trkpt lat="50.7799910" lon="-1.7456330">
        <name>Brookside Road</name>
      </trkpt>
      <trkpt lat="50.7799740" lon="-1.7457410">
        <name>Brookside Road</name>
      </trkpt>
      <trkpt lat="50.7799610" lon="-1.7458125">
        <name>Brookside Road</name>
      </trkpt>
      <trkpt lat="50.7799480" lon="-1.7458840">
        <name>Brookside Road</name>
      </trkpt>
      <trkpt lat="50.7799250" lon="-1.7459890">
        <name>Brookside Road</name>
      </trkpt>
      <trkpt lat="50.7799020" lon="-1.7460765">
        <name>Brookside Road</name>
      </trkpt>
      <trkpt lat="50.7798790" lon="-1.7461640">
        <name>Brookside Road</name>
      </trkpt>
      <trkpt lat="50.7798750" lon="-1.7461750">
        <name>Brookside Road</name>
      </trkpt>
      <trkpt lat="50.7798495" lon="-1.7462560">
        <name>Brookside Road</name>
      </trkpt>
      <trkpt lat="50.7798240" lon="-1.7463370">
        <name>Brookside Road</name>
      </trkpt>
      <trkpt lat="50.7798140" lon="-1.7463690">
        <name>Brookside Road</name>
      </trkpt>
      <trkpt lat="50.7797920" lon="-1.7464410">
        <name>Brookside Road</name>
      </trkpt>
      <trkpt lat="50.7797570" lon="-1.7465460">
        <name>Brookside Road</name>
      </trkpt>
      <trkpt lat="50.7797220" lon="-1.7466510">
        <name>Brookside Road</name>
      </trkpt>
      <trkpt lat="50.7797160" lon="-1.7466680">
        <name>Brookside Road</name>
      </trkpt>
      <trkpt lat="50.7796802" lon="-1.7467678">
        <name>Brookside Road</name>
      </trkpt>
      <trkpt lat="50.7796445" lon="-1.7468675">
        <name>Brookside Road</name>
      </trkpt>
      <trkpt lat="50.7796088" lon="-1.7469672">
        <name>Brookside Road</name>
      </trkpt>
      <trkpt lat="50.7795730" lon="-1.7470670">
        <name>Brookside Road</name>
      </trkpt>
      <trkpt lat="50.7795380" lon="-1.7471650">
        <name>Brookside Road</name>
      </trkpt>
      <trkpt lat="50.7795030" lon="-1.7472630">
        <name>Brookside Road</name>
      </trkpt>
      <trkpt lat="50.7794695" lon="-1.7473577">
        <name>Brookside Road</name>
      </trkpt>
      <trkpt lat="50.7794360" lon="-1.7474525">
        <name>Brookside Road</name>
      </trkpt>
      <trkpt lat="50.7794025" lon="-1.7475472">
        <name>Brookside Road</name>
      </trkpt>
      <trkpt lat="50.7793690" lon="-1.7476420">
        <name>Brookside Road</name>
      </trkpt>
      <trkpt lat="50.7793590" lon="-1.7476690">
        <name>Brookside Road</name>
      </trkpt>
      <trkpt lat="50.7793110" lon="-1.7476180">
        <name>Brookside Road</name>
      </trkpt>
      <trkpt lat="50.7792375" lon="-1.7475389">
        <name>Brookside Road</name>
      </trkpt>
      <trkpt lat="50.7791639" lon="-1.7474598">
        <name>Brookside Road</name>
      </trkpt>
      <trkpt lat="50.7790904" lon="-1.7473808">
        <name>Brookside Road</name>
      </trkpt>
      <trkpt lat="50.7790168" lon="-1.7473017">
        <name>Brookside Road</name>
      </trkpt>
      <trkpt lat="50.7789433" lon="-1.7472226">
        <name>Brookside Road</name>
      </trkpt>
      <trkpt lat="50.7788698" lon="-1.7471435">
        <name>Brookside Road</name>
      </trkpt>
      <trkpt lat="50.7787962" lon="-1.7470645">
        <name>Brookside Road</name>
      </trkpt>
      <trkpt lat="50.7787227" lon="-1.7469854">
        <name>Brookside Road</name>
      </trkpt>
      <trkpt lat="50.7786492" lon="-1.7469063">
        <name>Brookside Road</name>
      </trkpt>
      <trkpt lat="50.7785756" lon="-1.7468272">
        <name>Brookside Road</name>
      </trkpt>
      <trkpt lat="50.7785021" lon="-1.7467482">
        <name>Brookside Road</name>
      </trkpt>
      <trkpt lat="50.7784285" lon="-1.7466691">
        <name>Brookside Road</name>
      </trkpt>
      <trkpt lat="50.7783550" lon="-1.7465900">
        <name>Brookside Road</name>
      </trkpt>
      <trkpt lat="50.7783057" lon="-1.7465040">
        <name>Brookside Road</name>
      </trkpt>
      <trkpt lat="50.7782563" lon="-1.7464180">
        <name>Brookside Road</name>
      </trkpt>
      <trkpt lat="50.7782070" lon="-1.7463320">
        <name>Brookside Road</name>
      </trkpt>
      <trkpt lat="50.7781810" lon="-1.7462780">
        <name>Brookside Road</name>
      </trkpt>
      <trkpt lat="50.7781510" lon="-1.7461990">
        <name>Brookside Road</name>
      </trkpt>
      <trkpt lat="50.7781410" lon="-1.7460865">
        <name>Brookside Road</name>
      </trkpt>
      <trkpt lat="50.7781310" lon="-1.7459740">
        <name>Brookside Road</name>
      </trkpt>
      <trkpt lat="50.7781260" lon="-1.7459130">
        <name>Brookside Road</name>
      </trkpt>
      <trkpt lat="50.7781345" lon="-1.7457870">
        <name>Brookside Road</name>
      </trkpt>
      <trkpt lat="50.7781430" lon="-1.7456610">
        <name>Brookside Road</name>
      </trkpt>
      <trkpt lat="50.7781515" lon="-1.7455350">
        <name>Brookside Road</name>
      </trkpt>
      <trkpt lat="50.7781600" lon="-1.7454090">
        <name>Brookside Road</name>
      </trkpt>
      <trkpt lat="50.7781515" lon="-1.7453315">
        <name>Brookside Road</name>
      </trkpt>
      <trkpt lat="50.7781430" lon="-1.7452540">
        <name>Brookside Road</name>
      </trkpt>
      <trkpt lat="50.7781225" lon="-1.7451490">
        <name>Brookside Road</name>
      </trkpt>
      <trkpt lat="50.7781020" lon="-1.7450440">
        <name>Brookside Road</name>
      </trkpt>
      <trkpt lat="50.7780385" lon="-1.7449555">
        <name>Brookside Road</name>
      </trkpt>
      <trkpt lat="50.7779750" lon="-1.7448670">
        <name>Brookside Road</name>
      </trkpt>
      <trkpt lat="50.7779710" lon="-1.7448090">
        <name>Brookside Road</name>
      </trkpt>
      <trkpt lat="50.7779670" lon="-1.7447400">
        <name>Derritt Lane</name>
      </trkpt>
      <trkpt lat="50.7779387" lon="-1.7446303">
        <name>Derritt Lane</name>
      </trkpt>
      <trkpt lat="50.7779103" lon="-1.7445207">
        <name>Derritt Lane</name>
      </trkpt>
      <trkpt lat="50.7778820" lon="-1.7444110">
        <name>Derritt Lane</name>
      </trkpt>
      <trkpt lat="50.7778533" lon="-1.7443170">
        <name>Derritt Lane</name>
      </trkpt>
      <trkpt lat="50.7778247" lon="-1.7442230">
        <name>Derritt Lane</name>
      </trkpt>
      <trkpt lat="50.7777960" lon="-1.7441290">
        <name>Derritt Lane</name>
      </trkpt>
      <trkpt lat="50.7777673" lon="-1.7440150">
        <name>Derritt Lane</name>
      </trkpt>
      <trkpt lat="50.7777387" lon="-1.7439010">
        <name>Derritt Lane</name>
      </trkpt>
      <trkpt lat="50.7777100" lon="-1.7437870">
        <name>Derritt Lane</name>
      </trkpt>
      <trkpt lat="50.7776980" lon="-1.7436890">
        <name>Derritt Lane</name>
      </trkpt>
      <trkpt lat="50.7776860" lon="-1.7435910">
        <name>Derritt Lane</name>
      </trkpt>
      <trkpt lat="50.7776740" lon="-1.7434930">
        <name>Derritt Lane</name>
      </trkpt>
      <trkpt lat="50.7776790" lon="-1.7433640">
        <name>Derritt Lane</name>
      </trkpt>
      <trkpt lat="50.7776835" lon="-1.7432510">
        <name>Derritt Lane</name>
      </trkpt>
      <trkpt lat="50.7776880" lon="-1.7431380">
        <name>Derritt Lane</name>
      </trkpt>
      <trkpt lat="50.7776845" lon="-1.7430545">
        <name>West Road</name>
      </trkpt>
      <trkpt lat="50.7776810" lon="-1.7429710">
        <name>West Road</name>
      </trkpt>
      <trkpt lat="50.7776760" lon="-1.7429320">
        <name>West Road</name>
      </trkpt>
      <trkpt lat="50.7776740" lon="-1.7429050">
        <name>West Road</name>
      </trkpt>
      <trkpt lat="50.7776430" lon="-1.7428115">
        <name>West Road</name>
      </trkpt>
      <trkpt lat="50.7776120" lon="-1.7427180">
        <name>West Road</name>
      </trkpt>
      <trkpt lat="50.7776020" lon="-1.7426850">
        <name>West Road</name>
      </trkpt>
      <trkpt lat="50.7775733" lon="-1.7425870">
        <name>West Road</name>
      </trkpt>
      <trkpt lat="50.7775447" lon="-1.7424890">
        <name>West Road</name>
      </trkpt>
      <trkpt lat="50.7775160" lon="-1.7423910">
        <name>West Road</name>
      </trkpt>
      <trkpt lat="50.7774910" lon="-1.7422810">
        <name>West Road</name>
      </trkpt>
      <trkpt lat="50.7774660" lon="-1.7421710">
        <name>West Road</name>
      </trkpt>
      <trkpt lat="50.7774410" lon="-1.7420610">
        <name>West Road</name>
      </trkpt>
      <trkpt lat="50.7773885" lon="-1.7419925">
        <name>West Road</name>
      </trkpt>
      <trkpt lat="50.7773360" lon="-1.7419240">
        <name>West Road</name>
      </trkpt>
      <trkpt lat="50.7772797" lon="-1.7418510">
        <name>West Road</name>
      </trkpt>
      <trkpt lat="50.7772233" lon="-1.7417780">
        <name>West Road</name>
      </trkpt>
      <trkpt lat="50.7771670" lon="-1.7417050">
        <name>West Road</name>
      </trkpt>
      <trkpt lat="50.7771200" lon="-1.7416450">
        <name>West Road</name>
      </trkpt>
      <trkpt lat="50.7770930" lon="-1.7417105">
        <name>West Road</name>
      </trkpt>
      <trkpt lat="50.7770660" lon="-1.7417760">
        <name>West Road</name>
      </trkpt>
      <trkpt lat="50.7770150" lon="-1.7417110">
        <name>West Road</name>
      </trkpt>
      <trkpt lat="50.7769640" lon="-1.7416460">
        <name>West Road</name>
      </trkpt>
      <trkpt lat="50.7769790" lon="-1.7415590">
        <name>West Road</name>
      </trkpt>
      <trkpt lat="50.7769840" lon="-1.7414750">
        <name>West Road</name>
      </trkpt>
      <trkpt lat="50.7769670" lon="-1.7414090">
        <name>West Road</name>
      </trkpt>
      <trkpt lat="50.7769036" lon="-1.7413204">
        <name>West Road</name>
      </trkpt>
      <trkpt lat="50.7768402" lon="-1.7412318">
        <name>West Road</name>
      </trkpt>
      <trkpt lat="50.7767768" lon="-1.7411432">
        <name>West Road</name>
      </trkpt>
      <trkpt lat="50.7767134" lon="-1.7410546">
        <name>West Road</name>
      </trkpt>
      <trkpt lat="50.7766500" lon="-1.7409660">
        <name>West Road</name>
      </trkpt>
      <trkpt lat="50.7765922" lon="-1.7408855">
        <name>West Road</name>
      </trkpt>
      <trkpt lat="50.7765345" lon="-1.7408050">
        <name>West Road</name>
      </trkpt>
      <trkpt lat="50.7764768" lon="-1.7407245">
        <name>West Road</name>
      </trkpt>
      <trkpt lat="50.7764190" lon="-1.7406440">
        <name>West Road</name>
      </trkpt>
      <trkpt lat="50.7763667" lon="-1.7405750">
        <name>West Road</name>
      </trkpt>
      <trkpt lat="50.7763143" lon="-1.7405060">
        <name>West Road</name>
      </trkpt>
      <trkpt lat="50.7762620" lon="-1.7404370">
        <name>West Road</name>
      </trkpt>
      <trkpt lat="50.7762100" lon="-1.7404580">
        <name>West Road</name>
      </trkpt>
      <trkpt lat="50.7761630" lon="-1.7405040">
        <name>Wiltshire Gardens</name>
      </trkpt>
      <trkpt lat="50.7761280" lon="-1.7405770">
        <name>Wiltshire Gardens</name>
      </trkpt>
      <trkpt lat="50.7761210" lon="-1.7406010">
        <name>Wiltshire Gardens</name>
      </trkpt>
      <trkpt lat="50.7761020" lon="-1.7406720">
        <name>Wiltshire Gardens</name>
      </trkpt>
      <trkpt lat="50.7761040" lon="-1.7407610">
        <name>Wiltshire Gardens</name>
      </trkpt>
      <trkpt lat="50.7761430" lon="-1.7408300">
        <name>Wiltshire Gardens</name>
      </trkpt>
      <trkpt lat="50.7762140" lon="-1.7409070">
        <name>Wiltshire Gardens</name>
      </trkpt>
      <trkpt lat="50.7762749" lon="-1.7409936">
        <name>Wiltshire Gardens</name>
      </trkpt>
      <trkpt lat="50.7763358" lon="-1.7410801">
        <name>Wiltshire Gardens</name>
      </trkpt>
      <trkpt lat="50.7763967" lon="-1.7411667">
        <name>Wiltshire Gardens</name>
      </trkpt>
      <trkpt lat="50.7764576" lon="-1.7412532">
        <name>Wiltshire Gardens</name>
      </trkpt>
      <trkpt lat="50.7765184" lon="-1.7413398">
        <name>Wiltshire Gardens</name>
      </trkpt>
      <trkpt lat="50.7765793" lon="-1.7414263">
        <name>Wiltshire Gardens</name>
      </trkpt>
      <trkpt lat="50.7766402" lon="-1.7415129">
        <name>Wiltshire Gardens</name>
      </trkpt>
      <trkpt lat="50.7767011" lon="-1.7415994">
        <name>Wiltshire Gardens</name>
      </trkpt>
      <trkpt lat="50.7767620" lon="-1.7416860">
        <name>Wiltshire Gardens</name>
      </trkpt>
      <trkpt lat="50.7768040" lon="-1.7417060">
        <name>Wiltshire Gardens</name>
      </trkpt>
      <trkpt lat="50.7768430" lon="-1.7417050">
        <name>Wiltshire Gardens</name>
      </trkpt>
      <trkpt lat="50.7768520" lon="-1.7417050">
        <name>Merryfield Close</name>
      </trkpt>
      <trkpt lat="50.7769130" lon="-1.7416900">
        <name>Merryfield Close</name>
      </trkpt>
      <trkpt lat="50.7769640" lon="-1.7416460">
        <name>Merryfield Close</name>
      </trkpt>
      <trkpt lat="50.7770150" lon="-1.7417110">
        <name>Merryfield Close</name>
      </trkpt>
      <trkpt lat="50.7770660" lon="-1.7417760">
        <name>Merryfield Close</name>
      </trkpt>
      <trkpt lat="50.7770207" lon="-1.7418723">
        <name>Merryfield Close</name>
      </trkpt>
      <trkpt lat="50.7769755" lon="-1.7419685">
        <name>Merryfield Close</name>
      </trkpt>
      <trkpt lat="50.7769302" lon="-1.7420647">
        <name>Merryfield Close</name>
      </trkpt>
      <trkpt lat="50.7768850" lon="-1.7421610">
        <name>Merryfield Close</name>
      </trkpt>
      <trkpt lat="50.7769510" lon="-1.7422570">
        <name>Merryfield Close</name>
      </trkpt>
    </trkseg>
  </trk>
</gpx>