<?xml version="1.0" encoding="UTF-8"?>
<gpx version="1.1" creator="TurboSanta Route Planner">
  <trk>
    <name>TurboSanta Route (10m density)</name>
    <trkseg>
      <trkpt lat="50.8191900" lon="-1.8547210">
        <name>Victory Way</name>
      </trkpt>
      <trkpt lat="50.8191570" lon="-1.8548095">
        <name>Victory Way</name>
      </trkpt>
      <trkpt lat="50.8191240" lon="-1.8548980">
        <name>Victory Way</name>
      </trkpt>
      <trkpt lat="50.8190960" lon="-1.8549830">
        <name>Victory Way</name>
      </trkpt>
      <trkpt lat="50.8190680" lon="-1.8550680">
        <name>Victory Way</name>
      </trkpt>
      <trkpt lat="50.8190400" lon="-1.8551530">
        <name>Victory Way</name>
      </trkpt>
      <trkpt lat="50.8190983" lon="-1.8551943">
        <name>Normandy Way</name>
      </trkpt>
      <trkpt lat="50.8191567" lon="-1.8552357">
        <name>Normandy Way</name>
      </trkpt>
      <trkpt lat="50.8192150" lon="-1.8552770">
        <name>Normandy Way</name>
      </trkpt>
      <trkpt lat="50.8192260" lon="-1.8552920">
        <name>Normandy Way</name>
      </trkpt>
      <trkpt lat="50.8192783" lon="-1.8553627">
        <name>Normandy Way</name>
      </trkpt>
      <trkpt lat="50.8193307" lon="-1.8554333">
        <name>Normandy Way</name>
      </trkpt>
      <trkpt lat="50.8193830" lon="-1.8555040">
        <name>Normandy Way</name>
      </trkpt>
      <trkpt lat="50.8194320" lon="-1.8555525">
        <name>Normandy Way</name>
      </trkpt>
      <trkpt lat="50.8194810" lon="-1.8556010">
        <name>Normandy Way</name>
      </trkpt>
      <trkpt lat="50.8195270" lon="-1.8556430">
        <name>Normandy Way</name>
      </trkpt>
      <trkpt lat="50.8195000" lon="-1.8557190">
        <name>Normandy Way</name>
      </trkpt>
      <trkpt lat="50.8194730" lon="-1.8557950">
        <name>Normandy Way</name>
      </trkpt>
      <trkpt lat="50.8194407" lon="-1.8558860">
        <name>Normandy Way</name>
      </trkpt>
      <trkpt lat="50.8194083" lon="-1.8559770">
        <name>Normandy Way</name>
      </trkpt>
      <trkpt lat="50.8193760" lon="-1.8560680">
        <name>Normandy Way</name>
      </trkpt>
      <trkpt lat="50.8193360" lon="-1.8561545">
        <name>Normandy Way</name>
      </trkpt>
      <trkpt lat="50.8192960" lon="-1.8562410">
        <name>Normandy Way</name>
      </trkpt>
      <trkpt lat="50.8192560" lon="-1.8563275">
        <name>Normandy Way</name>
      </trkpt>
      <trkpt lat="50.8192160" lon="-1.8564140">
        <name>Normandy Way</name>
      </trkpt>
      <trkpt lat="50.8191653" lon="-1.8565075">
        <name>Normandy Way</name>
      </trkpt>
      <trkpt lat="50.8191147" lon="-1.8566010">
        <name>Normandy Way</name>
      </trkpt>
      <trkpt lat="50.8190640" lon="-1.8566945">
        <name>Normandy Way</name>
      </trkpt>
      <trkpt lat="50.8190133" lon="-1.8567880">
        <name>Normandy Way</name>
      </trkpt>
      <trkpt lat="50.8189627" lon="-1.8568815">
        <name>Normandy Way</name>
      </trkpt>
      <trkpt lat="50.8189120" lon="-1.8569750">
        <name>Normandy Way</name>
      </trkpt>
      <trkpt lat="50.8188537" lon="-1.8568950">
        <name>Normandy Way</name>
      </trkpt>
      <trkpt lat="50.8187953" lon="-1.8568150">
        <name>Normandy Way</name>
      </trkpt>
      <trkpt lat="50.8187370" lon="-1.8567350">
        <name>Normandy Way</name>
      </trkpt>
      <trkpt lat="50.8187080" lon="-1.8566830">
        <name>Normandy Way</name>
      </trkpt>
      <trkpt lat="50.8186750" lon="-1.8566250">
        <name>Normandy Way</name>
      </trkpt>
      <trkpt lat="50.8186515" lon="-1.8565440">
        <name>Normandy Way</name>
      </trkpt>
      <trkpt lat="50.8186280" lon="-1.8564630">
        <name>Normandy Way</name>
      </trkpt>
      <trkpt lat="50.8186135" lon="-1.8563920">
        <name>Normandy Way</name>
      </trkpt>
      <trkpt lat="50.8185990" lon="-1.8563210">
        <name>Normandy Way</name>
      </trkpt>
      <trkpt lat="50.8185947" lon="-1.8561997">
        <name>Normandy Way</name>
      </trkpt>
      <trkpt lat="50.8185903" lon="-1.8560783">
        <name>Normandy Way</name>
      </trkpt>
      <trkpt lat="50.8185860" lon="-1.8559570">
        <name>Normandy Way</name>
      </trkpt>
      <trkpt lat="50.8185050" lon="-1.8559620">
        <name>Normandy Way</name>
      </trkpt>
      <trkpt lat="50.8184250" lon="-1.8559670">
        <name>Normandy Way</name>
      </trkpt>
      <trkpt lat="50.8183450" lon="-1.8559720">
        <name>Normandy Way</name>
      </trkpt>
      <trkpt lat="50.8182590" lon="-1.8559670">
        <name>Normandy Way</name>
      </trkpt>
      <trkpt lat="50.8182520" lon="-1.8560465">
        <name>Normandy Way</name>
      </trkpt>
      <trkpt lat="50.8182450" lon="-1.8561260">
        <name>Normandy Way</name>
      </trkpt>
      <trkpt lat="50.8182095" lon="-1.8562465">
        <name>Normandy Way</name>
      </trkpt>
      <trkpt lat="50.8181740" lon="-1.8563670">
        <name>Normandy Way</name>
      </trkpt>
      <trkpt lat="50.8181363" lon="-1.8564477">
        <name>Normandy Way</name>
      </trkpt>
      <trkpt lat="50.8180987" lon="-1.8565283">
        <name>Normandy Way</name>
      </trkpt>
      <trkpt lat="50.8180610" lon="-1.8566090">
        <name>Normandy Way</name>
      </trkpt>
      <trkpt lat="50.8180124" lon="-1.8567104">
        <name>Normandy Way</name>
      </trkpt>
      <trkpt lat="50.8179638" lon="-1.8568118">
        <name>Normandy Way</name>
      </trkpt>
      <trkpt lat="50.8179152" lon="-1.8569132">
        <name>Normandy Way</name>
      </trkpt>
      <trkpt lat="50.8178666" lon="-1.8570146">
        <name>Normandy Way</name>
      </trkpt>
      <trkpt lat="50.8178180" lon="-1.8571160">
        <name>Normandy Way</name>
      </trkpt>
      <trkpt lat="50.8178873" lon="-1.8572033">
        <name>Normandy Way</name>
      </trkpt>
      <trkpt lat="50.8179567" lon="-1.8572907">
        <name>Normandy Way</name>
      </trkpt>
      <trkpt lat="50.8180260" lon="-1.8573780">
        <name>Normandy Way</name>
      </trkpt>
      <trkpt lat="50.8180958" lon="-1.8574658">
        <name>Normandy Way</name>
      </trkpt>
      <trkpt lat="50.8181657" lon="-1.8575537">
        <name>Normandy Way</name>
      </trkpt>
      <trkpt lat="50.8182355" lon="-1.8576415">
        <name>Normandy Way</name>
      </trkpt>
      <trkpt lat="50.8183053" lon="-1.8577293">
        <name>Normandy Way</name>
      </trkpt>
      <trkpt lat="50.8183752" lon="-1.8578172">
        <name>Normandy Way</name>
      </trkpt>
      <trkpt lat="50.8184450" lon="-1.8579050">
        <name>Normandy Way</name>
      </trkpt>
      <trkpt lat="50.8184020" lon="-1.8579887">
        <name>Victory Way</name>
      </trkpt>
      <trkpt lat="50.8183590" lon="-1.8580723">
        <name>Victory Way</name>
      </trkpt>
      <trkpt lat="50.8183160" lon="-1.8581560">
        <name>Victory Way</name>
      </trkpt>
      <trkpt lat="50.8183590" lon="-1.8580723">
        <name>Victory Way</name>
      </trkpt>
      <trkpt lat="50.8184020" lon="-1.8579887">
        <name>Victory Way</name>
      </trkpt>
      <trkpt lat="50.8184450" lon="-1.8579050">
        <name>Victory Way</name>
      </trkpt>
      <trkpt lat="50.8184380" lon="-1.8578960">
        <name>Victory Way</name>
      </trkpt>
      <trkpt lat="50.8183693" lon="-1.8578097">
        <name>Victory Way</name>
      </trkpt>
      <trkpt lat="50.8183007" lon="-1.8577233">
        <name>Victory Way</name>
      </trkpt>
      <trkpt lat="50.8182320" lon="-1.8576370">
        <name>Victory Way</name>
      </trkpt>
      <trkpt lat="50.8181633" lon="-1.8575507">
        <name>Victory Way</name>
      </trkpt>
      <trkpt lat="50.8180947" lon="-1.8574643">
        <name>Victory Way</name>
      </trkpt>
      <trkpt lat="50.8180260" lon="-1.8573780">
        <name>Victory Way</name>
      </trkpt>
      <trkpt lat="50.8179567" lon="-1.8572907">
        <name>Gold Road</name>
      </trkpt>
      <trkpt lat="50.8178873" lon="-1.8572033">
        <name>Gold Road</name>
      </trkpt>
      <trkpt lat="50.8178180" lon="-1.8571160">
        <name>Gold Road</name>
      </trkpt>
      <trkpt lat="50.8178666" lon="-1.8570146">
        <name>Gold Road</name>
      </trkpt>
      <trkpt lat="50.8179152" lon="-1.8569132">
        <name>Gold Road</name>
      </trkpt>
      <trkpt lat="50.8179638" lon="-1.8568118">
        <name>Gold Road</name>
      </trkpt>
      <trkpt lat="50.8180124" lon="-1.8567104">
        <name>Gold Road</name>
      </trkpt>
      <trkpt lat="50.8180610" lon="-1.8566090">
        <name>Gold Road</name>
      </trkpt>
      <trkpt lat="50.8180987" lon="-1.8565283">
        <name>Gold Road</name>
      </trkpt>
      <trkpt lat="50.8181363" lon="-1.8564477">
        <name>Gold Road</name>
      </trkpt>
      <trkpt lat="50.8181740" lon="-1.8563670">
        <name>Gold Road</name>
      </trkpt>
      <trkpt lat="50.8182095" lon="-1.8562465">
        <name>Gold Road</name>
      </trkpt>
      <trkpt lat="50.8182450" lon="-1.8561260">
        <name>Gold Road</name>
      </trkpt>
      <trkpt lat="50.8182520" lon="-1.8560465">
        <name>Gold Road</name>
      </trkpt>
      <trkpt lat="50.8182590" lon="-1.8559670">
        <name>Gold Road</name>
      </trkpt>
      <trkpt lat="50.8182407" lon="-1.8558493">
        <name>Utah Drive</name>
      </trkpt>
      <trkpt lat="50.8182223" lon="-1.8557317">
        <name>Utah Drive</name>
      </trkpt>
      <trkpt lat="50.8182040" lon="-1.8556140">
        <name>Utah Drive</name>
      </trkpt>
      <trkpt lat="50.8181890" lon="-1.8555210">
        <name>Utah Drive</name>
      </trkpt>
      <trkpt lat="50.8181870" lon="-1.8554155">
        <name>Utah Drive</name>
      </trkpt>
      <trkpt lat="50.8181850" lon="-1.8553100">
        <name>Utah Drive</name>
      </trkpt>
      <trkpt lat="50.8181945" lon="-1.8551850">
        <name>Utah Road</name>
      </trkpt>
      <trkpt lat="50.8182040" lon="-1.8550600">
        <name>Utah Road</name>
      </trkpt>
      <trkpt lat="50.8182020" lon="-1.8549760">
        <name>Utah Road</name>
      </trkpt>
      <trkpt lat="50.8181990" lon="-1.8548670">
        <name>Utah Road</name>
      </trkpt>
      <trkpt lat="50.8181660" lon="-1.8548770">
        <name>Utah Road</name>
      </trkpt>
      <trkpt lat="50.8181095" lon="-1.8548750">
        <name>Utah Drive</name>
      </trkpt>
      <trkpt lat="50.8180530" lon="-1.8548730">
        <name>Utah Drive</name>
      </trkpt>
      <trkpt lat="50.8179730" lon="-1.8548445">
        <name>Utah Drive</name>
      </trkpt>
      <trkpt lat="50.8178930" lon="-1.8548160">
        <name>Utah Drive</name>
      </trkpt>
      <trkpt lat="50.8178280" lon="-1.8547675">
        <name>Utah Drive</name>
      </trkpt>
      <trkpt lat="50.8177630" lon="-1.8547190">
        <name>Utah Drive</name>
      </trkpt>
      <trkpt lat="50.8177180" lon="-1.8548395">
        <name>Utah Drive</name>
      </trkpt>
      <trkpt lat="50.8176730" lon="-1.8549600">
        <name>Utah Drive</name>
      </trkpt>
      <trkpt lat="50.8176280" lon="-1.8550805">
        <name>Utah Drive</name>
      </trkpt>
      <trkpt lat="50.8175830" lon="-1.8552010">
        <name>Utah Drive</name>
      </trkpt>
      <trkpt lat="50.8175440" lon="-1.8553055">
        <name>Utah Drive</name>
      </trkpt>
      <trkpt lat="50.8175050" lon="-1.8554100">
        <name>Utah Drive</name>
      </trkpt>
      <trkpt lat="50.8175345" lon="-1.8553310">
        <name>Utah Drive</name>
      </trkpt>
      <trkpt lat="50.8175640" lon="-1.8552520">
        <name>Utah Drive</name>
      </trkpt>
      <trkpt lat="50.8175830" lon="-1.8552010">
        <name>Utah Drive</name>
      </trkpt>
      <trkpt lat="50.8176280" lon="-1.8550805">
        <name>Gold Road</name>
      </trkpt>
      <trkpt lat="50.8176730" lon="-1.8549600">
        <name>Gold Road</name>
      </trkpt>
      <trkpt lat="50.8177180" lon="-1.8548395">
        <name>Gold Road</name>
      </trkpt>
      <trkpt lat="50.8177630" lon="-1.8547190">
        <name>Gold Road</name>
      </trkpt>
      <trkpt lat="50.8177085" lon="-1.8546780">
        <name>Gold Road</name>
      </trkpt>
      <trkpt lat="50.8176540" lon="-1.8546370">
        <name>Gold Road</name>
      </trkpt>
      <trkpt lat="50.8176020" lon="-1.8545710">
        <name>Gold Road</name>
      </trkpt>
      <trkpt lat="50.8175500" lon="-1.8545050">
        <name>Gold Road</name>
      </trkpt>
      <trkpt lat="50.8175650" lon="-1.8544100">
        <name>Gold Road</name>
      </trkpt>
      <trkpt lat="50.8175800" lon="-1.8543150">
        <name>Gold Road</name>
      </trkpt>
      <trkpt lat="50.8175950" lon="-1.8542200">
        <name>Gold Road</name>
      </trkpt>
      <trkpt lat="50.8176025" lon="-1.8541275">
        <name>Gold Road</name>
      </trkpt>
      <trkpt lat="50.8176100" lon="-1.8540350">
        <name>Gold Road</name>
      </trkpt>
      <trkpt lat="50.8176110" lon="-1.8540060">
        <name>Gold Road</name>
      </trkpt>
      <trkpt lat="50.8175960" lon="-1.8538660">
        <name>Gold Road</name>
      </trkpt>
      <trkpt lat="50.8175570" lon="-1.8538740">
        <name>Gold Road</name>
      </trkpt>
      <trkpt lat="50.8175260" lon="-1.8538800">
        <name>Gold Road</name>
      </trkpt>
      <trkpt lat="50.8175960" lon="-1.8538660">
        <name>Gold Road</name>
      </trkpt>
      <trkpt lat="50.8176110" lon="-1.8540060">
        <name>Gold Road</name>
      </trkpt>
      <trkpt lat="50.8176100" lon="-1.8540350">
        <name>Gold Road</name>
      </trkpt>
      <trkpt lat="50.8176025" lon="-1.8541275">
        <name>Gold Road</name>
      </trkpt>
      <trkpt lat="50.8175950" lon="-1.8542200">
        <name>Gold Road</name>
      </trkpt>
      <trkpt lat="50.8175800" lon="-1.8543150">
        <name>Gold Road</name>
      </trkpt>
      <trkpt lat="50.8175650" lon="-1.8544100">
        <name>Gold Road</name>
      </trkpt>
      <trkpt lat="50.8175500" lon="-1.8545050">
        <name>Gold Road</name>
      </trkpt>
      <trkpt lat="50.8176020" lon="-1.8545710">
        <name>Neptune Drive</name>
      </trkpt>
      <trkpt lat="50.8176540" lon="-1.8546370">
        <name>Neptune Drive</name>
      </trkpt>
      <trkpt lat="50.8177085" lon="-1.8546780">
        <name>Neptune Drive</name>
      </trkpt>
      <trkpt lat="50.8177630" lon="-1.8547190">
        <name>Neptune Drive</name>
      </trkpt>
      <trkpt lat="50.8178280" lon="-1.8547675">
        <name>Neptune Drive</name>
      </trkpt>
      <trkpt lat="50.8178930" lon="-1.8548160">
        <name>Neptune Drive</name>
      </trkpt>
      <trkpt lat="50.8179730" lon="-1.8548445">
        <name>Neptune Drive</name>
      </trkpt>
      <trkpt lat="50.8180530" lon="-1.8548730">
        <name>Neptune Drive</name>
      </trkpt>
      <trkpt lat="50.8181095" lon="-1.8548750">
        <name>Neptune Drive</name>
      </trkpt>
      <trkpt lat="50.8181660" lon="-1.8548770">
        <name>Neptune Drive</name>
      </trkpt>
      <trkpt lat="50.8181990" lon="-1.8548670">
        <name>Neptune Drive</name>
      </trkpt>
      <trkpt lat="50.8182550" lon="-1.8548705">
      </trkpt>
      <trkpt lat="50.8183110" lon="-1.8548740">
      </trkpt>
      <trkpt lat="50.8183730" lon="-1.8548915">
      </trkpt>
      <trkpt lat="50.8184350" lon="-1.8549090">
      </trkpt>
      <trkpt lat="50.8185005" lon="-1.8549435">
      </trkpt>
      <trkpt lat="50.8185660" lon="-1.8549780">
      </trkpt>
      <trkpt lat="50.8185870" lon="-1.8548495">
      </trkpt>
      <trkpt lat="50.8186080" lon="-1.8547210">
      </trkpt>
      <trkpt lat="50.8186267" lon="-1.8545972">
      </trkpt>
      <trkpt lat="50.8186453" lon="-1.8544733">
      </trkpt>
      <trkpt lat="50.8186640" lon="-1.8543495">
      </trkpt>
      <trkpt lat="50.8186827" lon="-1.8542257">
      </trkpt>
      <trkpt lat="50.8187013" lon="-1.8541018">
      </trkpt>
      <trkpt lat="50.8187200" lon="-1.8539780">
      </trkpt>
      <trkpt lat="50.8187360" lon="-1.8538590">
      </trkpt>
      <trkpt lat="50.8187520" lon="-1.8537400">
      </trkpt>
      <trkpt lat="50.8187610" lon="-1.8536285">
      </trkpt>
      <trkpt lat="50.8187700" lon="-1.8535170">
      </trkpt>
      <trkpt lat="50.8187380" lon="-1.8534350">
      </trkpt>
      <trkpt lat="50.8187050" lon="-1.8534020">
      </trkpt>
      <trkpt lat="50.8186430" lon="-1.8533880">
        <name>Neptune Drive</name>
      </trkpt>
      <trkpt lat="50.8185810" lon="-1.8533740">
        <name>Neptune Drive</name>
      </trkpt>
      <trkpt lat="50.8185055" lon="-1.8533675">
        <name>Neptune Drive</name>
      </trkpt>
      <trkpt lat="50.8184300" lon="-1.8533610">
        <name>Neptune Drive</name>
      </trkpt>
      <trkpt lat="50.8183495" lon="-1.8533645">
        <name>Neptune Drive</name>
      </trkpt>
      <trkpt lat="50.8182690" lon="-1.8533680">
        <name>Neptune Drive</name>
      </trkpt>
      <trkpt lat="50.8181860" lon="-1.8533870">
        <name>Sword Close</name>
      </trkpt>
      <trkpt lat="50.8181390" lon="-1.8534300">
        <name>Sword Close</name>
      </trkpt>
      <trkpt lat="50.8181280" lon="-1.8534730">
        <name>Sword Close</name>
      </trkpt>
      <trkpt lat="50.8181130" lon="-1.8535300">
        <name>Sword Close</name>
      </trkpt>
      <trkpt lat="50.8181183" lon="-1.8536647">
        <name>Sword Close</name>
      </trkpt>
      <trkpt lat="50.8181236" lon="-1.8537994">
        <name>Sword Close</name>
      </trkpt>
      <trkpt lat="50.8181289" lon="-1.8539341">
        <name>Sword Close</name>
      </trkpt>
      <trkpt lat="50.8181342" lon="-1.8540688">
        <name>Sword Close</name>
      </trkpt>
      <trkpt lat="50.8181395" lon="-1.8542035">
        <name>Sword Close</name>
      </trkpt>
      <trkpt lat="50.8181448" lon="-1.8543382">
        <name>Sword Close</name>
      </trkpt>
      <trkpt lat="50.8181501" lon="-1.8544729">
        <name>Sword Close</name>
      </trkpt>
      <trkpt lat="50.8181554" lon="-1.8546076">
        <name>Sword Close</name>
      </trkpt>
      <trkpt lat="50.8181607" lon="-1.8547423">
        <name>Sword Close</name>
      </trkpt>
      <trkpt lat="50.8181660" lon="-1.8548770">
        <name>Sword Close</name>
      </trkpt>
      <trkpt lat="50.8181990" lon="-1.8548670">
        <name>Sword Close</name>
      </trkpt>
      <trkpt lat="50.8182550" lon="-1.8548705">
      </trkpt>
      <trkpt lat="50.8183110" lon="-1.8548740">
      </trkpt>
      <trkpt lat="50.8183730" lon="-1.8548915">
      </trkpt>
      <trkpt lat="50.8184350" lon="-1.8549090">
      </trkpt>
      <trkpt lat="50.8184960" lon="-1.8549410">
      </trkpt>
      <trkpt lat="50.8185570" lon="-1.8549730">
      </trkpt>
      <trkpt lat="50.8185660" lon="-1.8549780">
      </trkpt>
      <trkpt lat="50.8186020" lon="-1.8550080">
      </trkpt>
      <trkpt lat="50.8186660" lon="-1.8550690">
      </trkpt>
      <trkpt lat="50.8186830" lon="-1.8550860">
      </trkpt>
      <trkpt lat="50.8187515" lon="-1.8551340">
        <name>Sword Close</name>
      </trkpt>
      <trkpt lat="50.8188200" lon="-1.8551820">
        <name>Sword Close</name>
      </trkpt>
      <trkpt lat="50.8189000" lon="-1.8552390">
        <name>Sword Close</name>
      </trkpt>
      <trkpt lat="50.8189505" lon="-1.8552750">
        <name>Sword Close</name>
      </trkpt>
      <trkpt lat="50.8190010" lon="-1.8553110">
        <name>Sword Close</name>
      </trkpt>
      <trkpt lat="50.8190205" lon="-1.8552320">
        <name>Sword Close</name>
      </trkpt>
      <trkpt lat="50.8190400" lon="-1.8551530">
        <name>Sword Close</name>
      </trkpt>
      <trkpt lat="50.8190680" lon="-1.8550680">
        <name>Sword Close</name>
      </trkpt>
      <trkpt lat="50.8190960" lon="-1.8549830">
        <name>Sword Close</name>
      </trkpt>
      <trkpt lat="50.8191240" lon="-1.8548980">
        <name>Sword Close</name>
      </trkpt>
      <trkpt lat="50.8191570" lon="-1.8548090">
        <name>Neptune Drive</name>
      </trkpt>
      <trkpt lat="50.8191900" lon="-1.8547200">
        <name>Neptune Drive</name>
      </trkpt>
      <trkpt lat="50.8192230" lon="-1.8546310">
        <name>Neptune Drive</name>
      </trkpt>
      <trkpt lat="50.8192687" lon="-1.8545480">
        <name>Neptune Drive</name>
      </trkpt>
      <trkpt lat="50.8193143" lon="-1.8544650">
        <name>Neptune Drive</name>
      </trkpt>
      <trkpt lat="50.8193600" lon="-1.8543820">
        <name>Neptune Drive</name>
      </trkpt>
    </trkseg>
  </trk>
</gpx>