<?xml version="1.0" encoding="UTF-8"?>
<gpx version="1.1" creator="TurboSanta Route Planner">
  <wpt lat="50.8470500" lon="-1.7926276">
    <name>Stop 2</name>
  </wpt>
  <wpt lat="50.8466171" lon="-1.7939875">
    <name>Stop 3</name>
  </wpt>
  <wpt lat="50.8467086" lon="-1.7943496">
    <name>Stop 4</name>
  </wpt>
  <wpt lat="50.8466629" lon="-1.7960635">
    <name>Stop 5</name>
  </wpt>
  <wpt lat="50.8459668" lon="-1.7989951">
    <name>Stop 6</name>
  </wpt>
  <wpt lat="50.8463258" lon="-1.7909297">
    <name>Stop 8</name>
  </wpt>
  <wpt lat="50.8423079" lon="-1.7856538">
    <name>Stop 12</name>
  </wpt>
  <wpt lat="50.8431486" lon="-1.7698556">
    <name>Stop 14</name>
  </wpt>
  <wpt lat="50.8518499" lon="-1.7721087">
    <name>Stop 15</name>
  </wpt>
  <wpt lat="50.8543052" lon="-1.7687961">
    <name>Stop 16</name>
  </wpt>
  <trk>
    <name>TurboSanta Route (10m density)</name>
    <trkseg>
      <trkpt lat="50.8483030" lon="-1.7927160">
        <name>The Furlong</name>
      </trkpt>
      <trkpt lat="50.8482244" lon="-1.7927114">
        <name>The Furlong</name>
      </trkpt>
      <trkpt lat="50.8481458" lon="-1.7927068">
        <name>The Furlong</name>
      </trkpt>
      <trkpt lat="50.8480672" lon="-1.7927022">
        <name>The Furlong</name>
      </trkpt>
      <trkpt lat="50.8479886" lon="-1.7926976">
        <name>The Furlong</name>
      </trkpt>
      <trkpt lat="50.8479100" lon="-1.7926930">
        <name>The Furlong</name>
      </trkpt>
      <trkpt lat="50.8478250" lon="-1.7926915">
        <name>The Furlong</name>
      </trkpt>
      <trkpt lat="50.8477400" lon="-1.7926900">
        <name>The Furlong</name>
      </trkpt>
      <trkpt lat="50.8476627" lon="-1.7926890">
        <name>The Furlong</name>
      </trkpt>
      <trkpt lat="50.8475855" lon="-1.7926880">
        <name>The Furlong</name>
      </trkpt>
      <trkpt lat="50.8475083" lon="-1.7926870">
        <name>The Furlong</name>
      </trkpt>
      <trkpt lat="50.8474310" lon="-1.7926860">
        <name>The Furlong</name>
      </trkpt>
      <trkpt lat="50.8473970" lon="-1.7926850">
        <name>The Furlong</name>
      </trkpt>
      <trkpt lat="50.8473220" lon="-1.7926840">
        <name>The Furlong</name>
      </trkpt>
      <trkpt lat="50.8472410" lon="-1.7926840">
        <name>The Furlong</name>
      </trkpt>
      <trkpt lat="50.8471850" lon="-1.7926810">
        <name>The Furlong</name>
      </trkpt>
      <trkpt lat="50.8471290" lon="-1.7926780">
        <name>The Furlong</name>
      </trkpt>
      <trkpt lat="50.8471000" lon="-1.7926700">
        <name>The Furlong</name>
      </trkpt>
      <trkpt lat="50.8470480" lon="-1.7926220">
        <name>The Furlong</name>
      </trkpt>
      <trkpt lat="50.8470080" lon="-1.7927040">
        <name>The Furlong</name>
      </trkpt>
      <trkpt lat="50.8469930" lon="-1.7927200">
        <name>The Furlong</name>
      </trkpt>
      <trkpt lat="50.8469320" lon="-1.7927655">
        <name>Meeting House Lane</name>
      </trkpt>
      <trkpt lat="50.8468710" lon="-1.7928110">
        <name>Meeting House Lane</name>
      </trkpt>
      <trkpt lat="50.8468380" lon="-1.7928420">
        <name>Meeting House Lane</name>
      </trkpt>
      <trkpt lat="50.8468150" lon="-1.7928660">
        <name>Meeting House Lane</name>
      </trkpt>
      <trkpt lat="50.8467950" lon="-1.7928920">
        <name>Meeting House Lane</name>
      </trkpt>
      <trkpt lat="50.8467490" lon="-1.7929500">
        <name>Meeting House Lane</name>
      </trkpt>
      <trkpt lat="50.8467150" lon="-1.7930070">
        <name>Meeting House Lane</name>
      </trkpt>
      <trkpt lat="50.8466910" lon="-1.7930730">
        <name>Meeting House Lane</name>
      </trkpt>
      <trkpt lat="50.8466830" lon="-1.7930960">
        <name>Meeting House Lane</name>
      </trkpt>
      <trkpt lat="50.8466610" lon="-1.7931913">
        <name>Meeting House Lane</name>
      </trkpt>
      <trkpt lat="50.8466390" lon="-1.7932867">
        <name>Meeting House Lane</name>
      </trkpt>
      <trkpt lat="50.8466170" lon="-1.7933820">
        <name>Meeting House Lane</name>
      </trkpt>
      <trkpt lat="50.8466080" lon="-1.7934220">
        <name>Meeting House Lane</name>
      </trkpt>
      <trkpt lat="50.8465890" lon="-1.7935020">
        <name>Meeting House Lane</name>
      </trkpt>
      <trkpt lat="50.8465240" lon="-1.7935920">
        <name>Meeting House Lane</name>
      </trkpt>
      <trkpt lat="50.8465450" lon="-1.7936520">
        <name>Meeting House Lane</name>
      </trkpt>
      <trkpt lat="50.8465645" lon="-1.7937465">
        <name>Meeting House Lane</name>
      </trkpt>
      <trkpt lat="50.8465840" lon="-1.7938410">
        <name>Meeting House Lane</name>
      </trkpt>
      <trkpt lat="50.8465990" lon="-1.7939150">
        <name>Meeting House Lane</name>
      </trkpt>
      <trkpt lat="50.8466140" lon="-1.7939890">
        <name>Meeting House Lane</name>
      </trkpt>
      <trkpt lat="50.8466270" lon="-1.7940560">
        <name>Market Place</name>
      </trkpt>
      <trkpt lat="50.8466460" lon="-1.7941415">
        <name>Market Place</name>
      </trkpt>
      <trkpt lat="50.8466650" lon="-1.7942270">
        <name>Market Place</name>
      </trkpt>
      <trkpt lat="50.8467040" lon="-1.7943540">
        <name>Market Place</name>
      </trkpt>
      <trkpt lat="50.8467170" lon="-1.7943950">
        <name>Market Place</name>
      </trkpt>
      <trkpt lat="50.8467260" lon="-1.7944160">
        <name>Market Place</name>
      </trkpt>
      <trkpt lat="50.8467525" lon="-1.7944795">
        <name>Market Place</name>
      </trkpt>
      <trkpt lat="50.8467790" lon="-1.7945430">
        <name>Market Place</name>
      </trkpt>
      <trkpt lat="50.8468130" lon="-1.7946550">
        <name>Market Place</name>
      </trkpt>
      <trkpt lat="50.8468250" lon="-1.7947230">
        <name>Market Place</name>
      </trkpt>
      <trkpt lat="50.8468390" lon="-1.7948395">
        <name>Market Place</name>
      </trkpt>
      <trkpt lat="50.8468530" lon="-1.7949560">
        <name>Market Place</name>
      </trkpt>
      <trkpt lat="50.8468495" lon="-1.7950435">
        <name>Market Place</name>
      </trkpt>
      <trkpt lat="50.8468460" lon="-1.7951310">
        <name>Market Place</name>
      </trkpt>
      <trkpt lat="50.8468330" lon="-1.7952175">
        <name>Market Place</name>
      </trkpt>
      <trkpt lat="50.8468200" lon="-1.7953040">
        <name>Market Place</name>
      </trkpt>
      <trkpt lat="50.8468007" lon="-1.7953960">
        <name>Market Place</name>
      </trkpt>
      <trkpt lat="50.8467813" lon="-1.7954880">
        <name>Market Place</name>
      </trkpt>
      <trkpt lat="50.8467620" lon="-1.7955800">
        <name>Market Place</name>
      </trkpt>
      <trkpt lat="50.8467377" lon="-1.7957013">
        <name>Market Place</name>
      </trkpt>
      <trkpt lat="50.8467133" lon="-1.7958227">
        <name>Market Place</name>
      </trkpt>
      <trkpt lat="50.8466890" lon="-1.7959440">
        <name>Market Place</name>
      </trkpt>
      <trkpt lat="50.8466650" lon="-1.7960640">
        <name>Market Place</name>
      </trkpt>
      <trkpt lat="50.8466420" lon="-1.7961770">
        <name>Market Place</name>
      </trkpt>
      <trkpt lat="50.8466350" lon="-1.7962070">
        <name>Market Place</name>
      </trkpt>
      <trkpt lat="50.8466170" lon="-1.7962890">
        <name>Market Place</name>
      </trkpt>
      <trkpt lat="50.8465960" lon="-1.7963600">
        <name>Market Place</name>
      </trkpt>
      <trkpt lat="50.8465590" lon="-1.7964850">
        <name>Market Place</name>
      </trkpt>
      <trkpt lat="50.8465165" lon="-1.7965915">
        <name>West Street</name>
      </trkpt>
      <trkpt lat="50.8464740" lon="-1.7966980">
        <name>West Street</name>
      </trkpt>
      <trkpt lat="50.8464485" lon="-1.7967705">
        <name>West Street</name>
      </trkpt>
      <trkpt lat="50.8464230" lon="-1.7968430">
        <name>West Street</name>
      </trkpt>
      <trkpt lat="50.8464060" lon="-1.7968860">
        <name>West Street</name>
      </trkpt>
      <trkpt lat="50.8463815" lon="-1.7969510">
        <name>West Street</name>
      </trkpt>
      <trkpt lat="50.8463570" lon="-1.7970160">
        <name>West Street</name>
      </trkpt>
      <trkpt lat="50.8463440" lon="-1.7970570">
        <name>West Street</name>
      </trkpt>
      <trkpt lat="50.8463225" lon="-1.7971275">
        <name>West Street</name>
      </trkpt>
      <trkpt lat="50.8463010" lon="-1.7971980">
        <name>West Street</name>
      </trkpt>
      <trkpt lat="50.8462780" lon="-1.7972570">
        <name>West Street</name>
      </trkpt>
      <trkpt lat="50.8462570" lon="-1.7973535">
        <name>West Street</name>
      </trkpt>
      <trkpt lat="50.8462360" lon="-1.7974500">
        <name>West Street</name>
      </trkpt>
      <trkpt lat="50.8462165" lon="-1.7975645">
        <name>West Street</name>
      </trkpt>
      <trkpt lat="50.8461970" lon="-1.7976790">
        <name>West Street</name>
      </trkpt>
      <trkpt lat="50.8461905" lon="-1.7977865">
        <name>West Street</name>
      </trkpt>
      <trkpt lat="50.8461840" lon="-1.7978940">
        <name>West Street</name>
      </trkpt>
      <trkpt lat="50.8461855" lon="-1.7979905">
        <name>West Street</name>
      </trkpt>
      <trkpt lat="50.8461870" lon="-1.7980870">
        <name>West Street</name>
      </trkpt>
      <trkpt lat="50.8461915" lon="-1.7982030">
        <name>West Street</name>
      </trkpt>
      <trkpt lat="50.8461960" lon="-1.7983190">
        <name>West Street</name>
      </trkpt>
      <trkpt lat="50.8462005" lon="-1.7984350">
        <name>West Street</name>
      </trkpt>
      <trkpt lat="50.8462050" lon="-1.7985510">
        <name>West Street</name>
      </trkpt>
      <trkpt lat="50.8461840" lon="-1.7986755">
        <name>West Street</name>
      </trkpt>
      <trkpt lat="50.8461630" lon="-1.7988000">
        <name>West Street</name>
      </trkpt>
      <trkpt lat="50.8461403" lon="-1.7989027">
        <name>West Street</name>
      </trkpt>
      <trkpt lat="50.8461177" lon="-1.7990053">
        <name>West Street</name>
      </trkpt>
      <trkpt lat="50.8460950" lon="-1.7991080">
        <name>West Street</name>
      </trkpt>
      <trkpt lat="50.8460200" lon="-1.7990375">
        <name>West Street</name>
      </trkpt>
      <trkpt lat="50.8459450" lon="-1.7989670">
        <name>West Street</name>
      </trkpt>
      <trkpt lat="50.8458690" lon="-1.7989090">
        <name>West Street</name>
      </trkpt>
      <trkpt lat="50.8457830" lon="-1.7989500">
        <name>West Street</name>
      </trkpt>
      <trkpt lat="50.8457200" lon="-1.7990450">
        <name>West Street</name>
      </trkpt>
      <trkpt lat="50.8457145" lon="-1.7991230">
        <name>West Street</name>
      </trkpt>
      <trkpt lat="50.8457090" lon="-1.7992010">
        <name>West Street</name>
      </trkpt>
      <trkpt lat="50.8456545" lon="-1.7992710">
        <name>West Street</name>
      </trkpt>
      <trkpt lat="50.8456000" lon="-1.7993410">
        <name>West Street</name>
      </trkpt>
      <trkpt lat="50.8456545" lon="-1.7992710">
        <name>West Street</name>
      </trkpt>
      <trkpt lat="50.8457090" lon="-1.7992010">
        <name>West Street</name>
      </trkpt>
      <trkpt lat="50.8457145" lon="-1.7991230">
        <name>West Street</name>
      </trkpt>
      <trkpt lat="50.8457200" lon="-1.7990450">
        <name>West Street</name>
      </trkpt>
      <trkpt lat="50.8457830" lon="-1.7989500">
        <name>West Street</name>
      </trkpt>
      <trkpt lat="50.8458690" lon="-1.7989090">
        <name>West Street</name>
      </trkpt>
      <trkpt lat="50.8459450" lon="-1.7989670">
        <name>West Street</name>
      </trkpt>
      <trkpt lat="50.8459690" lon="-1.7989900">
        <name>West Street</name>
      </trkpt>
      <trkpt lat="50.8460320" lon="-1.7990490">
        <name>West Street</name>
      </trkpt>
      <trkpt lat="50.8460950" lon="-1.7991080">
        <name>West Street</name>
      </trkpt>
      <trkpt lat="50.8461177" lon="-1.7990053">
        <name>West Street</name>
      </trkpt>
      <trkpt lat="50.8461403" lon="-1.7989027">
        <name>West Street</name>
      </trkpt>
      <trkpt lat="50.8461630" lon="-1.7988000">
        <name>West Street</name>
      </trkpt>
      <trkpt lat="50.8461840" lon="-1.7986755">
        <name>West Street</name>
      </trkpt>
      <trkpt lat="50.8462050" lon="-1.7985510">
        <name>West Street</name>
      </trkpt>
      <trkpt lat="50.8462005" lon="-1.7984350">
        <name>West Street</name>
      </trkpt>
      <trkpt lat="50.8461960" lon="-1.7983190">
        <name>West Street</name>
      </trkpt>
      <trkpt lat="50.8461915" lon="-1.7982030">
        <name>West Street</name>
      </trkpt>
      <trkpt lat="50.8461870" lon="-1.7980870">
        <name>West Street</name>
      </trkpt>
      <trkpt lat="50.8461855" lon="-1.7979905">
        <name>West Street</name>
      </trkpt>
      <trkpt lat="50.8461840" lon="-1.7978940">
        <name>West Street</name>
      </trkpt>
      <trkpt lat="50.8461905" lon="-1.7977865">
        <name>West Street</name>
      </trkpt>
      <trkpt lat="50.8461970" lon="-1.7976790">
        <name>West Street</name>
      </trkpt>
      <trkpt lat="50.8462165" lon="-1.7975645">
        <name>West Street</name>
      </trkpt>
      <trkpt lat="50.8462360" lon="-1.7974500">
        <name>West Street</name>
      </trkpt>
      <trkpt lat="50.8462570" lon="-1.7973535">
        <name>West Street</name>
      </trkpt>
      <trkpt lat="50.8462780" lon="-1.7972570">
        <name>West Street</name>
      </trkpt>
      <trkpt lat="50.8463010" lon="-1.7971980">
      </trkpt>
      <trkpt lat="50.8463225" lon="-1.7971275">
      </trkpt>
      <trkpt lat="50.8463440" lon="-1.7970570">
      </trkpt>
      <trkpt lat="50.8463570" lon="-1.7970160">
      </trkpt>
      <trkpt lat="50.8463815" lon="-1.7969510">
      </trkpt>
      <trkpt lat="50.8464060" lon="-1.7968860">
      </trkpt>
      <trkpt lat="50.8464230" lon="-1.7968430">
      </trkpt>
      <trkpt lat="50.8464485" lon="-1.7967705">
      </trkpt>
      <trkpt lat="50.8464740" lon="-1.7966980">
      </trkpt>
      <trkpt lat="50.8465165" lon="-1.7965915">
      </trkpt>
      <trkpt lat="50.8465590" lon="-1.7964850">
      </trkpt>
      <trkpt lat="50.8465960" lon="-1.7963600">
      </trkpt>
      <trkpt lat="50.8466170" lon="-1.7962890">
      </trkpt>
      <trkpt lat="50.8466350" lon="-1.7962070">
      </trkpt>
      <trkpt lat="50.8466420" lon="-1.7961770">
      </trkpt>
      <trkpt lat="50.8466655" lon="-1.7960605">
      </trkpt>
      <trkpt lat="50.8466890" lon="-1.7959440">
      </trkpt>
      <trkpt lat="50.8467133" lon="-1.7958227">
      </trkpt>
      <trkpt lat="50.8467377" lon="-1.7957013">
      </trkpt>
      <trkpt lat="50.8467620" lon="-1.7955800">
      </trkpt>
      <trkpt lat="50.8467813" lon="-1.7954880">
      </trkpt>
      <trkpt lat="50.8468007" lon="-1.7953960">
      </trkpt>
      <trkpt lat="50.8468200" lon="-1.7953040">
      </trkpt>
      <trkpt lat="50.8468330" lon="-1.7952175">
      </trkpt>
      <trkpt lat="50.8468460" lon="-1.7951310">
      </trkpt>
      <trkpt lat="50.8468495" lon="-1.7950435">
        <name>West Street</name>
      </trkpt>
      <trkpt lat="50.8468530" lon="-1.7949560">
        <name>West Street</name>
      </trkpt>
      <trkpt lat="50.8468390" lon="-1.7948395">
        <name>West Street</name>
      </trkpt>
      <trkpt lat="50.8468250" lon="-1.7947230">
        <name>West Street</name>
      </trkpt>
      <trkpt lat="50.8468130" lon="-1.7946550">
        <name>West Street</name>
      </trkpt>
      <trkpt lat="50.8467790" lon="-1.7945430">
        <name>West Street</name>
      </trkpt>
      <trkpt lat="50.8467525" lon="-1.7944795">
        <name>West Street</name>
      </trkpt>
      <trkpt lat="50.8467260" lon="-1.7944160">
        <name>West Street</name>
      </trkpt>
      <trkpt lat="50.8467170" lon="-1.7943950">
        <name>West Street</name>
      </trkpt>
      <trkpt lat="50.8466910" lon="-1.7943110">
        <name>West Street</name>
      </trkpt>
      <trkpt lat="50.8466650" lon="-1.7942270">
        <name>West Street</name>
      </trkpt>
      <trkpt lat="50.8466460" lon="-1.7941415">
        <name>West Street</name>
      </trkpt>
      <trkpt lat="50.8466270" lon="-1.7940560">
        <name>West Street</name>
      </trkpt>
      <trkpt lat="50.8466055" lon="-1.7939485">
        <name>West Street</name>
      </trkpt>
      <trkpt lat="50.8465840" lon="-1.7938410">
        <name>West Street</name>
      </trkpt>
      <trkpt lat="50.8465645" lon="-1.7937465">
        <name>West Street</name>
      </trkpt>
      <trkpt lat="50.8465450" lon="-1.7936520">
        <name>West Street</name>
      </trkpt>
      <trkpt lat="50.8465240" lon="-1.7935920">
        <name>West Street</name>
      </trkpt>
      <trkpt lat="50.8464890" lon="-1.7934790">
        <name>West Street</name>
      </trkpt>
      <trkpt lat="50.8464510" lon="-1.7933575">
        <name>West Street</name>
      </trkpt>
      <trkpt lat="50.8464130" lon="-1.7932360">
        <name>West Street</name>
      </trkpt>
      <trkpt lat="50.8463787" lon="-1.7931168">
        <name>West Street</name>
      </trkpt>
      <trkpt lat="50.8463445" lon="-1.7929975">
        <name>West Street</name>
      </trkpt>
      <trkpt lat="50.8463103" lon="-1.7928783">
        <name>West Street</name>
      </trkpt>
      <trkpt lat="50.8462760" lon="-1.7927590">
        <name>West Street</name>
      </trkpt>
      <trkpt lat="50.8462485" lon="-1.7926585">
        <name>West Street</name>
      </trkpt>
      <trkpt lat="50.8462210" lon="-1.7925580">
        <name>West Street</name>
      </trkpt>
      <trkpt lat="50.8461935" lon="-1.7924575">
        <name>West Street</name>
      </trkpt>
      <trkpt lat="50.8461660" lon="-1.7923570">
        <name>West Street</name>
      </trkpt>
      <trkpt lat="50.8461550" lon="-1.7923100">
        <name>West Street</name>
      </trkpt>
      <trkpt lat="50.8461307" lon="-1.7922060">
        <name>West Street</name>
      </trkpt>
      <trkpt lat="50.8461063" lon="-1.7921020">
        <name>West Street</name>
      </trkpt>
      <trkpt lat="50.8460820" lon="-1.7919980">
        <name>West Street</name>
      </trkpt>
      <trkpt lat="50.8460640" lon="-1.7918980">
        <name>West Street</name>
      </trkpt>
      <trkpt lat="50.8460460" lon="-1.7917980">
        <name>West Street</name>
      </trkpt>
      <trkpt lat="50.8460250" lon="-1.7916620">
        <name>West Street</name>
      </trkpt>
      <trkpt lat="50.8460090" lon="-1.7915510">
        <name>Market Place</name>
      </trkpt>
      <trkpt lat="50.8460030" lon="-1.7914510">
        <name>Market Place</name>
      </trkpt>
      <trkpt lat="50.8460040" lon="-1.7913860">
        <name>Market Place</name>
      </trkpt>
      <trkpt lat="50.8460120" lon="-1.7912820">
        <name>Market Place</name>
      </trkpt>
      <trkpt lat="50.8460200" lon="-1.7911740">
        <name>Market Place</name>
      </trkpt>
      <trkpt lat="50.8460270" lon="-1.7910860">
        <name>Market Place</name>
      </trkpt>
      <trkpt lat="50.8460500" lon="-1.7910830">
        <name>Market Place</name>
      </trkpt>
      <trkpt lat="50.8460680" lon="-1.7910680">
        <name>Market Place</name>
      </trkpt>
      <trkpt lat="50.8460980" lon="-1.7910400">
        <name>Market Place</name>
      </trkpt>
      <trkpt lat="50.8461230" lon="-1.7910170">
        <name>Market Place</name>
      </trkpt>
      <trkpt lat="50.8461490" lon="-1.7910000">
        <name>Market Place</name>
      </trkpt>
      <trkpt lat="50.8462085" lon="-1.7909730">
        <name>Market Place</name>
      </trkpt>
      <trkpt lat="50.8462680" lon="-1.7909460">
        <name>Market Place</name>
      </trkpt>
      <trkpt lat="50.8463240" lon="-1.7909210">
        <name>Market Place</name>
      </trkpt>
      <trkpt lat="50.8463800" lon="-1.7908970">
        <name>High Street</name>
      </trkpt>
      <trkpt lat="50.8464265" lon="-1.7908750">
        <name>High Street</name>
      </trkpt>
      <trkpt lat="50.8464730" lon="-1.7908530">
        <name>High Street</name>
      </trkpt>
      <trkpt lat="50.8465430" lon="-1.7908170">
        <name>High Street</name>
      </trkpt>
      <trkpt lat="50.8465960" lon="-1.7907690">
        <name>High Street</name>
      </trkpt>
      <trkpt lat="50.8466503" lon="-1.7907243">
        <name>High Street</name>
      </trkpt>
      <trkpt lat="50.8467047" lon="-1.7906797">
        <name>High Street</name>
      </trkpt>
      <trkpt lat="50.8467590" lon="-1.7906350">
        <name>High Street</name>
      </trkpt>
      <trkpt lat="50.8468110" lon="-1.7906150">
        <name>High Street</name>
      </trkpt>
      <trkpt lat="50.8468430" lon="-1.7905830">
        <name>High Street</name>
      </trkpt>
      <trkpt lat="50.8469175" lon="-1.7905055">
        <name>High Street</name>
      </trkpt>
      <trkpt lat="50.8469920" lon="-1.7904280">
        <name>High Street</name>
      </trkpt>
      <trkpt lat="50.8470520" lon="-1.7903570">
        <name>High Street</name>
      </trkpt>
      <trkpt lat="50.8471005" lon="-1.7904035">
        <name>High Street</name>
      </trkpt>
      <trkpt lat="50.8471490" lon="-1.7904500">
        <name>High Street</name>
      </trkpt>
      <trkpt lat="50.8472203" lon="-1.7905070">
        <name>High Street</name>
      </trkpt>
      <trkpt lat="50.8472917" lon="-1.7905640">
        <name>High Street</name>
      </trkpt>
      <trkpt lat="50.8473630" lon="-1.7906210">
        <name>High Street</name>
      </trkpt>
      <trkpt lat="50.8474235" lon="-1.7906580">
        <name>High Street</name>
      </trkpt>
      <trkpt lat="50.8474840" lon="-1.7906950">
        <name>High Street</name>
      </trkpt>
      <trkpt lat="50.8475190" lon="-1.7907140">
        <name>High Street</name>
      </trkpt>
      <trkpt lat="50.8475700" lon="-1.7907770">
        <name>High Street</name>
      </trkpt>
      <trkpt lat="50.8476320" lon="-1.7908310">
        <name>High Street</name>
      </trkpt>
      <trkpt lat="50.8477090" lon="-1.7908920">
        <name>High Street</name>
      </trkpt>
      <trkpt lat="50.8477310" lon="-1.7909100">
        <name>High Street</name>
      </trkpt>
      <trkpt lat="50.8477620" lon="-1.7909380">
        <name>High Street</name>
      </trkpt>
      <trkpt lat="50.8477880" lon="-1.7909700">
        <name>Southampton Road</name>
      </trkpt>
      <trkpt lat="50.8478220" lon="-1.7909970">
        <name>Southampton Road</name>
      </trkpt>
      <trkpt lat="50.8478660" lon="-1.7910130">
        <name>Southampton Road</name>
      </trkpt>
      <trkpt lat="50.8479160" lon="-1.7910060">
        <name>Southampton Road</name>
      </trkpt>
      <trkpt lat="50.8479620" lon="-1.7909750">
        <name>Southampton Road</name>
      </trkpt>
      <trkpt lat="50.8479950" lon="-1.7909360">
        <name>Southampton Road</name>
      </trkpt>
      <trkpt lat="50.8480290" lon="-1.7908850">
        <name>Southampton Road</name>
      </trkpt>
      <trkpt lat="50.8480290" lon="-1.7908360">
        <name>Southampton Road</name>
      </trkpt>
      <trkpt lat="50.8480340" lon="-1.7907760">
        <name>Southampton Road</name>
      </trkpt>
      <trkpt lat="50.8480310" lon="-1.7907100">
        <name>Southampton Road</name>
      </trkpt>
      <trkpt lat="50.8480160" lon="-1.7906490">
        <name>Southampton Road</name>
      </trkpt>
      <trkpt lat="50.8479840" lon="-1.7905790">
        <name>Southampton Road</name>
      </trkpt>
      <trkpt lat="50.8479510" lon="-1.7905390">
        <name>Southampton Road</name>
      </trkpt>
      <trkpt lat="50.8479410" lon="-1.7904820">
        <name>Southampton Road</name>
      </trkpt>
      <trkpt lat="50.8479020" lon="-1.7904180">
        <name>Southampton Road</name>
      </trkpt>
      <trkpt lat="50.8478670" lon="-1.7903600">
        <name>Southampton Road</name>
      </trkpt>
      <trkpt lat="50.8478355" lon="-1.7902995">
        <name>Southampton Road</name>
      </trkpt>
      <trkpt lat="50.8478040" lon="-1.7902390">
        <name>Southampton Road</name>
      </trkpt>
      <trkpt lat="50.8477790" lon="-1.7901670">
        <name>Southampton Road</name>
      </trkpt>
      <trkpt lat="50.8477500" lon="-1.7900470">
        <name>Southampton Road</name>
      </trkpt>
      <trkpt lat="50.8477405" lon="-1.7899555">
        <name>Southampton Road</name>
      </trkpt>
      <trkpt lat="50.8477310" lon="-1.7898640">
        <name>Southampton Road</name>
      </trkpt>
      <trkpt lat="50.8477510" lon="-1.7897350">
        <name>Mansfield Road</name>
      </trkpt>
      <trkpt lat="50.8477725" lon="-1.7896665">
        <name>Mansfield Road</name>
      </trkpt>
      <trkpt lat="50.8477940" lon="-1.7895980">
        <name>Mansfield Road</name>
      </trkpt>
      <trkpt lat="50.8478530" lon="-1.7895010">
        <name>Mansfield Road</name>
      </trkpt>
      <trkpt lat="50.8479200" lon="-1.7894590">
        <name>Mansfield Road</name>
      </trkpt>
      <trkpt lat="50.8479810" lon="-1.7894260">
        <name>Mansfield Road</name>
      </trkpt>
      <trkpt lat="50.8480450" lon="-1.7893960">
        <name>Mansfield Road</name>
      </trkpt>
      <trkpt lat="50.8481075" lon="-1.7893740">
        <name>Mansfield Road</name>
      </trkpt>
      <trkpt lat="50.8481700" lon="-1.7893520">
        <name>Mansfield Road</name>
      </trkpt>
      <trkpt lat="50.8482325" lon="-1.7893335">
        <name>Mansfield Road</name>
      </trkpt>
      <trkpt lat="50.8482950" lon="-1.7893150">
        <name>Mansfield Road</name>
      </trkpt>
      <trkpt lat="50.8483470" lon="-1.7892920">
        <name>Mansfield Road</name>
      </trkpt>
      <trkpt lat="50.8484000" lon="-1.7892590">
        <name>Mansfield Road</name>
      </trkpt>
      <trkpt lat="50.8484550" lon="-1.7892170">
        <name>Mansfield Road</name>
      </trkpt>
      <trkpt lat="50.8484960" lon="-1.7891690">
        <name>Mansfield Road</name>
      </trkpt>
      <trkpt lat="50.8485370" lon="-1.7891210">
        <name>Mansfield Road</name>
      </trkpt>
      <trkpt lat="50.8485510" lon="-1.7891050">
        <name>Mansfield Road</name>
      </trkpt>
      <trkpt lat="50.8486040" lon="-1.7890090">
        <name>Southampton Road</name>
      </trkpt>
      <trkpt lat="50.8486270" lon="-1.7889480">
        <name>Southampton Road</name>
      </trkpt>
      <trkpt lat="50.8486540" lon="-1.7888680">
        <name>Southampton Road</name>
      </trkpt>
      <trkpt lat="50.8486730" lon="-1.7887965">
        <name>Southampton Road</name>
      </trkpt>
      <trkpt lat="50.8486920" lon="-1.7887250">
        <name>Southampton Road</name>
      </trkpt>
      <trkpt lat="50.8487090" lon="-1.7886490">
        <name>Southampton Road</name>
      </trkpt>
      <trkpt lat="50.8487260" lon="-1.7885730">
        <name>Southampton Road</name>
      </trkpt>
      <trkpt lat="50.8487453" lon="-1.7884717">
        <name>Southampton Road</name>
      </trkpt>
      <trkpt lat="50.8487647" lon="-1.7883703">
        <name>Southampton Road</name>
      </trkpt>
      <trkpt lat="50.8487840" lon="-1.7882690">
        <name>Southampton Road</name>
      </trkpt>
      <trkpt lat="50.8488015" lon="-1.7881425">
        <name>Southampton Road</name>
      </trkpt>
      <trkpt lat="50.8488190" lon="-1.7880160">
        <name>Southampton Road</name>
      </trkpt>
      <trkpt lat="50.8488330" lon="-1.7879070">
        <name>Southampton Road</name>
      </trkpt>
      <trkpt lat="50.8488435" lon="-1.7877870">
        <name>Southampton Road</name>
      </trkpt>
      <trkpt lat="50.8488540" lon="-1.7876670">
        <name>Southampton Road</name>
      </trkpt>
      <trkpt lat="50.8488615" lon="-1.7875835">
        <name>Southampton Road</name>
      </trkpt>
      <trkpt lat="50.8488690" lon="-1.7875000">
        <name>Southampton Road</name>
      </trkpt>
      <trkpt lat="50.8488820" lon="-1.7873945">
        <name>Southampton Road</name>
      </trkpt>
      <trkpt lat="50.8488950" lon="-1.7872890">
        <name>Southampton Road</name>
      </trkpt>
      <trkpt lat="50.8489193" lon="-1.7871650">
        <name>Southampton Road</name>
      </trkpt>
      <trkpt lat="50.8489437" lon="-1.7870410">
        <name>Southampton Road</name>
      </trkpt>
      <trkpt lat="50.8489680" lon="-1.7869170">
        <name>Southampton Road</name>
      </trkpt>
      <trkpt lat="50.8490015" lon="-1.7867910">
        <name>Southampton Road</name>
      </trkpt>
      <trkpt lat="50.8490350" lon="-1.7866650">
        <name>Southampton Road</name>
      </trkpt>
      <trkpt lat="50.8490615" lon="-1.7865730">
        <name>Southampton Road</name>
      </trkpt>
      <trkpt lat="50.8490880" lon="-1.7864810">
        <name>Southampton Road</name>
      </trkpt>
      <trkpt lat="50.8491225" lon="-1.7864000">
        <name>Southampton Road</name>
      </trkpt>
      <trkpt lat="50.8491570" lon="-1.7863190">
        <name>Southampton Road</name>
      </trkpt>
      <trkpt lat="50.8491325" lon="-1.7862555">
        <name>Southampton Road</name>
      </trkpt>
      <trkpt lat="50.8491080" lon="-1.7861920">
        <name>Southampton Road</name>
      </trkpt>
      <trkpt lat="50.8491060" lon="-1.7861870">
        <name>Southampton Road</name>
      </trkpt>
      <trkpt lat="50.8490720" lon="-1.7861210">
        <name>Southampton Road</name>
      </trkpt>
      <trkpt lat="50.8490355" lon="-1.7860045">
        <name>Southampton Road</name>
      </trkpt>
      <trkpt lat="50.8489990" lon="-1.7858880">
        <name>Southampton Road</name>
      </trkpt>
      <trkpt lat="50.8489815" lon="-1.7858030">
        <name>Southampton Road</name>
      </trkpt>
      <trkpt lat="50.8489640" lon="-1.7857180">
        <name>Southampton Road</name>
      </trkpt>
      <trkpt lat="50.8489570" lon="-1.7856360">
        <name>Southampton Road</name>
      </trkpt>
      <trkpt lat="50.8489500" lon="-1.7855540">
        <name>Southampton Road</name>
      </trkpt>
      <trkpt lat="50.8489440" lon="-1.7854690">
        <name>Southampton Road</name>
      </trkpt>
      <trkpt lat="50.8489380" lon="-1.7853840">
        <name>Southampton Road</name>
      </trkpt>
      <trkpt lat="50.8489405" lon="-1.7852605">
        <name>Southampton Road</name>
      </trkpt>
      <trkpt lat="50.8489430" lon="-1.7851370">
        <name>Southampton Road</name>
      </trkpt>
      <trkpt lat="50.8489540" lon="-1.7849970">
        <name>Southampton Road</name>
      </trkpt>
      <trkpt lat="50.8489600" lon="-1.7849230">
        <name>Southampton Road</name>
      </trkpt>
      <trkpt lat="50.8489680" lon="-1.7848400">
        <name>Southampton Road</name>
      </trkpt>
      <trkpt lat="50.8489800" lon="-1.7847210">
        <name>Southampton Road</name>
      </trkpt>
      <trkpt lat="50.8489997" lon="-1.7846010">
        <name>Southampton Road</name>
      </trkpt>
      <trkpt lat="50.8490193" lon="-1.7844810">
        <name>Southampton Road</name>
      </trkpt>
      <trkpt lat="50.8490390" lon="-1.7843610">
        <name>Southampton Road</name>
      </trkpt>
      <trkpt lat="50.8490560" lon="-1.7842615">
        <name>Southampton Road</name>
      </trkpt>
      <trkpt lat="50.8490730" lon="-1.7841620">
        <name>Southampton Road</name>
      </trkpt>
      <trkpt lat="50.8490810" lon="-1.7841190">
        <name>Southampton Road</name>
      </trkpt>
      <trkpt lat="50.8490963" lon="-1.7840203">
        <name>Southampton Road</name>
      </trkpt>
      <trkpt lat="50.8491117" lon="-1.7839217">
        <name>Southampton Road</name>
      </trkpt>
      <trkpt lat="50.8491270" lon="-1.7838230">
        <name>Southampton Road</name>
      </trkpt>
      <trkpt lat="50.8491320" lon="-1.7837920">
        <name>Southampton Road</name>
      </trkpt>
      <trkpt lat="50.8491530" lon="-1.7836700">
        <name>Southampton Road</name>
      </trkpt>
      <trkpt lat="50.8491740" lon="-1.7835480">
        <name>Southampton Road</name>
      </trkpt>
      <trkpt lat="50.8491900" lon="-1.7834600">
        <name>Southampton Road</name>
      </trkpt>
      <trkpt lat="50.8492070" lon="-1.7833500">
        <name>Southampton Road</name>
      </trkpt>
      <trkpt lat="50.8492240" lon="-1.7832400">
        <name>Southampton Road</name>
      </trkpt>
      <trkpt lat="50.8492340" lon="-1.7831225">
        <name>Southampton Road</name>
      </trkpt>
      <trkpt lat="50.8492440" lon="-1.7830050">
        <name>Southampton Road</name>
      </trkpt>
      <trkpt lat="50.8492467" lon="-1.7828747">
        <name>Southampton Road</name>
      </trkpt>
      <trkpt lat="50.8492493" lon="-1.7827443">
        <name>Southampton Road</name>
      </trkpt>
      <trkpt lat="50.8492520" lon="-1.7826140">
        <name>Southampton Road</name>
      </trkpt>
      <trkpt lat="50.8492467" lon="-1.7824878">
        <name>Southampton Road</name>
      </trkpt>
      <trkpt lat="50.8492413" lon="-1.7823617">
        <name>Southampton Road</name>
      </trkpt>
      <trkpt lat="50.8492360" lon="-1.7822355">
        <name>Southampton Road</name>
      </trkpt>
      <trkpt lat="50.8492307" lon="-1.7821093">
        <name>Southampton Road</name>
      </trkpt>
      <trkpt lat="50.8492253" lon="-1.7819832">
        <name>Southampton Road</name>
      </trkpt>
      <trkpt lat="50.8492200" lon="-1.7818570">
        <name>Southampton Road</name>
      </trkpt>
      <trkpt lat="50.8492127" lon="-1.7817167">
        <name>Southampton Road</name>
      </trkpt>
      <trkpt lat="50.8492053" lon="-1.7815763">
        <name>Southampton Road</name>
      </trkpt>
      <trkpt lat="50.8491980" lon="-1.7814360">
        <name>Southampton Road</name>
      </trkpt>
      <trkpt lat="50.8491948" lon="-1.7813120">
        <name>Southampton Road</name>
      </trkpt>
      <trkpt lat="50.8491915" lon="-1.7811880">
        <name>Southampton Road</name>
      </trkpt>
      <trkpt lat="50.8491882" lon="-1.7810640">
        <name>Southampton Road</name>
      </trkpt>
      <trkpt lat="50.8491850" lon="-1.7809400">
        <name>Southampton Road</name>
      </trkpt>
      <trkpt lat="50.8490984" lon="-1.7809346">
        <name>Southampton Road</name>
      </trkpt>
      <trkpt lat="50.8490118" lon="-1.7809292">
        <name>Southampton Road</name>
      </trkpt>
      <trkpt lat="50.8489252" lon="-1.7809238">
        <name>Southampton Road</name>
      </trkpt>
      <trkpt lat="50.8488385" lon="-1.7809185">
        <name>Southampton Road</name>
      </trkpt>
      <trkpt lat="50.8487519" lon="-1.7809131">
        <name>Southampton Road</name>
      </trkpt>
      <trkpt lat="50.8486653" lon="-1.7809077">
        <name>Southampton Road</name>
      </trkpt>
      <trkpt lat="50.8485787" lon="-1.7809023">
        <name>Southampton Road</name>
      </trkpt>
      <trkpt lat="50.8484921" lon="-1.7808969">
        <name>Southampton Road</name>
      </trkpt>
      <trkpt lat="50.8484055" lon="-1.7808915">
        <name>Southampton Road</name>
      </trkpt>
      <trkpt lat="50.8483188" lon="-1.7808862">
        <name>Southampton Road</name>
      </trkpt>
      <trkpt lat="50.8482322" lon="-1.7808808">
        <name>Southampton Road</name>
      </trkpt>
      <trkpt lat="50.8481456" lon="-1.7808754">
        <name>Southampton Road</name>
      </trkpt>
      <trkpt lat="50.8480590" lon="-1.7808700">
        <name>Southampton Road</name>
      </trkpt>
      <trkpt lat="50.8479736" lon="-1.7808480">
        <name>Southampton Road</name>
      </trkpt>
      <trkpt lat="50.8478881" lon="-1.7808260">
        <name>Southampton Road</name>
      </trkpt>
      <trkpt lat="50.8478027" lon="-1.7808040">
        <name>Southampton Road</name>
      </trkpt>
      <trkpt lat="50.8477173" lon="-1.7807820">
        <name>Southampton Road</name>
      </trkpt>
      <trkpt lat="50.8476319" lon="-1.7807600">
        <name>Southampton Road</name>
      </trkpt>
      <trkpt lat="50.8475464" lon="-1.7807380">
        <name>Southampton Road</name>
      </trkpt>
      <trkpt lat="50.8474610" lon="-1.7807160">
        <name>Southampton Road</name>
      </trkpt>
      <trkpt lat="50.8473831" lon="-1.7806950">
        <name>Southampton Road</name>
      </trkpt>
      <trkpt lat="50.8473053" lon="-1.7806740">
        <name>Southampton Road</name>
      </trkpt>
      <trkpt lat="50.8472274" lon="-1.7806530">
        <name>Southampton Road</name>
      </trkpt>
      <trkpt lat="50.8471496" lon="-1.7806320">
        <name>Southampton Road</name>
      </trkpt>
      <trkpt lat="50.8470717" lon="-1.7806110">
        <name>Southampton Road</name>
      </trkpt>
      <trkpt lat="50.8469939" lon="-1.7805900">
        <name>Southampton Road</name>
      </trkpt>
      <trkpt lat="50.8469160" lon="-1.7805690">
        <name>Southampton Road</name>
      </trkpt>
      <trkpt lat="50.8468720" lon="-1.7805350">
        <name>Southampton Road</name>
      </trkpt>
      <trkpt lat="50.8468490" lon="-1.7805000">
        <name>Southampton Road</name>
      </trkpt>
      <trkpt lat="50.8468110" lon="-1.7805640">
        <name>Southampton Road</name>
      </trkpt>
      <trkpt lat="50.8467990" lon="-1.7806653">
        <name>Southampton Road</name>
      </trkpt>
      <trkpt lat="50.8467870" lon="-1.7807667">
        <name>Southampton Road</name>
      </trkpt>
      <trkpt lat="50.8467750" lon="-1.7808680">
        <name>Southampton Road</name>
      </trkpt>
      <trkpt lat="50.8467614" lon="-1.7810020">
        <name>Southampton Road</name>
      </trkpt>
      <trkpt lat="50.8467478" lon="-1.7811360">
        <name>Southampton Road</name>
      </trkpt>
      <trkpt lat="50.8467342" lon="-1.7812700">
        <name>Southampton Road</name>
      </trkpt>
      <trkpt lat="50.8467206" lon="-1.7814040">
        <name>Southampton Road</name>
      </trkpt>
      <trkpt lat="50.8467070" lon="-1.7815380">
        <name>Southampton Road</name>
      </trkpt>
      <trkpt lat="50.8466987" lon="-1.7816460">
        <name>Southampton Road</name>
      </trkpt>
      <trkpt lat="50.8466903" lon="-1.7817540">
        <name>Southampton Road</name>
      </trkpt>
      <trkpt lat="50.8466820" lon="-1.7818620">
        <name>Southampton Road</name>
      </trkpt>
      <trkpt lat="50.8466750" lon="-1.7819783">
        <name>Southampton Road</name>
      </trkpt>
      <trkpt lat="50.8466680" lon="-1.7820947">
        <name>Southampton Road</name>
      </trkpt>
      <trkpt lat="50.8466610" lon="-1.7822110">
        <name>Southampton Road</name>
      </trkpt>
      <trkpt lat="50.8466530" lon="-1.7823450">
        <name>Parsonage Barn Lane</name>
      </trkpt>
      <trkpt lat="50.8466458" lon="-1.7824590">
        <name>Parsonage Barn Lane</name>
      </trkpt>
      <trkpt lat="50.8466385" lon="-1.7825730">
        <name>Parsonage Barn Lane</name>
      </trkpt>
      <trkpt lat="50.8466313" lon="-1.7826870">
        <name>Parsonage Barn Lane</name>
      </trkpt>
      <trkpt lat="50.8466240" lon="-1.7828010">
        <name>Parsonage Barn Lane</name>
      </trkpt>
      <trkpt lat="50.8466220" lon="-1.7828420">
        <name>Parsonage Barn Lane</name>
      </trkpt>
      <trkpt lat="50.8466030" lon="-1.7829060">
        <name>Parsonage Barn Lane</name>
      </trkpt>
      <trkpt lat="50.8465810" lon="-1.7829620">
        <name>Parsonage Barn Lane</name>
      </trkpt>
      <trkpt lat="50.8465210" lon="-1.7830230">
        <name>Parsonage Barn Lane</name>
      </trkpt>
      <trkpt lat="50.8464480" lon="-1.7830616">
        <name>Parsonage Barn Lane</name>
      </trkpt>
      <trkpt lat="50.8463750" lon="-1.7831002">
        <name>Parsonage Barn Lane</name>
      </trkpt>
      <trkpt lat="50.8463020" lon="-1.7831388">
        <name>Parsonage Barn Lane</name>
      </trkpt>
      <trkpt lat="50.8462290" lon="-1.7831774">
        <name>Parsonage Barn Lane</name>
      </trkpt>
      <trkpt lat="50.8461560" lon="-1.7832160">
        <name>Parsonage Barn Lane</name>
      </trkpt>
      <trkpt lat="50.8461350" lon="-1.7832270">
        <name>Parsonage Barn Lane</name>
      </trkpt>
      <trkpt lat="50.8460526" lon="-1.7832657">
        <name>Parsonage Barn Lane</name>
      </trkpt>
      <trkpt lat="50.8459701" lon="-1.7833044">
        <name>Parsonage Barn Lane</name>
      </trkpt>
      <trkpt lat="50.8458877" lon="-1.7833431">
        <name>Parsonage Barn Lane</name>
      </trkpt>
      <trkpt lat="50.8458053" lon="-1.7833819">
        <name>Parsonage Barn Lane</name>
      </trkpt>
      <trkpt lat="50.8457229" lon="-1.7834206">
        <name>Parsonage Barn Lane</name>
      </trkpt>
      <trkpt lat="50.8456404" lon="-1.7834593">
        <name>Parsonage Barn Lane</name>
      </trkpt>
      <trkpt lat="50.8455580" lon="-1.7834980">
        <name>Parsonage Barn Lane</name>
      </trkpt>
      <trkpt lat="50.8454810" lon="-1.7835467">
        <name>Parsonage Barn Lane</name>
      </trkpt>
      <trkpt lat="50.8454040" lon="-1.7835955">
        <name>Parsonage Barn Lane</name>
      </trkpt>
      <trkpt lat="50.8453270" lon="-1.7836443">
        <name>Parsonage Barn Lane</name>
      </trkpt>
      <trkpt lat="50.8452500" lon="-1.7836930">
        <name>Parsonage Barn Lane</name>
      </trkpt>
      <trkpt lat="50.8451965" lon="-1.7837320">
        <name>Parsonage Barn Lane</name>
      </trkpt>
      <trkpt lat="50.8451430" lon="-1.7837710">
        <name>Parsonage Barn Lane</name>
      </trkpt>
      <trkpt lat="50.8450810" lon="-1.7838290">
        <name>Parsonage Barn Lane</name>
      </trkpt>
      <trkpt lat="50.8450155" lon="-1.7838980">
        <name>Parsonage Barn Lane</name>
      </trkpt>
      <trkpt lat="50.8449500" lon="-1.7839670">
        <name>Parsonage Barn Lane</name>
      </trkpt>
      <trkpt lat="50.8448900" lon="-1.7840267">
        <name>Parsonage Barn Lane</name>
      </trkpt>
      <trkpt lat="50.8448300" lon="-1.7840863">
        <name>Parsonage Barn Lane</name>
      </trkpt>
      <trkpt lat="50.8447700" lon="-1.7841460">
        <name>Parsonage Barn Lane</name>
      </trkpt>
      <trkpt lat="50.8446955" lon="-1.7842250">
        <name>Parsonage Barn Lane</name>
      </trkpt>
      <trkpt lat="50.8446210" lon="-1.7843040">
        <name>Parsonage Barn Lane</name>
      </trkpt>
      <trkpt lat="50.8446030" lon="-1.7843270">
        <name>Parsonage Barn Lane</name>
      </trkpt>
      <trkpt lat="50.8445430" lon="-1.7844050">
        <name>Parsonage Barn Lane</name>
      </trkpt>
      <trkpt lat="50.8444830" lon="-1.7844830">
        <name>Parsonage Barn Lane</name>
      </trkpt>
      <trkpt lat="50.8444230" lon="-1.7845610">
        <name>Parsonage Barn Lane</name>
      </trkpt>
      <trkpt lat="50.8443760" lon="-1.7846370">
        <name>Parsonage Barn Lane</name>
      </trkpt>
      <trkpt lat="50.8443080" lon="-1.7847255">
        <name>Parsonage Barn Lane</name>
      </trkpt>
      <trkpt lat="50.8442400" lon="-1.7848140">
        <name>Parsonage Barn Lane</name>
      </trkpt>
      <trkpt lat="50.8441840" lon="-1.7848620">
        <name>Parsonage Barn Lane</name>
      </trkpt>
      <trkpt lat="50.8441280" lon="-1.7849100">
        <name>Parsonage Barn Lane</name>
      </trkpt>
      <trkpt lat="50.8440570" lon="-1.7849450">
        <name>Parsonage Barn Lane</name>
      </trkpt>
      <trkpt lat="50.8439710" lon="-1.7849730">
        <name>Parsonage Barn Lane</name>
      </trkpt>
      <trkpt lat="50.8438900" lon="-1.7849620">
        <name>Parsonage Barn Lane</name>
      </trkpt>
      <trkpt lat="50.8438245" lon="-1.7849250">
        <name>Parsonage Barn Lane</name>
      </trkpt>
      <trkpt lat="50.8437590" lon="-1.7848880">
        <name>Parsonage Barn Lane</name>
      </trkpt>
      <trkpt lat="50.8436850" lon="-1.7848378">
        <name>Parsonage Barn Lane</name>
      </trkpt>
      <trkpt lat="50.8436110" lon="-1.7847876">
        <name>Parsonage Barn Lane</name>
      </trkpt>
      <trkpt lat="50.8435370" lon="-1.7847374">
        <name>Parsonage Barn Lane</name>
      </trkpt>
      <trkpt lat="50.8434630" lon="-1.7846872">
        <name>Parsonage Barn Lane</name>
      </trkpt>
      <trkpt lat="50.8433890" lon="-1.7846370">
        <name>Parsonage Barn Lane</name>
      </trkpt>
      <trkpt lat="50.8433310" lon="-1.7845977">
        <name>Parsonage Barn Lane</name>
      </trkpt>
      <trkpt lat="50.8432730" lon="-1.7845583">
        <name>Parsonage Barn Lane</name>
      </trkpt>
      <trkpt lat="50.8432150" lon="-1.7845190">
        <name>Parsonage Barn Lane</name>
      </trkpt>
      <trkpt lat="50.8431910" lon="-1.7846030">
        <name>Parsonage Barn Lane</name>
      </trkpt>
      <trkpt lat="50.8431670" lon="-1.7846870">
        <name>Parsonage Barn Lane</name>
      </trkpt>
      <trkpt lat="50.8431255" lon="-1.7848000">
        <name>Parsonage Barn Lane</name>
      </trkpt>
      <trkpt lat="50.8430840" lon="-1.7849130">
        <name>Parsonage Barn Lane</name>
      </trkpt>
      <trkpt lat="50.8430250" lon="-1.7849650">
        <name>Parsonage Barn Lane</name>
      </trkpt>
      <trkpt lat="50.8429660" lon="-1.7850170">
        <name>Parsonage Barn Lane</name>
      </trkpt>
      <trkpt lat="50.8429055" lon="-1.7850680">
        <name>Manor Road</name>
      </trkpt>
      <trkpt lat="50.8428450" lon="-1.7851190">
        <name>Manor Road</name>
      </trkpt>
      <trkpt lat="50.8427810" lon="-1.7851495">
        <name>Manor Road</name>
      </trkpt>
      <trkpt lat="50.8427170" lon="-1.7851800">
        <name>Manor Road</name>
      </trkpt>
      <trkpt lat="50.8426500" lon="-1.7852195">
        <name>Manor Road</name>
      </trkpt>
      <trkpt lat="50.8425830" lon="-1.7852590">
        <name>Manor Road</name>
      </trkpt>
      <trkpt lat="50.8425230" lon="-1.7853185">
        <name>Manor Road</name>
      </trkpt>
      <trkpt lat="50.8424630" lon="-1.7853780">
        <name>Manor Road</name>
      </trkpt>
      <trkpt lat="50.8424275" lon="-1.7854240">
        <name>Manor Road</name>
      </trkpt>
      <trkpt lat="50.8423920" lon="-1.7854700">
        <name>Manor Road</name>
      </trkpt>
      <trkpt lat="50.8423390" lon="-1.7855750">
        <name>Manor Road</name>
      </trkpt>
      <trkpt lat="50.8423050" lon="-1.7856510">
        <name>Manor Road</name>
      </trkpt>
      <trkpt lat="50.8422910" lon="-1.7856830">
        <name>Manor Road</name>
      </trkpt>
      <trkpt lat="50.8422640" lon="-1.7857990">
        <name>Manor Road</name>
      </trkpt>
      <trkpt lat="50.8421830" lon="-1.7857810">
        <name>Manor Road</name>
      </trkpt>
      <trkpt lat="50.8421170" lon="-1.7857815">
        <name>Kingsfield</name>
      </trkpt>
      <trkpt lat="50.8420510" lon="-1.7857820">
        <name>Kingsfield</name>
      </trkpt>
      <trkpt lat="50.8420443" lon="-1.7856670">
        <name>Kingsfield</name>
      </trkpt>
      <trkpt lat="50.8420377" lon="-1.7855520">
        <name>Kingsfield</name>
      </trkpt>
      <trkpt lat="50.8420310" lon="-1.7854370">
        <name>Kingsfield</name>
      </trkpt>
      <trkpt lat="50.8420265" lon="-1.7853615">
        <name>Kingsfield</name>
      </trkpt>
      <trkpt lat="50.8420220" lon="-1.7852860">
        <name>Kingsfield</name>
      </trkpt>
      <trkpt lat="50.8420213" lon="-1.7851643">
        <name>Kingsfield</name>
      </trkpt>
      <trkpt lat="50.8420205" lon="-1.7850425">
        <name>Kingsfield</name>
      </trkpt>
      <trkpt lat="50.8420197" lon="-1.7849207">
        <name>Kingsfield</name>
      </trkpt>
      <trkpt lat="50.8420190" lon="-1.7847990">
        <name>Kingsfield</name>
      </trkpt>
      <trkpt lat="50.8420213" lon="-1.7846740">
        <name>Kingsfield</name>
      </trkpt>
      <trkpt lat="50.8420237" lon="-1.7845490">
        <name>Kingsfield</name>
      </trkpt>
      <trkpt lat="50.8420260" lon="-1.7844240">
        <name>Kingsfield</name>
      </trkpt>
      <trkpt lat="50.8420260" lon="-1.7843280">
        <name>Kingsfield</name>
      </trkpt>
      <trkpt lat="50.8420260" lon="-1.7842320">
        <name>Kingsfield</name>
      </trkpt>
      <trkpt lat="50.8420200" lon="-1.7840980">
        <name>Kingsfield</name>
      </trkpt>
      <trkpt lat="50.8420140" lon="-1.7839640">
        <name>Kingsfield</name>
      </trkpt>
      <trkpt lat="50.8420110" lon="-1.7839260">
        <name>Kingsfield</name>
      </trkpt>
      <trkpt lat="50.8420015" lon="-1.7837995">
        <name>Kingsfield</name>
      </trkpt>
      <trkpt lat="50.8419920" lon="-1.7836730">
        <name>Kingsfield</name>
      </trkpt>
      <trkpt lat="50.8419800" lon="-1.7835835">
        <name>Kingsfield</name>
      </trkpt>
      <trkpt lat="50.8419680" lon="-1.7834940">
        <name>Kingsfield</name>
      </trkpt>
      <trkpt lat="50.8419540" lon="-1.7834015">
        <name>Kingsfield</name>
      </trkpt>
      <trkpt lat="50.8419400" lon="-1.7833090">
        <name>Kingsfield</name>
      </trkpt>
      <trkpt lat="50.8419155" lon="-1.7831933">
        <name>Kingsfield</name>
      </trkpt>
      <trkpt lat="50.8418910" lon="-1.7830775">
        <name>Kingsfield</name>
      </trkpt>
      <trkpt lat="50.8418665" lon="-1.7829617">
        <name>Kingsfield</name>
      </trkpt>
      <trkpt lat="50.8418420" lon="-1.7828460">
        <name>Kingsfield</name>
      </trkpt>
      <trkpt lat="50.8418265" lon="-1.7827470">
        <name>Kingsfield</name>
      </trkpt>
      <trkpt lat="50.8418110" lon="-1.7826480">
        <name>Kingsfield</name>
      </trkpt>
      <trkpt lat="50.8417995" lon="-1.7825495">
        <name>Kingsfield</name>
      </trkpt>
      <trkpt lat="50.8417880" lon="-1.7824510">
        <name>Kingsfield</name>
      </trkpt>
      <trkpt lat="50.8417790" lon="-1.7823565">
        <name>Kingsfield</name>
      </trkpt>
      <trkpt lat="50.8417700" lon="-1.7822620">
        <name>Kingsfield</name>
      </trkpt>
      <trkpt lat="50.8417655" lon="-1.7821570">
        <name>Kingsfield</name>
      </trkpt>
      <trkpt lat="50.8417610" lon="-1.7820520">
        <name>Kingsfield</name>
      </trkpt>
      <trkpt lat="50.8417600" lon="-1.7819650">
        <name>Kingsfield</name>
      </trkpt>
      <trkpt lat="50.8417590" lon="-1.7818780">
        <name>Kingsfield</name>
      </trkpt>
      <trkpt lat="50.8417645" lon="-1.7817760">
        <name>Kingsfield</name>
      </trkpt>
      <trkpt lat="50.8417700" lon="-1.7816740">
        <name>Kingsfield</name>
      </trkpt>
      <trkpt lat="50.8417820" lon="-1.7815520">
        <name>Kingsfield</name>
      </trkpt>
      <trkpt lat="50.8417940" lon="-1.7814300">
        <name>Kingsfield</name>
      </trkpt>
      <trkpt lat="50.8418060" lon="-1.7813080">
        <name>Kingsfield</name>
      </trkpt>
      <trkpt lat="50.8418233" lon="-1.7811970">
        <name>Kingsfield</name>
      </trkpt>
      <trkpt lat="50.8418407" lon="-1.7810860">
        <name>Kingsfield</name>
      </trkpt>
      <trkpt lat="50.8418580" lon="-1.7809750">
        <name>Kingsfield</name>
      </trkpt>
      <trkpt lat="50.8418760" lon="-1.7809040">
        <name>Kingsfield</name>
      </trkpt>
      <trkpt lat="50.8418940" lon="-1.7808330">
        <name>Kingsfield</name>
      </trkpt>
      <trkpt lat="50.8419130" lon="-1.7807510">
        <name>Kingsfield</name>
      </trkpt>
      <trkpt lat="50.8419320" lon="-1.7806690">
        <name>Kingsfield</name>
      </trkpt>
      <trkpt lat="50.8419565" lon="-1.7805995">
        <name>Kingsfield</name>
      </trkpt>
      <trkpt lat="50.8419810" lon="-1.7805300">
        <name>Kingsfield</name>
      </trkpt>
      <trkpt lat="50.8420260" lon="-1.7804270">
        <name>Kingsfield</name>
      </trkpt>
      <trkpt lat="50.8420625" lon="-1.7803520">
        <name>Kingsfield</name>
      </trkpt>
      <trkpt lat="50.8420990" lon="-1.7802770">
        <name>Kingsfield</name>
      </trkpt>
      <trkpt lat="50.8421620" lon="-1.7801860">
        <name>Kingsfield</name>
      </trkpt>
      <trkpt lat="50.8422250" lon="-1.7801100">
        <name>Kingsfield</name>
      </trkpt>
      <trkpt lat="50.8422860" lon="-1.7800440">
        <name>Kingsfield</name>
      </trkpt>
      <trkpt lat="50.8423510" lon="-1.7799900">
        <name>Kingsfield</name>
      </trkpt>
      <trkpt lat="50.8424295" lon="-1.7799360">
        <name>Kingsfield</name>
      </trkpt>
      <trkpt lat="50.8425080" lon="-1.7798820">
        <name>Kingsfield</name>
      </trkpt>
      <trkpt lat="50.8425795" lon="-1.7798435">
        <name>Kingsfield</name>
      </trkpt>
      <trkpt lat="50.8426510" lon="-1.7798050">
        <name>Kingsfield</name>
      </trkpt>
      <trkpt lat="50.8427230" lon="-1.7797660">
        <name>Kingsfield</name>
      </trkpt>
      <trkpt lat="50.8428080" lon="-1.7797400">
        <name>Hightown Road</name>
      </trkpt>
      <trkpt lat="50.8428930" lon="-1.7797140">
        <name>Hightown Road</name>
      </trkpt>
      <trkpt lat="50.8429430" lon="-1.7797085">
        <name>Hightown Road</name>
      </trkpt>
      <trkpt lat="50.8429930" lon="-1.7797030">
        <name>Hightown Road</name>
      </trkpt>
      <trkpt lat="50.8430380" lon="-1.7797040">
        <name>Hightown Road</name>
      </trkpt>
      <trkpt lat="50.8430830" lon="-1.7797050">
        <name>Hightown Road</name>
      </trkpt>
      <trkpt lat="50.8431395" lon="-1.7797065">
        <name>Hightown Road</name>
      </trkpt>
      <trkpt lat="50.8431960" lon="-1.7797080">
        <name>Hightown Road</name>
      </trkpt>
      <trkpt lat="50.8432520" lon="-1.7797390">
        <name>Hightown Road</name>
      </trkpt>
      <trkpt lat="50.8432510" lon="-1.7797740">
        <name>Hightown Road</name>
      </trkpt>
      <trkpt lat="50.8432570" lon="-1.7798070">
        <name>Hightown Road</name>
      </trkpt>
      <trkpt lat="50.8432650" lon="-1.7798270">
        <name>Hightown Road</name>
      </trkpt>
      <trkpt lat="50.8432820" lon="-1.7798490">
        <name>Hightown Road</name>
      </trkpt>
      <trkpt lat="50.8433030" lon="-1.7798610">
        <name>Hightown Road</name>
      </trkpt>
      <trkpt lat="50.8433160" lon="-1.7798620">
        <name>Hightown Road</name>
      </trkpt>
      <trkpt lat="50.8433370" lon="-1.7798540">
        <name>Hightown Road</name>
      </trkpt>
      <trkpt lat="50.8433560" lon="-1.7798350">
        <name>Hightown Road</name>
      </trkpt>
      <trkpt lat="50.8433640" lon="-1.7798200">
        <name>Hightown Road</name>
      </trkpt>
      <trkpt lat="50.8433730" lon="-1.7797890">
        <name>Hightown Road</name>
      </trkpt>
      <trkpt lat="50.8433750" lon="-1.7797640">
        <name>Hightown Road</name>
      </trkpt>
      <trkpt lat="50.8433720" lon="-1.7797310">
        <name>Hightown Road</name>
      </trkpt>
      <trkpt lat="50.8433610" lon="-1.7797010">
      </trkpt>
      <trkpt lat="50.8433520" lon="-1.7796850">
      </trkpt>
      <trkpt lat="50.8434040" lon="-1.7796410">
        <name>Castleman Way</name>
      </trkpt>
      <trkpt lat="50.8434400" lon="-1.7795810">
        <name>Castleman Way</name>
      </trkpt>
      <trkpt lat="50.8434710" lon="-1.7795260">
        <name>Castleman Way</name>
      </trkpt>
      <trkpt lat="50.8434940" lon="-1.7794560">
        <name>Castleman Way</name>
      </trkpt>
      <trkpt lat="50.8435020" lon="-1.7793830">
        <name>Castleman Way</name>
      </trkpt>
      <trkpt lat="50.8435100" lon="-1.7793120">
        <name>Castleman Way</name>
      </trkpt>
      <trkpt lat="50.8435180" lon="-1.7792245">
        <name>Castleman Way</name>
      </trkpt>
      <trkpt lat="50.8435260" lon="-1.7791370">
        <name>Castleman Way</name>
      </trkpt>
      <trkpt lat="50.8435360" lon="-1.7790170">
        <name>Castleman Way</name>
      </trkpt>
      <trkpt lat="50.8435486" lon="-1.7788812">
        <name>Castleman Way</name>
      </trkpt>
      <trkpt lat="50.8435612" lon="-1.7787454">
        <name>Castleman Way</name>
      </trkpt>
      <trkpt lat="50.8435738" lon="-1.7786096">
        <name>Castleman Way</name>
      </trkpt>
      <trkpt lat="50.8435864" lon="-1.7784738">
        <name>Castleman Way</name>
      </trkpt>
      <trkpt lat="50.8435990" lon="-1.7783380">
        <name>Castleman Way</name>
      </trkpt>
      <trkpt lat="50.8436050" lon="-1.7782800">
        <name>Castleman Way</name>
      </trkpt>
      <trkpt lat="50.8436180" lon="-1.7781517">
        <name>Castleman Way</name>
      </trkpt>
      <trkpt lat="50.8436310" lon="-1.7780233">
        <name>Castleman Way</name>
      </trkpt>
      <trkpt lat="50.8436440" lon="-1.7778950">
        <name>Castleman Way</name>
      </trkpt>
      <trkpt lat="50.8436540" lon="-1.7778060">
        <name>Castleman Way</name>
      </trkpt>
      <trkpt lat="50.8436615" lon="-1.7777165">
        <name>Castleman Way</name>
      </trkpt>
      <trkpt lat="50.8436690" lon="-1.7776270">
        <name>Castleman Way</name>
      </trkpt>
      <trkpt lat="50.8436760" lon="-1.7775400">
        <name>Castleman Way</name>
      </trkpt>
      <trkpt lat="50.8436820" lon="-1.7774690">
        <name>Castleman Way</name>
      </trkpt>
      <trkpt lat="50.8436855" lon="-1.7773880">
        <name>Castleman Way</name>
      </trkpt>
      <trkpt lat="50.8436890" lon="-1.7773070">
        <name>Castleman Way</name>
      </trkpt>
      <trkpt lat="50.8436910" lon="-1.7772490">
        <name>Castleman Way</name>
      </trkpt>
      <trkpt lat="50.8436950" lon="-1.7771505">
        <name>Castleman Way</name>
      </trkpt>
      <trkpt lat="50.8436990" lon="-1.7770520">
        <name>Castleman Way</name>
      </trkpt>
      <trkpt lat="50.8437020" lon="-1.7770030">
        <name>Castleman Way</name>
      </trkpt>
      <trkpt lat="50.8437050" lon="-1.7769310">
        <name>Castleman Way</name>
      </trkpt>
      <trkpt lat="50.8437080" lon="-1.7768590">
        <name>Castleman Way</name>
      </trkpt>
      <trkpt lat="50.8437115" lon="-1.7767630">
        <name>Castleman Way</name>
      </trkpt>
      <trkpt lat="50.8437150" lon="-1.7766670">
        <name>Castleman Way</name>
      </trkpt>
      <trkpt lat="50.8437210" lon="-1.7765560">
        <name>Castleman Way</name>
      </trkpt>
      <trkpt lat="50.8437240" lon="-1.7764450">
        <name>Castleman Way</name>
      </trkpt>
      <trkpt lat="50.8437277" lon="-1.7763135">
        <name>Castleman Way</name>
      </trkpt>
      <trkpt lat="50.8437313" lon="-1.7761820">
        <name>Castleman Way</name>
      </trkpt>
      <trkpt lat="50.8437350" lon="-1.7760505">
        <name>Castleman Way</name>
      </trkpt>
      <trkpt lat="50.8437387" lon="-1.7759190">
        <name>Castleman Way</name>
      </trkpt>
      <trkpt lat="50.8437423" lon="-1.7757875">
        <name>Castleman Way</name>
      </trkpt>
      <trkpt lat="50.8437460" lon="-1.7756560">
        <name>Castleman Way</name>
      </trkpt>
      <trkpt lat="50.8437510" lon="-1.7755320">
        <name>Castleman Way</name>
      </trkpt>
      <trkpt lat="50.8437560" lon="-1.7754080">
        <name>Castleman Way</name>
      </trkpt>
      <trkpt lat="50.8437610" lon="-1.7752840">
        <name>Castleman Way</name>
      </trkpt>
      <trkpt lat="50.8437660" lon="-1.7751600">
        <name>Castleman Way</name>
      </trkpt>
      <trkpt lat="50.8437705" lon="-1.7750320">
        <name>Castleman Way</name>
      </trkpt>
      <trkpt lat="50.8437750" lon="-1.7749040">
        <name>Castleman Way</name>
      </trkpt>
      <trkpt lat="50.8437795" lon="-1.7747760">
        <name>Castleman Way</name>
      </trkpt>
      <trkpt lat="50.8437840" lon="-1.7746480">
        <name>Castleman Way</name>
      </trkpt>
      <trkpt lat="50.8437870" lon="-1.7745695">
        <name>Castleman Way</name>
      </trkpt>
      <trkpt lat="50.8437900" lon="-1.7744910">
        <name>Castleman Way</name>
      </trkpt>
      <trkpt lat="50.8437940" lon="-1.7743960">
        <name>Castleman Way</name>
      </trkpt>
      <trkpt lat="50.8437990" lon="-1.7742680">
        <name>Castleman Way</name>
      </trkpt>
      <trkpt lat="50.8438020" lon="-1.7742020">
        <name>Castleman Way</name>
      </trkpt>
      <trkpt lat="50.8438070" lon="-1.7740630">
        <name>Castleman Way</name>
      </trkpt>
      <trkpt lat="50.8438115" lon="-1.7739570">
        <name>Castleman Way</name>
      </trkpt>
      <trkpt lat="50.8438160" lon="-1.7738510">
        <name>Castleman Way</name>
      </trkpt>
      <trkpt lat="50.8438200" lon="-1.7737535">
        <name>Castleman Way</name>
      </trkpt>
      <trkpt lat="50.8438240" lon="-1.7736560">
        <name>Castleman Way</name>
      </trkpt>
      <trkpt lat="50.8438350" lon="-1.7735510">
        <name>Castleman Way</name>
      </trkpt>
      <trkpt lat="50.8438488" lon="-1.7734233">
        <name>Castleman Way</name>
      </trkpt>
      <trkpt lat="50.8438626" lon="-1.7732956">
        <name>Castleman Way</name>
      </trkpt>
      <trkpt lat="50.8438764" lon="-1.7731679">
        <name>Castleman Way</name>
      </trkpt>
      <trkpt lat="50.8438902" lon="-1.7730402">
        <name>Castleman Way</name>
      </trkpt>
      <trkpt lat="50.8439040" lon="-1.7729125">
        <name>Castleman Way</name>
      </trkpt>
      <trkpt lat="50.8439178" lon="-1.7727848">
        <name>Castleman Way</name>
      </trkpt>
      <trkpt lat="50.8439316" lon="-1.7726571">
        <name>Castleman Way</name>
      </trkpt>
      <trkpt lat="50.8439454" lon="-1.7725294">
        <name>Castleman Way</name>
      </trkpt>
      <trkpt lat="50.8439592" lon="-1.7724017">
        <name>Castleman Way</name>
      </trkpt>
      <trkpt lat="50.8439730" lon="-1.7722740">
        <name>Castleman Way</name>
      </trkpt>
      <trkpt lat="50.8439875" lon="-1.7721405">
        <name>Castleman Way</name>
      </trkpt>
      <trkpt lat="50.8440020" lon="-1.7720070">
        <name>Castleman Way</name>
      </trkpt>
      <trkpt lat="50.8439316" lon="-1.7719810">
        <name>Castleman Way</name>
      </trkpt>
      <trkpt lat="50.8438612" lon="-1.7719550">
        <name>Castleman Way</name>
      </trkpt>
      <trkpt lat="50.8437908" lon="-1.7719290">
        <name>Castleman Way</name>
      </trkpt>
      <trkpt lat="50.8437204" lon="-1.7719030">
        <name>Castleman Way</name>
      </trkpt>
      <trkpt lat="50.8436500" lon="-1.7718770">
        <name>Castleman Way</name>
      </trkpt>
      <trkpt lat="50.8435690" lon="-1.7718380">
        <name>Castleman Way</name>
      </trkpt>
      <trkpt lat="50.8435103" lon="-1.7718007">
        <name>Castleman Way</name>
      </trkpt>
      <trkpt lat="50.8434517" lon="-1.7717633">
        <name>Castleman Way</name>
      </trkpt>
      <trkpt lat="50.8433930" lon="-1.7717260">
        <name>Castleman Way</name>
      </trkpt>
      <trkpt lat="50.8433550" lon="-1.7716705">
        <name>Castleman Way</name>
      </trkpt>
      <trkpt lat="50.8433170" lon="-1.7716150">
        <name>Castleman Way</name>
      </trkpt>
      <trkpt lat="50.8432720" lon="-1.7715090">
        <name>Hightown Road</name>
      </trkpt>
      <trkpt lat="50.8432470" lon="-1.7714315">
        <name>Hightown Road</name>
      </trkpt>
      <trkpt lat="50.8432220" lon="-1.7713540">
        <name>Hightown Road</name>
      </trkpt>
      <trkpt lat="50.8432010" lon="-1.7712555">
        <name>Hightown Road</name>
      </trkpt>
      <trkpt lat="50.8431800" lon="-1.7711570">
        <name>Hightown Road</name>
      </trkpt>
      <trkpt lat="50.8431640" lon="-1.7710485">
        <name>Hightown Road</name>
      </trkpt>
      <trkpt lat="50.8431480" lon="-1.7709400">
        <name>Hightown Road</name>
      </trkpt>
      <trkpt lat="50.8431284" lon="-1.7708062">
        <name>Hightown Road</name>
      </trkpt>
      <trkpt lat="50.8431088" lon="-1.7706724">
        <name>Hightown Road</name>
      </trkpt>
      <trkpt lat="50.8430892" lon="-1.7705386">
        <name>Hightown Road</name>
      </trkpt>
      <trkpt lat="50.8430696" lon="-1.7704048">
        <name>Hightown Road</name>
      </trkpt>
      <trkpt lat="50.8430500" lon="-1.7702710">
        <name>Hightown Road</name>
      </trkpt>
      <trkpt lat="50.8430312" lon="-1.7701680">
        <name>Hightown Road</name>
      </trkpt>
      <trkpt lat="50.8430125" lon="-1.7700650">
        <name>Hightown Road</name>
      </trkpt>
      <trkpt lat="50.8429938" lon="-1.7699620">
        <name>Hightown Road</name>
      </trkpt>
      <trkpt lat="50.8429750" lon="-1.7698590">
        <name>Hightown Road</name>
      </trkpt>
      <trkpt lat="50.8430305" lon="-1.7698415">
        <name>Hightown Road</name>
      </trkpt>
      <trkpt lat="50.8430860" lon="-1.7698240">
        <name>Hightown Road</name>
      </trkpt>
      <trkpt lat="50.8431555" lon="-1.7698585">
        <name>Hightown Road</name>
      </trkpt>
      <trkpt lat="50.8432250" lon="-1.7698930">
        <name>Hightown Road</name>
      </trkpt>
      <trkpt lat="50.8432860" lon="-1.7699690">
        <name>Hightown Road</name>
      </trkpt>
      <trkpt lat="50.8433520" lon="-1.7700210">
        <name>Hightown Road</name>
      </trkpt>
      <trkpt lat="50.8434220" lon="-1.7700130">
        <name>Hightown Road</name>
      </trkpt>
      <trkpt lat="50.8434660" lon="-1.7699170">
        <name>Hightown Road</name>
      </trkpt>
      <trkpt lat="50.8434810" lon="-1.7698265">
        <name>Hightown Road</name>
      </trkpt>
      <trkpt lat="50.8434960" lon="-1.7697360">
        <name>Hightown Road</name>
      </trkpt>
      <trkpt lat="50.8434810" lon="-1.7698265">
        <name>Hightown Road</name>
      </trkpt>
      <trkpt lat="50.8434660" lon="-1.7699170">
        <name>Hightown Road</name>
      </trkpt>
      <trkpt lat="50.8434220" lon="-1.7700130">
        <name>Hightown Road</name>
      </trkpt>
      <trkpt lat="50.8433520" lon="-1.7700210">
        <name>Hightown Road</name>
      </trkpt>
      <trkpt lat="50.8432860" lon="-1.7699690">
        <name>Hightown Road</name>
      </trkpt>
      <trkpt lat="50.8432250" lon="-1.7698930">
        <name>Hightown Road</name>
      </trkpt>
      <trkpt lat="50.8431490" lon="-1.7698550">
        <name>Hightown Road</name>
      </trkpt>
      <trkpt lat="50.8430860" lon="-1.7698240">
        <name>Hightown Road</name>
      </trkpt>
      <trkpt lat="50.8430305" lon="-1.7698415">
        <name>Hightown Road</name>
      </trkpt>
      <trkpt lat="50.8429750" lon="-1.7698590">
        <name>Hightown Road</name>
      </trkpt>
      <trkpt lat="50.8429938" lon="-1.7699620">
        <name>Hightown Road</name>
      </trkpt>
      <trkpt lat="50.8430125" lon="-1.7700650">
        <name>Hightown Road</name>
      </trkpt>
      <trkpt lat="50.8430312" lon="-1.7701680">
        <name>Hightown Road</name>
      </trkpt>
      <trkpt lat="50.8430500" lon="-1.7702710">
        <name>Hightown Road</name>
      </trkpt>
      <trkpt lat="50.8430696" lon="-1.7704048">
        <name>Hightown Road</name>
      </trkpt>
      <trkpt lat="50.8430892" lon="-1.7705386">
        <name>Hightown Road</name>
      </trkpt>
      <trkpt lat="50.8431088" lon="-1.7706724">
        <name>Hightown Road</name>
      </trkpt>
      <trkpt lat="50.8431284" lon="-1.7708062">
        <name>Hightown Road</name>
      </trkpt>
      <trkpt lat="50.8431480" lon="-1.7709400">
        <name>Hightown Road</name>
      </trkpt>
      <trkpt lat="50.8431640" lon="-1.7710485">
        <name>Hightown Road</name>
      </trkpt>
      <trkpt lat="50.8431800" lon="-1.7711570">
        <name>Hightown Road</name>
      </trkpt>
      <trkpt lat="50.8432010" lon="-1.7712555">
        <name>Hightown Road</name>
      </trkpt>
      <trkpt lat="50.8432220" lon="-1.7713540">
        <name>Hightown Road</name>
      </trkpt>
      <trkpt lat="50.8432470" lon="-1.7714315">
        <name>Hightown Road</name>
      </trkpt>
      <trkpt lat="50.8432720" lon="-1.7715090">
        <name>Hightown Road</name>
      </trkpt>
      <trkpt lat="50.8433170" lon="-1.7716150">
        <name>Hightown Road</name>
      </trkpt>
      <trkpt lat="50.8433550" lon="-1.7716705">
        <name>Hightown Road</name>
      </trkpt>
      <trkpt lat="50.8433930" lon="-1.7717260">
        <name>Hightown Road</name>
      </trkpt>
      <trkpt lat="50.8434517" lon="-1.7717633">
        <name>Hightown Road</name>
      </trkpt>
      <trkpt lat="50.8435103" lon="-1.7718007">
        <name>Hightown Road</name>
      </trkpt>
      <trkpt lat="50.8435690" lon="-1.7718380">
        <name>Hightown Road</name>
      </trkpt>
      <trkpt lat="50.8436500" lon="-1.7718770">
        <name>Hightown Road</name>
      </trkpt>
      <trkpt lat="50.8437204" lon="-1.7719030">
        <name>Hightown Road</name>
      </trkpt>
      <trkpt lat="50.8437908" lon="-1.7719290">
        <name>Hightown Road</name>
      </trkpt>
      <trkpt lat="50.8438612" lon="-1.7719550">
        <name>Hightown Road</name>
      </trkpt>
      <trkpt lat="50.8439316" lon="-1.7719810">
        <name>Hightown Road</name>
      </trkpt>
      <trkpt lat="50.8440020" lon="-1.7720070">
        <name>Hightown Road</name>
      </trkpt>
      <trkpt lat="50.8440545" lon="-1.7720180">
        <name>Hightown Road</name>
      </trkpt>
      <trkpt lat="50.8441070" lon="-1.7720290">
        <name>Hightown Road</name>
      </trkpt>
      <trkpt lat="50.8441954" lon="-1.7720228">
        <name>Hightown Road</name>
      </trkpt>
      <trkpt lat="50.8442838" lon="-1.7720166">
        <name>Hightown Road</name>
      </trkpt>
      <trkpt lat="50.8443722" lon="-1.7720104">
        <name>Hightown Road</name>
      </trkpt>
      <trkpt lat="50.8444606" lon="-1.7720042">
        <name>Hightown Road</name>
      </trkpt>
      <trkpt lat="50.8445490" lon="-1.7719980">
        <name>Hightown Road</name>
      </trkpt>
      <trkpt lat="50.8446127" lon="-1.7719957">
        <name>Hightown Road</name>
      </trkpt>
      <trkpt lat="50.8446763" lon="-1.7719933">
        <name>Hightown Road</name>
      </trkpt>
      <trkpt lat="50.8447400" lon="-1.7719910">
        <name>Hightown Road</name>
      </trkpt>
      <trkpt lat="50.8448208" lon="-1.7719880">
        <name>Hightown Road</name>
      </trkpt>
      <trkpt lat="50.8449016" lon="-1.7719850">
        <name>Hightown Road</name>
      </trkpt>
      <trkpt lat="50.8449823" lon="-1.7719820">
        <name>Hightown Road</name>
      </trkpt>
      <trkpt lat="50.8450631" lon="-1.7719790">
        <name>Hightown Road</name>
      </trkpt>
      <trkpt lat="50.8451439" lon="-1.7719760">
        <name>Hightown Road</name>
      </trkpt>
      <trkpt lat="50.8452247" lon="-1.7719730">
        <name>Hightown Road</name>
      </trkpt>
      <trkpt lat="50.8453054" lon="-1.7719700">
        <name>Hightown Road</name>
      </trkpt>
      <trkpt lat="50.8453862" lon="-1.7719670">
        <name>Hightown Road</name>
      </trkpt>
      <trkpt lat="50.8454670" lon="-1.7719640">
        <name>Hightown Road</name>
      </trkpt>
      <trkpt lat="50.8455470" lon="-1.7719740">
        <name>Hightown Road</name>
      </trkpt>
      <trkpt lat="50.8456260" lon="-1.7719930">
        <name>Hightown Road</name>
      </trkpt>
      <trkpt lat="50.8457050" lon="-1.7720200">
        <name>Hightown Road</name>
      </trkpt>
      <trkpt lat="50.8457380" lon="-1.7720350">
        <name>Hightown Road</name>
      </trkpt>
      <trkpt lat="50.8458215" lon="-1.7720745">
        <name>Hightown Road</name>
      </trkpt>
      <trkpt lat="50.8459050" lon="-1.7721140">
        <name>Hightown Road</name>
      </trkpt>
      <trkpt lat="50.8459775" lon="-1.7721485">
        <name>Hightown Road</name>
      </trkpt>
      <trkpt lat="50.8460500" lon="-1.7721830">
        <name>Hightown Road</name>
      </trkpt>
      <trkpt lat="50.8461100" lon="-1.7722080">
        <name>Hightown Road</name>
      </trkpt>
      <trkpt lat="50.8461670" lon="-1.7722210">
        <name>Hightown Road</name>
      </trkpt>
      <trkpt lat="50.8462380" lon="-1.7722290">
        <name>Hightown Road</name>
      </trkpt>
      <trkpt lat="50.8463050" lon="-1.7722330">
        <name>Hightown Road</name>
      </trkpt>
      <trkpt lat="50.8463480" lon="-1.7722340">
        <name>Hightown Road</name>
      </trkpt>
      <trkpt lat="50.8463980" lon="-1.7722320">
        <name>Hightown Road</name>
      </trkpt>
      <trkpt lat="50.8464480" lon="-1.7722300">
        <name>Hightown Road</name>
      </trkpt>
      <trkpt lat="50.8465113" lon="-1.7722250">
        <name>Hightown Road</name>
      </trkpt>
      <trkpt lat="50.8465747" lon="-1.7722200">
        <name>Hightown Road</name>
      </trkpt>
      <trkpt lat="50.8466380" lon="-1.7722150">
        <name>Hightown Road</name>
      </trkpt>
      <trkpt lat="50.8467110" lon="-1.7722030">
        <name>Hightown Road</name>
      </trkpt>
      <trkpt lat="50.8467695" lon="-1.7721925">
        <name>Hightown Road</name>
      </trkpt>
      <trkpt lat="50.8468280" lon="-1.7721820">
        <name>Hightown Road</name>
      </trkpt>
      <trkpt lat="50.8468980" lon="-1.7721700">
        <name>Hightown Road</name>
      </trkpt>
      <trkpt lat="50.8469610" lon="-1.7721580">
        <name>Hightown Road</name>
      </trkpt>
      <trkpt lat="50.8470260" lon="-1.7721460">
        <name>Hightown Road</name>
      </trkpt>
      <trkpt lat="50.8470470" lon="-1.7721410">
        <name>Hightown Road</name>
      </trkpt>
      <trkpt lat="50.8471240" lon="-1.7721240">
        <name>Hightown Road</name>
      </trkpt>
      <trkpt lat="50.8471890" lon="-1.7721080">
        <name>Hightown Road</name>
      </trkpt>
      <trkpt lat="50.8472540" lon="-1.7720920">
        <name>Hightown Road</name>
      </trkpt>
      <trkpt lat="50.8473185" lon="-1.7720755">
        <name>Hightown Road</name>
      </trkpt>
      <trkpt lat="50.8473830" lon="-1.7720590">
        <name>Hightown Road</name>
      </trkpt>
      <trkpt lat="50.8474715" lon="-1.7720365">
        <name>Hightown Road</name>
      </trkpt>
      <trkpt lat="50.8475600" lon="-1.7720140">
        <name>Hightown Road</name>
      </trkpt>
      <trkpt lat="50.8476480" lon="-1.7719920">
        <name>Hightown Road</name>
      </trkpt>
      <trkpt lat="50.8477100" lon="-1.7719767">
        <name>Hightown Road</name>
      </trkpt>
      <trkpt lat="50.8477720" lon="-1.7719613">
        <name>Hightown Road</name>
      </trkpt>
      <trkpt lat="50.8478340" lon="-1.7719460">
        <name>Hightown Road</name>
      </trkpt>
      <trkpt lat="50.8479195" lon="-1.7719213">
        <name>Hightown Road</name>
      </trkpt>
      <trkpt lat="50.8480050" lon="-1.7718965">
        <name>Hightown Road</name>
      </trkpt>
      <trkpt lat="50.8480905" lon="-1.7718717">
        <name>Hightown Road</name>
      </trkpt>
      <trkpt lat="50.8481760" lon="-1.7718470">
        <name>Hightown Road</name>
      </trkpt>
      <trkpt lat="50.8482580" lon="-1.7718140">
        <name>Hightown Road</name>
      </trkpt>
      <trkpt lat="50.8483187" lon="-1.7717857">
        <name>Hightown Road</name>
      </trkpt>
      <trkpt lat="50.8483793" lon="-1.7717573">
        <name>Hightown Road</name>
      </trkpt>
      <trkpt lat="50.8484400" lon="-1.7717290">
        <name>Hightown Road</name>
      </trkpt>
      <trkpt lat="50.8484920" lon="-1.7717070">
      </trkpt>
      <trkpt lat="50.8485350" lon="-1.7716700">
      </trkpt>
      <trkpt lat="50.8485910" lon="-1.7715820">
      </trkpt>
      <trkpt lat="50.8486280" lon="-1.7714700">
      </trkpt>
      <trkpt lat="50.8486188" lon="-1.7713302">
      </trkpt>
      <trkpt lat="50.8486096" lon="-1.7711904">
      </trkpt>
      <trkpt lat="50.8486004" lon="-1.7710506">
      </trkpt>
      <trkpt lat="50.8485911" lon="-1.7709109">
      </trkpt>
      <trkpt lat="50.8485819" lon="-1.7707711">
      </trkpt>
      <trkpt lat="50.8485727" lon="-1.7706313">
      </trkpt>
      <trkpt lat="50.8485635" lon="-1.7704915">
      </trkpt>
      <trkpt lat="50.8485543" lon="-1.7703517">
      </trkpt>
      <trkpt lat="50.8485451" lon="-1.7702119">
      </trkpt>
      <trkpt lat="50.8485359" lon="-1.7700721">
      </trkpt>
      <trkpt lat="50.8485266" lon="-1.7699324">
      </trkpt>
      <trkpt lat="50.8485174" lon="-1.7697926">
      </trkpt>
      <trkpt lat="50.8485082" lon="-1.7696528">
      </trkpt>
      <trkpt lat="50.8484990" lon="-1.7695130">
      </trkpt>
      <trkpt lat="50.8484977" lon="-1.7693817">
      </trkpt>
      <trkpt lat="50.8484963" lon="-1.7692503">
      </trkpt>
      <trkpt lat="50.8484950" lon="-1.7691190">
      </trkpt>
      <trkpt lat="50.8485210" lon="-1.7689940">
      </trkpt>
      <trkpt lat="50.8485470" lon="-1.7688690">
      </trkpt>
      <trkpt lat="50.8486100" lon="-1.7688765">
      </trkpt>
      <trkpt lat="50.8486730" lon="-1.7688840">
      </trkpt>
      <trkpt lat="50.8487549" lon="-1.7688983">
      </trkpt>
      <trkpt lat="50.8488367" lon="-1.7689126">
      </trkpt>
      <trkpt lat="50.8489186" lon="-1.7689269">
      </trkpt>
      <trkpt lat="50.8490004" lon="-1.7689411">
      </trkpt>
      <trkpt lat="50.8490823" lon="-1.7689554">
      </trkpt>
      <trkpt lat="50.8491641" lon="-1.7689697">
      </trkpt>
      <trkpt lat="50.8492460" lon="-1.7689840">
      </trkpt>
      <trkpt lat="50.8493277" lon="-1.7689967">
      </trkpt>
      <trkpt lat="50.8494093" lon="-1.7690093">
      </trkpt>
      <trkpt lat="50.8494910" lon="-1.7690220">
      </trkpt>
      <trkpt lat="50.8495653" lon="-1.7690333">
      </trkpt>
      <trkpt lat="50.8496397" lon="-1.7690447">
      </trkpt>
      <trkpt lat="50.8497140" lon="-1.7690560">
      </trkpt>
      <trkpt lat="50.8497853" lon="-1.7690727">
      </trkpt>
      <trkpt lat="50.8498567" lon="-1.7690893">
      </trkpt>
      <trkpt lat="50.8499280" lon="-1.7691060">
      </trkpt>
      <trkpt lat="50.8500085" lon="-1.7691325">
      </trkpt>
      <trkpt lat="50.8500890" lon="-1.7691590">
      </trkpt>
      <trkpt lat="50.8501610" lon="-1.7691950">
      </trkpt>
      <trkpt lat="50.8502330" lon="-1.7692310">
      </trkpt>
      <trkpt lat="50.8502785" lon="-1.7692565">
      </trkpt>
      <trkpt lat="50.8503240" lon="-1.7692820">
      </trkpt>
      <trkpt lat="50.8503760" lon="-1.7693195">
      </trkpt>
      <trkpt lat="50.8504280" lon="-1.7693570">
      </trkpt>
      <trkpt lat="50.8504918" lon="-1.7694145">
      </trkpt>
      <trkpt lat="50.8505555" lon="-1.7694720">
      </trkpt>
      <trkpt lat="50.8506192" lon="-1.7695295">
      </trkpt>
      <trkpt lat="50.8506830" lon="-1.7695870">
      </trkpt>
      <trkpt lat="50.8507437" lon="-1.7696653">
      </trkpt>
      <trkpt lat="50.8508045" lon="-1.7697435">
      </trkpt>
      <trkpt lat="50.8508652" lon="-1.7698217">
      </trkpt>
      <trkpt lat="50.8509260" lon="-1.7699000">
      </trkpt>
      <trkpt lat="50.8509938" lon="-1.7699867">
      </trkpt>
      <trkpt lat="50.8510615" lon="-1.7700735">
      </trkpt>
      <trkpt lat="50.8511292" lon="-1.7701602">
      </trkpt>
      <trkpt lat="50.8511970" lon="-1.7702470">
      </trkpt>
      <trkpt lat="50.8512647" lon="-1.7703338">
      </trkpt>
      <trkpt lat="50.8513325" lon="-1.7704205">
      </trkpt>
      <trkpt lat="50.8514002" lon="-1.7705073">
      </trkpt>
      <trkpt lat="50.8514680" lon="-1.7705940">
      </trkpt>
      <trkpt lat="50.8515090" lon="-1.7706915">
        <name>Hightown Road</name>
      </trkpt>
      <trkpt lat="50.8515500" lon="-1.7707890">
        <name>Hightown Road</name>
      </trkpt>
      <trkpt lat="50.8515630" lon="-1.7708500">
        <name>Hightown Road</name>
      </trkpt>
      <trkpt lat="50.8515725" lon="-1.7709380">
        <name>Hightown Road</name>
      </trkpt>
      <trkpt lat="50.8515820" lon="-1.7710260">
        <name>Hightown Road</name>
      </trkpt>
      <trkpt lat="50.8515862" lon="-1.7711355">
        <name>Hightown Road</name>
      </trkpt>
      <trkpt lat="50.8515905" lon="-1.7712450">
        <name>Hightown Road</name>
      </trkpt>
      <trkpt lat="50.8515948" lon="-1.7713545">
        <name>Hightown Road</name>
      </trkpt>
      <trkpt lat="50.8515990" lon="-1.7714640">
        <name>Hightown Road</name>
      </trkpt>
      <trkpt lat="50.8516080" lon="-1.7715760">
        <name>Hightown Road</name>
      </trkpt>
      <trkpt lat="50.8516180" lon="-1.7717040">
        <name>Hightown Road</name>
      </trkpt>
      <trkpt lat="50.8516225" lon="-1.7718135">
        <name>Hightown Road</name>
      </trkpt>
      <trkpt lat="50.8516270" lon="-1.7719230">
        <name>Hightown Road</name>
      </trkpt>
      <trkpt lat="50.8516327" lon="-1.7720540">
        <name>Hightown Road</name>
      </trkpt>
      <trkpt lat="50.8516383" lon="-1.7721850">
        <name>Hightown Road</name>
      </trkpt>
      <trkpt lat="50.8516440" lon="-1.7723160">
        <name>Hightown Road</name>
      </trkpt>
      <trkpt lat="50.8517085" lon="-1.7723045">
        <name>Hightown Road</name>
      </trkpt>
      <trkpt lat="50.8517730" lon="-1.7722930">
        <name>Hightown Road</name>
      </trkpt>
      <trkpt lat="50.8518240" lon="-1.7722695">
        <name>Hightown Road</name>
      </trkpt>
      <trkpt lat="50.8518750" lon="-1.7722460">
        <name>Hightown Road</name>
      </trkpt>
      <trkpt lat="50.8518940" lon="-1.7722370">
        <name>Hightown Road</name>
      </trkpt>
      <trkpt lat="50.8519390" lon="-1.7721845">
        <name>Eastfield Lane</name>
      </trkpt>
      <trkpt lat="50.8519840" lon="-1.7721320">
        <name>Eastfield Lane</name>
      </trkpt>
      <trkpt lat="50.8520210" lon="-1.7720890">
        <name>Eastfield Lane</name>
      </trkpt>
      <trkpt lat="50.8520830" lon="-1.7720120">
        <name>Eastfield Lane</name>
      </trkpt>
      <trkpt lat="50.8521450" lon="-1.7719350">
        <name>Eastfield Lane</name>
      </trkpt>
      <trkpt lat="50.8522070" lon="-1.7718580">
        <name>Eastfield Lane</name>
      </trkpt>
      <trkpt lat="50.8522690" lon="-1.7717810">
        <name>Eastfield Lane</name>
      </trkpt>
      <trkpt lat="50.8523183" lon="-1.7717147">
        <name>Eastfield Lane</name>
      </trkpt>
      <trkpt lat="50.8523677" lon="-1.7716483">
        <name>Eastfield Lane</name>
      </trkpt>
      <trkpt lat="50.8524170" lon="-1.7715820">
        <name>Eastfield Lane</name>
      </trkpt>
      <trkpt lat="50.8524633" lon="-1.7714957">
        <name>Eastfield Lane</name>
      </trkpt>
      <trkpt lat="50.8525097" lon="-1.7714093">
        <name>Eastfield Lane</name>
      </trkpt>
      <trkpt lat="50.8525560" lon="-1.7713230">
        <name>Eastfield Lane</name>
      </trkpt>
      <trkpt lat="50.8526080" lon="-1.7712185">
        <name>Eastfield Lane</name>
      </trkpt>
      <trkpt lat="50.8526600" lon="-1.7711140">
        <name>Eastfield Lane</name>
      </trkpt>
      <trkpt lat="50.8527120" lon="-1.7710095">
        <name>Eastfield Lane</name>
      </trkpt>
      <trkpt lat="50.8527640" lon="-1.7709050">
        <name>Eastfield Lane</name>
      </trkpt>
      <trkpt lat="50.8528160" lon="-1.7708005">
        <name>Eastfield Lane</name>
      </trkpt>
      <trkpt lat="50.8528680" lon="-1.7706960">
        <name>Eastfield Lane</name>
      </trkpt>
      <trkpt lat="50.8529175" lon="-1.7706300">
        <name>Eastfield Lane</name>
      </trkpt>
      <trkpt lat="50.8529670" lon="-1.7705640">
        <name>Eastfield Lane</name>
      </trkpt>
      <trkpt lat="50.8530265" lon="-1.7705005">
        <name>Eastfield Lane</name>
      </trkpt>
      <trkpt lat="50.8530860" lon="-1.7704370">
        <name>Eastfield Lane</name>
      </trkpt>
      <trkpt lat="50.8531525" lon="-1.7703845">
        <name>Eastfield Lane</name>
      </trkpt>
      <trkpt lat="50.8532190" lon="-1.7703320">
        <name>Eastfield Lane</name>
      </trkpt>
      <trkpt lat="50.8532885" lon="-1.7702830">
        <name>Eastfield Lane</name>
      </trkpt>
      <trkpt lat="50.8533580" lon="-1.7702340">
        <name>Eastfield Lane</name>
      </trkpt>
      <trkpt lat="50.8534290" lon="-1.7701895">
        <name>Eastfield Lane</name>
      </trkpt>
      <trkpt lat="50.8535000" lon="-1.7701450">
        <name>Eastfield Lane</name>
      </trkpt>
      <trkpt lat="50.8535695" lon="-1.7701195">
        <name>Eastfield Lane</name>
      </trkpt>
      <trkpt lat="50.8536390" lon="-1.7700940">
        <name>Eastfield Lane</name>
      </trkpt>
      <trkpt lat="50.8537110" lon="-1.7700600">
        <name>Eastfield Lane</name>
      </trkpt>
      <trkpt lat="50.8537830" lon="-1.7700260">
        <name>Eastfield Lane</name>
      </trkpt>
      <trkpt lat="50.8538420" lon="-1.7700140">
        <name>Eastfield Lane</name>
      </trkpt>
      <trkpt lat="50.8539010" lon="-1.7700020">
        <name>Eastfield Lane</name>
      </trkpt>
      <trkpt lat="50.8538930" lon="-1.7698700">
        <name>Eastfield Lane</name>
      </trkpt>
      <trkpt lat="50.8539020" lon="-1.7697615">
        <name>Eastfield Lane</name>
      </trkpt>
      <trkpt lat="50.8539110" lon="-1.7696530">
        <name>Eastfield Lane</name>
      </trkpt>
      <trkpt lat="50.8539577" lon="-1.7695747">
        <name>Eastfield Lane</name>
      </trkpt>
      <trkpt lat="50.8540043" lon="-1.7694963">
        <name>Eastfield Lane</name>
      </trkpt>
      <trkpt lat="50.8540510" lon="-1.7694180">
        <name>Eastfield Lane</name>
      </trkpt>
      <trkpt lat="50.8541076" lon="-1.7693402">
        <name>Eastfield Lane</name>
      </trkpt>
      <trkpt lat="50.8541642" lon="-1.7692624">
        <name>Eastfield Lane</name>
      </trkpt>
      <trkpt lat="50.8542208" lon="-1.7691846">
        <name>Eastfield Lane</name>
      </trkpt>
      <trkpt lat="50.8542774" lon="-1.7691068">
        <name>Eastfield Lane</name>
      </trkpt>
      <trkpt lat="50.8543340" lon="-1.7690290">
        <name>Eastfield Lane</name>
      </trkpt>
      <trkpt lat="50.8543440" lon="-1.7690080">
        <name>Eastfield Lane</name>
      </trkpt>
      <trkpt lat="50.8542995" lon="-1.7689595">
        <name>Eastfield Lane</name>
      </trkpt>
      <trkpt lat="50.8542550" lon="-1.7689110">
        <name>Eastfield Lane</name>
      </trkpt>
    </trkseg>
  </trk>
</gpx>