<?xml version="1.0" encoding="UTF-8"?>
<gpx version="1.1" creator="TurboSanta Route Planner">
  <trk>
    <name>TurboSanta Route (10m density)</name>
    <trkseg>
      <trkpt lat="50.8317310" lon="-1.8422050">
        <name>Braeside Road</name>
      </trkpt>
      <trkpt lat="50.8316485" lon="-1.8421655">
        <name>Braeside Road</name>
      </trkpt>
      <trkpt lat="50.8315660" lon="-1.8421260">
        <name>Braeside Road</name>
      </trkpt>
      <trkpt lat="50.8315240" lon="-1.8421060">
        <name>Braeside Road</name>
      </trkpt>
      <trkpt lat="50.8314550" lon="-1.8420735">
        <name>Braeside Road</name>
      </trkpt>
      <trkpt lat="50.8313860" lon="-1.8420410">
        <name>Braeside Road</name>
      </trkpt>
      <trkpt lat="50.8313640" lon="-1.8421255">
        <name>Braeside Road</name>
      </trkpt>
      <trkpt lat="50.8313420" lon="-1.8422100">
        <name>Braeside Road</name>
      </trkpt>
      <trkpt lat="50.8313093" lon="-1.8423347">
        <name>Braeside Road</name>
      </trkpt>
      <trkpt lat="50.8312766" lon="-1.8424594">
        <name>Braeside Road</name>
      </trkpt>
      <trkpt lat="50.8312439" lon="-1.8425841">
        <name>Braeside Road</name>
      </trkpt>
      <trkpt lat="50.8312111" lon="-1.8427089">
        <name>Braeside Road</name>
      </trkpt>
      <trkpt lat="50.8311784" lon="-1.8428336">
        <name>Braeside Road</name>
      </trkpt>
      <trkpt lat="50.8311457" lon="-1.8429583">
        <name>Braeside Road</name>
      </trkpt>
      <trkpt lat="50.8311130" lon="-1.8430830">
        <name>Braeside Road</name>
      </trkpt>
      <trkpt lat="50.8310578" lon="-1.8431924">
        <name>Braeside Road</name>
      </trkpt>
      <trkpt lat="50.8310026" lon="-1.8433018">
        <name>Braeside Road</name>
      </trkpt>
      <trkpt lat="50.8309474" lon="-1.8434112">
        <name>Braeside Road</name>
      </trkpt>
      <trkpt lat="50.8308922" lon="-1.8435206">
        <name>Braeside Road</name>
      </trkpt>
      <trkpt lat="50.8308370" lon="-1.8436300">
        <name>Braeside Road</name>
      </trkpt>
      <trkpt lat="50.8307818" lon="-1.8437394">
        <name>Braeside Road</name>
      </trkpt>
      <trkpt lat="50.8307266" lon="-1.8438488">
        <name>Braeside Road</name>
      </trkpt>
      <trkpt lat="50.8306714" lon="-1.8439582">
        <name>Braeside Road</name>
      </trkpt>
      <trkpt lat="50.8306162" lon="-1.8440676">
        <name>Braeside Road</name>
      </trkpt>
      <trkpt lat="50.8305610" lon="-1.8441770">
        <name>Braeside Road</name>
      </trkpt>
      <trkpt lat="50.8305058" lon="-1.8442864">
        <name>Braeside Road</name>
      </trkpt>
      <trkpt lat="50.8304506" lon="-1.8443958">
        <name>Braeside Road</name>
      </trkpt>
      <trkpt lat="50.8303954" lon="-1.8445052">
        <name>Braeside Road</name>
      </trkpt>
      <trkpt lat="50.8303402" lon="-1.8446146">
        <name>Braeside Road</name>
      </trkpt>
      <trkpt lat="50.8302850" lon="-1.8447240">
        <name>Braeside Road</name>
      </trkpt>
      <trkpt lat="50.8302340" lon="-1.8448250">
        <name>Oaks Drive</name>
      </trkpt>
      <trkpt lat="50.8301830" lon="-1.8449260">
        <name>Oaks Drive</name>
      </trkpt>
      <trkpt lat="50.8301320" lon="-1.8450270">
        <name>Oaks Drive</name>
      </trkpt>
      <trkpt lat="50.8300810" lon="-1.8451280">
        <name>Oaks Drive</name>
      </trkpt>
      <trkpt lat="50.8300300" lon="-1.8452290">
        <name>Oaks Drive</name>
      </trkpt>
      <trkpt lat="50.8299790" lon="-1.8453300">
        <name>Oaks Drive</name>
      </trkpt>
      <trkpt lat="50.8299470" lon="-1.8454488">
        <name>Oaks Drive</name>
      </trkpt>
      <trkpt lat="50.8299150" lon="-1.8455676">
        <name>Oaks Drive</name>
      </trkpt>
      <trkpt lat="50.8298830" lon="-1.8456864">
        <name>Oaks Drive</name>
      </trkpt>
      <trkpt lat="50.8298510" lon="-1.8458052">
        <name>Oaks Drive</name>
      </trkpt>
      <trkpt lat="50.8298190" lon="-1.8459240">
        <name>Oaks Drive</name>
      </trkpt>
      <trkpt lat="50.8298202" lon="-1.8460547">
        <name>Oaks Drive</name>
      </trkpt>
      <trkpt lat="50.8298215" lon="-1.8461855">
        <name>Oaks Drive</name>
      </trkpt>
      <trkpt lat="50.8298227" lon="-1.8463162">
        <name>Oaks Drive</name>
      </trkpt>
      <trkpt lat="50.8298240" lon="-1.8464470">
        <name>Oaks Drive</name>
      </trkpt>
      <trkpt lat="50.8298252" lon="-1.8465778">
        <name>Oaks Drive</name>
      </trkpt>
      <trkpt lat="50.8298265" lon="-1.8467085">
        <name>Oaks Drive</name>
      </trkpt>
      <trkpt lat="50.8298277" lon="-1.8468392">
        <name>Oaks Drive</name>
      </trkpt>
      <trkpt lat="50.8298290" lon="-1.8469700">
        <name>Oaks Drive</name>
      </trkpt>
      <trkpt lat="50.8298290" lon="-1.8470924">
        <name>Oaks Drive</name>
      </trkpt>
      <trkpt lat="50.8298290" lon="-1.8472149">
        <name>Oaks Drive</name>
      </trkpt>
      <trkpt lat="50.8298290" lon="-1.8473373">
        <name>Oaks Drive</name>
      </trkpt>
      <trkpt lat="50.8298290" lon="-1.8474597">
        <name>Oaks Drive</name>
      </trkpt>
      <trkpt lat="50.8298290" lon="-1.8475821">
        <name>Oaks Drive</name>
      </trkpt>
      <trkpt lat="50.8298290" lon="-1.8477046">
        <name>Oaks Drive</name>
      </trkpt>
      <trkpt lat="50.8298290" lon="-1.8478270">
        <name>Oaks Drive</name>
      </trkpt>
      <trkpt lat="50.8298290" lon="-1.8479582">
        <name>Oaks Drive</name>
      </trkpt>
      <trkpt lat="50.8298290" lon="-1.8480894">
        <name>Oaks Drive</name>
      </trkpt>
      <trkpt lat="50.8298290" lon="-1.8482206">
        <name>Oaks Drive</name>
      </trkpt>
      <trkpt lat="50.8298290" lon="-1.8483518">
        <name>Oaks Drive</name>
      </trkpt>
      <trkpt lat="50.8298290" lon="-1.8484830">
        <name>Oaks Drive</name>
      </trkpt>
      <trkpt lat="50.8298070" lon="-1.8485720">
        <name>Oaks Drive</name>
      </trkpt>
      <trkpt lat="50.8297850" lon="-1.8486610">
        <name>Oaks Drive</name>
      </trkpt>
      <trkpt lat="50.8297630" lon="-1.8487500">
        <name>Oaks Drive</name>
      </trkpt>
      <trkpt lat="50.8296975" lon="-1.8488465">
        <name>Oaks Drive</name>
      </trkpt>
      <trkpt lat="50.8296320" lon="-1.8489430">
        <name>Oaks Drive</name>
      </trkpt>
      <trkpt lat="50.8295507" lon="-1.8489677">
        <name>Oaks Drive</name>
      </trkpt>
      <trkpt lat="50.8294693" lon="-1.8489923">
        <name>Oaks Drive</name>
      </trkpt>
      <trkpt lat="50.8293880" lon="-1.8490170">
        <name>Oaks Drive</name>
      </trkpt>
      <trkpt lat="50.8293163" lon="-1.8489973">
        <name>Oaks Drive</name>
      </trkpt>
      <trkpt lat="50.8292447" lon="-1.8489777">
        <name>Oaks Drive</name>
      </trkpt>
      <trkpt lat="50.8291730" lon="-1.8489580">
        <name>Oaks Drive</name>
      </trkpt>
      <trkpt lat="50.8290863" lon="-1.8489457">
        <name>Oaks Drive</name>
      </trkpt>
      <trkpt lat="50.8289997" lon="-1.8489333">
        <name>Oaks Drive</name>
      </trkpt>
      <trkpt lat="50.8289130" lon="-1.8489210">
        <name>Oaks Drive</name>
      </trkpt>
      <trkpt lat="50.8288263" lon="-1.8489087">
        <name>Oaks Drive</name>
      </trkpt>
      <trkpt lat="50.8287397" lon="-1.8488963">
        <name>Oaks Drive</name>
      </trkpt>
      <trkpt lat="50.8286530" lon="-1.8488840">
        <name>Oaks Drive</name>
      </trkpt>
      <trkpt lat="50.8285663" lon="-1.8488717">
        <name>Oaks Drive</name>
      </trkpt>
      <trkpt lat="50.8284797" lon="-1.8488593">
        <name>Oaks Drive</name>
      </trkpt>
      <trkpt lat="50.8283930" lon="-1.8488470">
        <name>Oaks Drive</name>
      </trkpt>
      <trkpt lat="50.8283063" lon="-1.8488347">
        <name>Oaks Drive</name>
      </trkpt>
      <trkpt lat="50.8282197" lon="-1.8488223">
        <name>Oaks Drive</name>
      </trkpt>
      <trkpt lat="50.8281330" lon="-1.8488100">
        <name>Oaks Drive</name>
      </trkpt>
      <trkpt lat="50.8280463" lon="-1.8487977">
        <name>Oaks Drive</name>
      </trkpt>
      <trkpt lat="50.8279597" lon="-1.8487853">
        <name>Oaks Drive</name>
      </trkpt>
      <trkpt lat="50.8278730" lon="-1.8487730">
        <name>Oaks Drive</name>
      </trkpt>
      <trkpt lat="50.8278175" lon="-1.8487655">
        <name>Oaks Drive</name>
      </trkpt>
      <trkpt lat="50.8277620" lon="-1.8487580">
        <name>Oaks Drive</name>
      </trkpt>
      <trkpt lat="50.8276800" lon="-1.8487340">
        <name>Oaks Drive</name>
      </trkpt>
      <trkpt lat="50.8275980" lon="-1.8487100">
        <name>Oaks Drive</name>
      </trkpt>
      <trkpt lat="50.8275222" lon="-1.8486878">
        <name>Oaks Drive</name>
      </trkpt>
      <trkpt lat="50.8274463" lon="-1.8486657">
        <name>Oaks Drive</name>
      </trkpt>
      <trkpt lat="50.8273705" lon="-1.8486435">
        <name>Oaks Drive</name>
      </trkpt>
      <trkpt lat="50.8272947" lon="-1.8486213">
        <name>Oaks Drive</name>
      </trkpt>
      <trkpt lat="50.8272188" lon="-1.8485992">
        <name>Oaks Drive</name>
      </trkpt>
      <trkpt lat="50.8271430" lon="-1.8485770">
        <name>Oaks Drive</name>
      </trkpt>
      <trkpt lat="50.8270605" lon="-1.8485530">
        <name>Oaks Drive</name>
      </trkpt>
      <trkpt lat="50.8269780" lon="-1.8485290">
        <name>Oaks Drive</name>
      </trkpt>
      <trkpt lat="50.8269300" lon="-1.8484985">
        <name>Oaks Drive</name>
      </trkpt>
      <trkpt lat="50.8268820" lon="-1.8484680">
        <name>Oaks Drive</name>
      </trkpt>
      <trkpt lat="50.8268055" lon="-1.8483955">
        <name>Oaks Drive</name>
      </trkpt>
      <trkpt lat="50.8267290" lon="-1.8483230">
        <name>Oaks Drive</name>
      </trkpt>
      <trkpt lat="50.8266730" lon="-1.8482270">
        <name>Oaks Drive</name>
      </trkpt>
      <trkpt lat="50.8266360" lon="-1.8481420">
        <name>Oaks Drive</name>
      </trkpt>
      <trkpt lat="50.8266050" lon="-1.8480340">
        <name>Oaks Drive</name>
      </trkpt>
      <trkpt lat="50.8265790" lon="-1.8479140">
        <name>Oaks Drive</name>
      </trkpt>
      <trkpt lat="50.8265630" lon="-1.8478210">
        <name>Oaks Drive</name>
      </trkpt>
      <trkpt lat="50.8265560" lon="-1.8477820">
        <name>Oaks Drive</name>
      </trkpt>
      <trkpt lat="50.8265520" lon="-1.8476970">
        <name>Oaks Drive</name>
      </trkpt>
      <trkpt lat="50.8265480" lon="-1.8476120">
        <name>Oaks Drive</name>
      </trkpt>
      <trkpt lat="50.8265483" lon="-1.8474812">
        <name>Oaks Drive</name>
      </trkpt>
      <trkpt lat="50.8265485" lon="-1.8473505">
        <name>Oaks Drive</name>
      </trkpt>
      <trkpt lat="50.8265488" lon="-1.8472198">
        <name>Oaks Drive</name>
      </trkpt>
      <trkpt lat="50.8265490" lon="-1.8470890">
        <name>Oaks Drive</name>
      </trkpt>
      <trkpt lat="50.8265490" lon="-1.8470140">
        <name>Oaks Drive</name>
      </trkpt>
      <trkpt lat="50.8265485" lon="-1.8469040">
        <name>Oaks Drive</name>
      </trkpt>
      <trkpt lat="50.8265480" lon="-1.8467940">
        <name>Oaks Drive</name>
      </trkpt>
      <trkpt lat="50.8265473" lon="-1.8466853">
        <name>Oaks Drive</name>
      </trkpt>
      <trkpt lat="50.8265465" lon="-1.8465765">
        <name>Oaks Drive</name>
      </trkpt>
      <trkpt lat="50.8265458" lon="-1.8464677">
        <name>Oaks Drive</name>
      </trkpt>
      <trkpt lat="50.8265450" lon="-1.8463590">
        <name>Oaks Drive</name>
      </trkpt>
      <trkpt lat="50.8265428" lon="-1.8462366">
        <name>Oaks Drive</name>
      </trkpt>
      <trkpt lat="50.8265406" lon="-1.8461142">
        <name>Oaks Drive</name>
      </trkpt>
      <trkpt lat="50.8265384" lon="-1.8459918">
        <name>Oaks Drive</name>
      </trkpt>
      <trkpt lat="50.8265362" lon="-1.8458694">
        <name>Oaks Drive</name>
      </trkpt>
      <trkpt lat="50.8265340" lon="-1.8457470">
        <name>Oaks Drive</name>
      </trkpt>
      <trkpt lat="50.8265323" lon="-1.8456510">
        <name>Oaks Drive</name>
      </trkpt>
      <trkpt lat="50.8265307" lon="-1.8455550">
        <name>Oaks Drive</name>
      </trkpt>
      <trkpt lat="50.8265290" lon="-1.8454590">
        <name>Oaks Drive</name>
      </trkpt>
      <trkpt lat="50.8265270" lon="-1.8453790">
        <name>Oaks Drive</name>
      </trkpt>
      <trkpt lat="50.8265250" lon="-1.8452990">
        <name>Oaks Drive</name>
      </trkpt>
      <trkpt lat="50.8265070" lon="-1.8451760">
        <name>Oaks Drive</name>
      </trkpt>
      <trkpt lat="50.8265550" lon="-1.8451330">
        <name>Oaks Drive</name>
      </trkpt>
      <trkpt lat="50.8266020" lon="-1.8450670">
        <name>Oaks Drive</name>
      </trkpt>
      <trkpt lat="50.8266540" lon="-1.8449863">
        <name>Oaks Drive</name>
      </trkpt>
      <trkpt lat="50.8267060" lon="-1.8449055">
        <name>Oaks Drive</name>
      </trkpt>
      <trkpt lat="50.8267580" lon="-1.8448247">
        <name>Oaks Drive</name>
      </trkpt>
      <trkpt lat="50.8268100" lon="-1.8447440">
        <name>Oaks Drive</name>
      </trkpt>
      <trkpt lat="50.8268692" lon="-1.8446520">
        <name>Oaks Drive</name>
      </trkpt>
      <trkpt lat="50.8269283" lon="-1.8445600">
        <name>Oaks Drive</name>
      </trkpt>
      <trkpt lat="50.8269875" lon="-1.8444680">
        <name>Oaks Drive</name>
      </trkpt>
      <trkpt lat="50.8270467" lon="-1.8443760">
        <name>Oaks Drive</name>
      </trkpt>
      <trkpt lat="50.8271058" lon="-1.8442840">
        <name>Oaks Drive</name>
      </trkpt>
      <trkpt lat="50.8271650" lon="-1.8441920">
        <name>Oaks Drive</name>
      </trkpt>
      <trkpt lat="50.8272310" lon="-1.8440960">
        <name>Oaks Drive</name>
      </trkpt>
      <trkpt lat="50.8273040" lon="-1.8441270">
        <name>Oaks Drive</name>
      </trkpt>
      <trkpt lat="50.8273770" lon="-1.8441580">
        <name>Oaks Drive</name>
      </trkpt>
      <trkpt lat="50.8274500" lon="-1.8441890">
        <name>Oaks Drive</name>
      </trkpt>
      <trkpt lat="50.8275103" lon="-1.8442147">
        <name>Oaks Drive</name>
      </trkpt>
      <trkpt lat="50.8275707" lon="-1.8442403">
        <name>Oaks Drive</name>
      </trkpt>
      <trkpt lat="50.8276310" lon="-1.8442660">
        <name>Oaks Drive</name>
      </trkpt>
      <trkpt lat="50.8276770" lon="-1.8442835">
        <name>Oaks Drive</name>
      </trkpt>
      <trkpt lat="50.8277230" lon="-1.8443010">
        <name>Oaks Drive</name>
      </trkpt>
      <trkpt lat="50.8277380" lon="-1.8442240">
        <name>Oaks Drive</name>
      </trkpt>
      <trkpt lat="50.8277586" lon="-1.8441006">
        <name>Oaks Drive</name>
      </trkpt>
      <trkpt lat="50.8277792" lon="-1.8439772">
        <name>Oaks Drive</name>
      </trkpt>
      <trkpt lat="50.8277998" lon="-1.8438538">
        <name>Oaks Drive</name>
      </trkpt>
      <trkpt lat="50.8278204" lon="-1.8437304">
        <name>Oaks Drive</name>
      </trkpt>
      <trkpt lat="50.8278410" lon="-1.8436070">
        <name>Oaks Drive</name>
      </trkpt>
      <trkpt lat="50.8278638" lon="-1.8434694">
        <name>Oaks Drive</name>
      </trkpt>
      <trkpt lat="50.8278866" lon="-1.8433318">
        <name>Oaks Drive</name>
      </trkpt>
      <trkpt lat="50.8279094" lon="-1.8431942">
        <name>Oaks Drive</name>
      </trkpt>
      <trkpt lat="50.8279322" lon="-1.8430566">
        <name>Oaks Drive</name>
      </trkpt>
      <trkpt lat="50.8279550" lon="-1.8429190">
        <name>Oaks Drive</name>
      </trkpt>
      <trkpt lat="50.8280110" lon="-1.8428190">
        <name>Oaks Drive</name>
      </trkpt>
      <trkpt lat="50.8280670" lon="-1.8427190">
        <name>Oaks Drive</name>
      </trkpt>
      <trkpt lat="50.8281280" lon="-1.8426670">
        <name>Oaks Drive</name>
      </trkpt>
      <trkpt lat="50.8281890" lon="-1.8426150">
        <name>Oaks Drive</name>
      </trkpt>
      <trkpt lat="50.8282735" lon="-1.8426300">
        <name>Oaks Drive</name>
      </trkpt>
      <trkpt lat="50.8283580" lon="-1.8426450">
        <name>Oaks Drive</name>
      </trkpt>
      <trkpt lat="50.8283920" lon="-1.8426630">
        <name>Oaks Drive</name>
      </trkpt>
      <trkpt lat="50.8284757" lon="-1.8427061">
        <name>Oaks Drive</name>
      </trkpt>
      <trkpt lat="50.8285595" lon="-1.8427492">
        <name>Oaks Drive</name>
      </trkpt>
      <trkpt lat="50.8286432" lon="-1.8427923">
        <name>Oaks Drive</name>
      </trkpt>
      <trkpt lat="50.8287269" lon="-1.8428354">
        <name>Oaks Drive</name>
      </trkpt>
      <trkpt lat="50.8288106" lon="-1.8428785">
        <name>Oaks Drive</name>
      </trkpt>
      <trkpt lat="50.8288944" lon="-1.8429215">
        <name>Oaks Drive</name>
      </trkpt>
      <trkpt lat="50.8289781" lon="-1.8429646">
        <name>Oaks Drive</name>
      </trkpt>
      <trkpt lat="50.8290618" lon="-1.8430077">
        <name>Oaks Drive</name>
      </trkpt>
      <trkpt lat="50.8291455" lon="-1.8430508">
        <name>Oaks Drive</name>
      </trkpt>
      <trkpt lat="50.8292293" lon="-1.8430939">
        <name>Oaks Drive</name>
      </trkpt>
      <trkpt lat="50.8293130" lon="-1.8431370">
        <name>Oaks Drive</name>
      </trkpt>
      <trkpt lat="50.8293510" lon="-1.8431570">
        <name>Oaks Drive</name>
      </trkpt>
      <trkpt lat="50.8294190" lon="-1.8431995">
        <name>Oaks Drive</name>
      </trkpt>
      <trkpt lat="50.8294870" lon="-1.8432420">
        <name>Oaks Drive</name>
      </trkpt>
      <trkpt lat="50.8295550" lon="-1.8432845">
        <name>Oaks Drive</name>
      </trkpt>
      <trkpt lat="50.8296230" lon="-1.8433270">
        <name>Oaks Drive</name>
      </trkpt>
      <trkpt lat="50.8296605" lon="-1.8432085">
        <name>Oaks Drive</name>
      </trkpt>
      <trkpt lat="50.8296980" lon="-1.8430900">
        <name>Oaks Drive</name>
      </trkpt>
      <trkpt lat="50.8297470" lon="-1.8430195">
        <name>Oaks Drive</name>
      </trkpt>
      <trkpt lat="50.8297960" lon="-1.8429490">
        <name>Oaks Drive</name>
      </trkpt>
      <trkpt lat="50.8298443" lon="-1.8428645">
        <name>Oaks Drive</name>
      </trkpt>
      <trkpt lat="50.8298925" lon="-1.8427800">
        <name>Oaks Drive</name>
      </trkpt>
      <trkpt lat="50.8299407" lon="-1.8426955">
        <name>Oaks Drive</name>
      </trkpt>
      <trkpt lat="50.8299890" lon="-1.8426110">
        <name>Oaks Drive</name>
      </trkpt>
      <trkpt lat="50.8300210" lon="-1.8425560">
        <name>Oaks Drive</name>
      </trkpt>
      <trkpt lat="50.8300757" lon="-1.8424743">
        <name>Oaks Drive</name>
      </trkpt>
      <trkpt lat="50.8301303" lon="-1.8423927">
        <name>Oaks Drive</name>
      </trkpt>
      <trkpt lat="50.8301850" lon="-1.8423110">
        <name>Oaks Drive</name>
      </trkpt>
      <trkpt lat="50.8302460" lon="-1.8422293">
      </trkpt>
      <trkpt lat="50.8303070" lon="-1.8421477">
      </trkpt>
      <trkpt lat="50.8303680" lon="-1.8420660">
      </trkpt>
      <trkpt lat="50.8304007" lon="-1.8419797">
      </trkpt>
      <trkpt lat="50.8304333" lon="-1.8418933">
      </trkpt>
      <trkpt lat="50.8304660" lon="-1.8418070">
      </trkpt>
      <trkpt lat="50.8304825" lon="-1.8417210">
      </trkpt>
      <trkpt lat="50.8304990" lon="-1.8416350">
      </trkpt>
      <trkpt lat="50.8304252" lon="-1.8416012">
      </trkpt>
      <trkpt lat="50.8303513" lon="-1.8415673">
      </trkpt>
      <trkpt lat="50.8302775" lon="-1.8415335">
      </trkpt>
      <trkpt lat="50.8302037" lon="-1.8414997">
      </trkpt>
      <trkpt lat="50.8301298" lon="-1.8414658">
      </trkpt>
      <trkpt lat="50.8300560" lon="-1.8414320">
      </trkpt>
      <trkpt lat="50.8299814" lon="-1.8413979">
      </trkpt>
      <trkpt lat="50.8299069" lon="-1.8413637">
      </trkpt>
      <trkpt lat="50.8298323" lon="-1.8413296">
      </trkpt>
      <trkpt lat="50.8297577" lon="-1.8412954">
      </trkpt>
      <trkpt lat="50.8296831" lon="-1.8412613">
      </trkpt>
      <trkpt lat="50.8296086" lon="-1.8412271">
      </trkpt>
      <trkpt lat="50.8295340" lon="-1.8411930">
      </trkpt>
      <trkpt lat="50.8295800" lon="-1.8411075">
      </trkpt>
      <trkpt lat="50.8296260" lon="-1.8410220">
      </trkpt>
      <trkpt lat="50.8296817" lon="-1.8409187">
      </trkpt>
      <trkpt lat="50.8297373" lon="-1.8408153">
      </trkpt>
      <trkpt lat="50.8297930" lon="-1.8407120">
      </trkpt>
      <trkpt lat="50.8298487" lon="-1.8406087">
      </trkpt>
      <trkpt lat="50.8299043" lon="-1.8405053">
      </trkpt>
      <trkpt lat="50.8299600" lon="-1.8404020">
      </trkpt>
      <trkpt lat="50.8300157" lon="-1.8402987">
      </trkpt>
      <trkpt lat="50.8300713" lon="-1.8401953">
      </trkpt>
      <trkpt lat="50.8301270" lon="-1.8400920">
      </trkpt>
      <trkpt lat="50.8301673" lon="-1.8400045">
      </trkpt>
      <trkpt lat="50.8302075" lon="-1.8399170">
      </trkpt>
      <trkpt lat="50.8302477" lon="-1.8398295">
      </trkpt>
      <trkpt lat="50.8302880" lon="-1.8397420">
      </trkpt>
      <trkpt lat="50.8303432" lon="-1.8396328">
        <name>Cedar Avenue</name>
      </trkpt>
      <trkpt lat="50.8303984" lon="-1.8395236">
        <name>Cedar Avenue</name>
      </trkpt>
      <trkpt lat="50.8304536" lon="-1.8394144">
        <name>Cedar Avenue</name>
      </trkpt>
      <trkpt lat="50.8305088" lon="-1.8393052">
        <name>Cedar Avenue</name>
      </trkpt>
      <trkpt lat="50.8305640" lon="-1.8391960">
        <name>Cedar Avenue</name>
      </trkpt>
      <trkpt lat="50.8306136" lon="-1.8390981">
        <name>Cedar Avenue</name>
      </trkpt>
      <trkpt lat="50.8306631" lon="-1.8390003">
        <name>Cedar Avenue</name>
      </trkpt>
      <trkpt lat="50.8307127" lon="-1.8389024">
        <name>Cedar Avenue</name>
      </trkpt>
      <trkpt lat="50.8307623" lon="-1.8388046">
        <name>Cedar Avenue</name>
      </trkpt>
      <trkpt lat="50.8308119" lon="-1.8387067">
        <name>Cedar Avenue</name>
      </trkpt>
      <trkpt lat="50.8308614" lon="-1.8386089">
        <name>Cedar Avenue</name>
      </trkpt>
      <trkpt lat="50.8309110" lon="-1.8385110">
        <name>Cedar Avenue</name>
      </trkpt>
      <trkpt lat="50.8309586" lon="-1.8384166">
        <name>Cedar Avenue</name>
      </trkpt>
      <trkpt lat="50.8310062" lon="-1.8383222">
        <name>Cedar Avenue</name>
      </trkpt>
      <trkpt lat="50.8310538" lon="-1.8382278">
        <name>Cedar Avenue</name>
      </trkpt>
      <trkpt lat="50.8311014" lon="-1.8381334">
        <name>Cedar Avenue</name>
      </trkpt>
      <trkpt lat="50.8311490" lon="-1.8380390">
        <name>Cedar Avenue</name>
      </trkpt>
      <trkpt lat="50.8311675" lon="-1.8379665">
        <name>Cedar Avenue</name>
      </trkpt>
      <trkpt lat="50.8311860" lon="-1.8378940">
        <name>Cedar Avenue</name>
      </trkpt>
      <trkpt lat="50.8312430" lon="-1.8378790">
        <name>Cedar Avenue</name>
      </trkpt>
      <trkpt lat="50.8313000" lon="-1.8378640">
        <name>Cedar Avenue</name>
      </trkpt>
      <trkpt lat="50.8313828" lon="-1.8378497">
        <name>Cedar Avenue</name>
      </trkpt>
      <trkpt lat="50.8314657" lon="-1.8378353">
        <name>Cedar Avenue</name>
      </trkpt>
      <trkpt lat="50.8315485" lon="-1.8378210">
        <name>Cedar Avenue</name>
      </trkpt>
      <trkpt lat="50.8316313" lon="-1.8378067">
        <name>Cedar Avenue</name>
      </trkpt>
      <trkpt lat="50.8317142" lon="-1.8377923">
        <name>Cedar Avenue</name>
      </trkpt>
      <trkpt lat="50.8317970" lon="-1.8377780">
        <name>Cedar Avenue</name>
      </trkpt>
      <trkpt lat="50.8318815" lon="-1.8377634">
        <name>Cedar Avenue</name>
      </trkpt>
      <trkpt lat="50.8319660" lon="-1.8377487">
        <name>Cedar Avenue</name>
      </trkpt>
      <trkpt lat="50.8320505" lon="-1.8377341">
        <name>Cedar Avenue</name>
      </trkpt>
      <trkpt lat="50.8321350" lon="-1.8377195">
        <name>Cedar Avenue</name>
      </trkpt>
      <trkpt lat="50.8322195" lon="-1.8377049">
        <name>Cedar Avenue</name>
      </trkpt>
      <trkpt lat="50.8323040" lon="-1.8376903">
        <name>Cedar Avenue</name>
      </trkpt>
      <trkpt lat="50.8323885" lon="-1.8376756">
        <name>Cedar Avenue</name>
      </trkpt>
      <trkpt lat="50.8324730" lon="-1.8376610">
        <name>Cedar Avenue</name>
      </trkpt>
      <trkpt lat="50.8325370" lon="-1.8376500">
        <name>Malmesbury Road</name>
      </trkpt>
      <trkpt lat="50.8326160" lon="-1.8376507">
        <name>Malmesbury Road</name>
      </trkpt>
      <trkpt lat="50.8326950" lon="-1.8376515">
        <name>Malmesbury Road</name>
      </trkpt>
      <trkpt lat="50.8327740" lon="-1.8376523">
        <name>Malmesbury Road</name>
      </trkpt>
      <trkpt lat="50.8328530" lon="-1.8376530">
        <name>Malmesbury Road</name>
      </trkpt>
      <trkpt lat="50.8328810" lon="-1.8376530">
        <name>Malmesbury Road</name>
      </trkpt>
      <trkpt lat="50.8329545" lon="-1.8376535">
        <name>Malmesbury Road</name>
      </trkpt>
      <trkpt lat="50.8330280" lon="-1.8376540">
        <name>Malmesbury Road</name>
      </trkpt>
      <trkpt lat="50.8330913" lon="-1.8376547">
        <name>Malmesbury Road</name>
      </trkpt>
      <trkpt lat="50.8331547" lon="-1.8376553">
        <name>Malmesbury Road</name>
      </trkpt>
      <trkpt lat="50.8332180" lon="-1.8376560">
        <name>Malmesbury Road</name>
      </trkpt>
      <trkpt lat="50.8332925" lon="-1.8376565">
        <name>Malmesbury Road</name>
      </trkpt>
      <trkpt lat="50.8333670" lon="-1.8376570">
        <name>Malmesbury Road</name>
      </trkpt>
      <trkpt lat="50.8334125" lon="-1.8376880">
        <name>Malmesbury Road</name>
      </trkpt>
      <trkpt lat="50.8334580" lon="-1.8377190">
        <name>Malmesbury Road</name>
      </trkpt>
      <trkpt lat="50.8334895" lon="-1.8376150">
        <name>Malmesbury Road</name>
      </trkpt>
      <trkpt lat="50.8335210" lon="-1.8375110">
        <name>Malmesbury Road</name>
      </trkpt>
      <trkpt lat="50.8335525" lon="-1.8374070">
        <name>Malmesbury Road</name>
      </trkpt>
      <trkpt lat="50.8335840" lon="-1.8373030">
        <name>Malmesbury Road</name>
      </trkpt>
      <trkpt lat="50.8336188" lon="-1.8371875">
        <name>Malmesbury Road</name>
      </trkpt>
      <trkpt lat="50.8336537" lon="-1.8370720">
        <name>Malmesbury Road</name>
      </trkpt>
      <trkpt lat="50.8336885" lon="-1.8369565">
        <name>Malmesbury Road</name>
      </trkpt>
      <trkpt lat="50.8337233" lon="-1.8368410">
        <name>Malmesbury Road</name>
      </trkpt>
      <trkpt lat="50.8337582" lon="-1.8367255">
        <name>Malmesbury Road</name>
      </trkpt>
      <trkpt lat="50.8337930" lon="-1.8366100">
        <name>Malmesbury Road</name>
      </trkpt>
      <trkpt lat="50.8338313" lon="-1.8364840">
        <name>Malmesbury Road</name>
      </trkpt>
      <trkpt lat="50.8338695" lon="-1.8363580">
        <name>Malmesbury Road</name>
      </trkpt>
      <trkpt lat="50.8339077" lon="-1.8362320">
        <name>Malmesbury Road</name>
      </trkpt>
      <trkpt lat="50.8339460" lon="-1.8361060">
        <name>Malmesbury Road</name>
      </trkpt>
      <trkpt lat="50.8339827" lon="-1.8359760">
        <name>Malmesbury Road</name>
      </trkpt>
      <trkpt lat="50.8340193" lon="-1.8358460">
        <name>Malmesbury Road</name>
      </trkpt>
      <trkpt lat="50.8340560" lon="-1.8357160">
        <name>Malmesbury Road</name>
      </trkpt>
      <trkpt lat="50.8340920" lon="-1.8355881">
        <name>Malmesbury Road</name>
      </trkpt>
      <trkpt lat="50.8341280" lon="-1.8354603">
        <name>Malmesbury Road</name>
      </trkpt>
      <trkpt lat="50.8341640" lon="-1.8353324">
        <name>Malmesbury Road</name>
      </trkpt>
      <trkpt lat="50.8342000" lon="-1.8352046">
        <name>Malmesbury Road</name>
      </trkpt>
      <trkpt lat="50.8342360" lon="-1.8350767">
        <name>Malmesbury Road</name>
      </trkpt>
      <trkpt lat="50.8342720" lon="-1.8349489">
        <name>Malmesbury Road</name>
      </trkpt>
      <trkpt lat="50.8343080" lon="-1.8348210">
        <name>Malmesbury Road</name>
      </trkpt>
      <trkpt lat="50.8343305" lon="-1.8347420">
        <name>Malmesbury Road</name>
      </trkpt>
      <trkpt lat="50.8343530" lon="-1.8346630">
        <name>Malmesbury Road</name>
      </trkpt>
      <trkpt lat="50.8343530" lon="-1.8345210">
        <name>Malmesbury Road</name>
      </trkpt>
      <trkpt lat="50.8343530" lon="-1.8343790">
        <name>Malmesbury Road</name>
      </trkpt>
      <trkpt lat="50.8343930" lon="-1.8342520">
        <name>Malmesbury Road</name>
      </trkpt>
      <trkpt lat="50.8344322" lon="-1.8341277">
        <name>Malmesbury Road</name>
      </trkpt>
      <trkpt lat="50.8344714" lon="-1.8340033">
        <name>Malmesbury Road</name>
      </trkpt>
      <trkpt lat="50.8345107" lon="-1.8338790">
        <name>Malmesbury Road</name>
      </trkpt>
      <trkpt lat="50.8345499" lon="-1.8337547">
        <name>Malmesbury Road</name>
      </trkpt>
      <trkpt lat="50.8345891" lon="-1.8336303">
        <name>Malmesbury Road</name>
      </trkpt>
      <trkpt lat="50.8346283" lon="-1.8335060">
        <name>Malmesbury Road</name>
      </trkpt>
      <trkpt lat="50.8346676" lon="-1.8333817">
        <name>Malmesbury Road</name>
      </trkpt>
      <trkpt lat="50.8347068" lon="-1.8332573">
        <name>Malmesbury Road</name>
      </trkpt>
      <trkpt lat="50.8347460" lon="-1.8331330">
        <name>Malmesbury Road</name>
      </trkpt>
      <trkpt lat="50.8347815" lon="-1.8330235">
        <name>Malmesbury Road</name>
      </trkpt>
      <trkpt lat="50.8348170" lon="-1.8329140">
        <name>Malmesbury Road</name>
      </trkpt>
      <trkpt lat="50.8348533" lon="-1.8328025">
        <name>Malmesbury Road</name>
      </trkpt>
      <trkpt lat="50.8348895" lon="-1.8326910">
        <name>Malmesbury Road</name>
      </trkpt>
      <trkpt lat="50.8349257" lon="-1.8325795">
        <name>Malmesbury Road</name>
      </trkpt>
      <trkpt lat="50.8349620" lon="-1.8324680">
        <name>Malmesbury Road</name>
      </trkpt>
      <trkpt lat="50.8349940" lon="-1.8323603">
        <name>Malmesbury Road</name>
      </trkpt>
      <trkpt lat="50.8350260" lon="-1.8322527">
        <name>Malmesbury Road</name>
      </trkpt>
      <trkpt lat="50.8350580" lon="-1.8321450">
        <name>Malmesbury Road</name>
      </trkpt>
      <trkpt lat="50.8350890" lon="-1.8320427">
        <name>Malmesbury Road</name>
      </trkpt>
      <trkpt lat="50.8351200" lon="-1.8319403">
        <name>Malmesbury Road</name>
      </trkpt>
      <trkpt lat="50.8351510" lon="-1.8318380">
        <name>Malmesbury Road</name>
      </trkpt>
      <trkpt lat="50.8351864" lon="-1.8317218">
        <name>Heather Close</name>
      </trkpt>
      <trkpt lat="50.8352218" lon="-1.8316055">
        <name>Heather Close</name>
      </trkpt>
      <trkpt lat="50.8352571" lon="-1.8314892">
        <name>Heather Close</name>
      </trkpt>
      <trkpt lat="50.8352925" lon="-1.8313730">
        <name>Heather Close</name>
      </trkpt>
      <trkpt lat="50.8353279" lon="-1.8312568">
        <name>Heather Close</name>
      </trkpt>
      <trkpt lat="50.8353633" lon="-1.8311405">
        <name>Heather Close</name>
      </trkpt>
      <trkpt lat="50.8353986" lon="-1.8310243">
        <name>Heather Close</name>
      </trkpt>
      <trkpt lat="50.8354340" lon="-1.8309080">
        <name>Heather Close</name>
      </trkpt>
      <trkpt lat="50.8354653" lon="-1.8307873">
        <name>Heather Close</name>
      </trkpt>
      <trkpt lat="50.8354967" lon="-1.8306667">
        <name>Heather Close</name>
      </trkpt>
      <trkpt lat="50.8355280" lon="-1.8305460">
        <name>Heather Close</name>
      </trkpt>
      <trkpt lat="50.8355563" lon="-1.8304363">
        <name>Heather Close</name>
      </trkpt>
      <trkpt lat="50.8355847" lon="-1.8303267">
        <name>Heather Close</name>
      </trkpt>
      <trkpt lat="50.8356130" lon="-1.8302170">
        <name>Heather Close</name>
      </trkpt>
      <trkpt lat="50.8356430" lon="-1.8301233">
        <name>Heather Close</name>
      </trkpt>
      <trkpt lat="50.8356730" lon="-1.8300297">
        <name>Heather Close</name>
      </trkpt>
      <trkpt lat="50.8357030" lon="-1.8299360">
        <name>Heather Close</name>
      </trkpt>
      <trkpt lat="50.8357386" lon="-1.8298245">
        <name>Heather Close</name>
      </trkpt>
      <trkpt lat="50.8357743" lon="-1.8297130">
        <name>Heather Close</name>
      </trkpt>
      <trkpt lat="50.8358099" lon="-1.8296015">
        <name>Heather Close</name>
      </trkpt>
      <trkpt lat="50.8358455" lon="-1.8294900">
        <name>Heather Close</name>
      </trkpt>
      <trkpt lat="50.8358811" lon="-1.8293785">
        <name>Heather Close</name>
      </trkpt>
      <trkpt lat="50.8359168" lon="-1.8292670">
        <name>Heather Close</name>
      </trkpt>
      <trkpt lat="50.8359524" lon="-1.8291555">
        <name>Heather Close</name>
      </trkpt>
      <trkpt lat="50.8359880" lon="-1.8290440">
        <name>Heather Close</name>
      </trkpt>
      <trkpt lat="50.8360260" lon="-1.8289340">
        <name>Heather Close</name>
      </trkpt>
      <trkpt lat="50.8360640" lon="-1.8288240">
        <name>Heather Close</name>
      </trkpt>
      <trkpt lat="50.8361030" lon="-1.8287101">
        <name>Heather Close</name>
      </trkpt>
      <trkpt lat="50.8361420" lon="-1.8285962">
        <name>Heather Close</name>
      </trkpt>
      <trkpt lat="50.8361810" lon="-1.8284824">
        <name>Heather Close</name>
      </trkpt>
      <trkpt lat="50.8362200" lon="-1.8283685">
        <name>Heather Close</name>
      </trkpt>
      <trkpt lat="50.8362590" lon="-1.8282546">
        <name>Heather Close</name>
      </trkpt>
      <trkpt lat="50.8362980" lon="-1.8281407">
        <name>Heather Close</name>
      </trkpt>
      <trkpt lat="50.8363370" lon="-1.8280269">
        <name>Heather Close</name>
      </trkpt>
      <trkpt lat="50.8363760" lon="-1.8279130">
        <name>Heather Close</name>
      </trkpt>
      <trkpt lat="50.8364153" lon="-1.8277987">
        <name>Heather Close</name>
      </trkpt>
      <trkpt lat="50.8364547" lon="-1.8276843">
        <name>Heather Close</name>
      </trkpt>
      <trkpt lat="50.8364940" lon="-1.8275700">
        <name>Heather Close</name>
      </trkpt>
      <trkpt lat="50.8365333" lon="-1.8274557">
        <name>Heather Close</name>
      </trkpt>
      <trkpt lat="50.8365727" lon="-1.8273413">
        <name>Heather Close</name>
      </trkpt>
      <trkpt lat="50.8366120" lon="-1.8272270">
        <name>Heather Close</name>
      </trkpt>
      <trkpt lat="50.8366420" lon="-1.8271390">
        <name>Heather Close</name>
      </trkpt>
      <trkpt lat="50.8366760" lon="-1.8270370">
        <name>Heather Close</name>
      </trkpt>
      <trkpt lat="50.8367100" lon="-1.8269350">
        <name>Heather Close</name>
      </trkpt>
      <trkpt lat="50.8367512" lon="-1.8268107">
        <name>Heather Close</name>
      </trkpt>
      <trkpt lat="50.8367925" lon="-1.8266865">
        <name>Heather Close</name>
      </trkpt>
      <trkpt lat="50.8368337" lon="-1.8265623">
        <name>Heather Close</name>
      </trkpt>
      <trkpt lat="50.8368750" lon="-1.8264380">
        <name>Heather Close</name>
      </trkpt>
      <trkpt lat="50.8369067" lon="-1.8263427">
        <name>Heather Close</name>
      </trkpt>
      <trkpt lat="50.8369383" lon="-1.8262473">
        <name>Heather Close</name>
      </trkpt>
      <trkpt lat="50.8369700" lon="-1.8261520">
        <name>Heather Close</name>
      </trkpt>
      <trkpt lat="50.8370010" lon="-1.8260490">
        <name>Braeside Road</name>
      </trkpt>
      <trkpt lat="50.8370342" lon="-1.8259370">
        <name>Braeside Road</name>
      </trkpt>
      <trkpt lat="50.8370674" lon="-1.8258250">
        <name>Braeside Road</name>
      </trkpt>
      <trkpt lat="50.8371006" lon="-1.8257130">
        <name>Braeside Road</name>
      </trkpt>
      <trkpt lat="50.8371338" lon="-1.8256010">
        <name>Braeside Road</name>
      </trkpt>
      <trkpt lat="50.8371670" lon="-1.8254890">
        <name>Braeside Road</name>
      </trkpt>
      <trkpt lat="50.8372010" lon="-1.8253817">
        <name>Braeside Road</name>
      </trkpt>
      <trkpt lat="50.8372350" lon="-1.8252743">
        <name>Braeside Road</name>
      </trkpt>
      <trkpt lat="50.8372690" lon="-1.8251670">
        <name>Braeside Road</name>
      </trkpt>
      <trkpt lat="50.8373087" lon="-1.8250412">
        <name>Braeside Road</name>
      </trkpt>
      <trkpt lat="50.8373485" lon="-1.8249155">
        <name>Braeside Road</name>
      </trkpt>
      <trkpt lat="50.8373883" lon="-1.8247898">
        <name>Braeside Road</name>
      </trkpt>
      <trkpt lat="50.8374280" lon="-1.8246640">
        <name>Braeside Road</name>
      </trkpt>
      <trkpt lat="50.8374610" lon="-1.8245490">
        <name>Braeside Road</name>
      </trkpt>
      <trkpt lat="50.8374940" lon="-1.8244340">
        <name>Braeside Road</name>
      </trkpt>
      <trkpt lat="50.8375270" lon="-1.8243190">
        <name>Braeside Road</name>
      </trkpt>
      <trkpt lat="50.8375599" lon="-1.8242049">
        <name>Braeside Road</name>
      </trkpt>
      <trkpt lat="50.8375927" lon="-1.8240907">
        <name>Braeside Road</name>
      </trkpt>
      <trkpt lat="50.8376256" lon="-1.8239766">
        <name>Braeside Road</name>
      </trkpt>
      <trkpt lat="50.8376584" lon="-1.8238624">
        <name>Braeside Road</name>
      </trkpt>
      <trkpt lat="50.8376913" lon="-1.8237483">
        <name>Braeside Road</name>
      </trkpt>
      <trkpt lat="50.8377241" lon="-1.8236341">
        <name>Braeside Road</name>
      </trkpt>
      <trkpt lat="50.8377570" lon="-1.8235200">
        <name>Braeside Road</name>
      </trkpt>
      <trkpt lat="50.8377780" lon="-1.8234490">
        <name>Laurel Lane</name>
      </trkpt>
      <trkpt lat="50.8378060" lon="-1.8233625">
        <name>Laurel Lane</name>
      </trkpt>
      <trkpt lat="50.8378340" lon="-1.8232760">
        <name>Laurel Lane</name>
      </trkpt>
      <trkpt lat="50.8378742" lon="-1.8231503">
        <name>Laurel Lane</name>
      </trkpt>
      <trkpt lat="50.8379143" lon="-1.8230247">
        <name>Laurel Lane</name>
      </trkpt>
      <trkpt lat="50.8379545" lon="-1.8228990">
        <name>Laurel Lane</name>
      </trkpt>
      <trkpt lat="50.8379947" lon="-1.8227733">
        <name>Laurel Lane</name>
      </trkpt>
      <trkpt lat="50.8380348" lon="-1.8226477">
        <name>Laurel Lane</name>
      </trkpt>
      <trkpt lat="50.8380750" lon="-1.8225220">
        <name>Laurel Lane</name>
      </trkpt>
      <trkpt lat="50.8381095" lon="-1.8224140">
        <name>Laurel Lane</name>
      </trkpt>
      <trkpt lat="50.8381440" lon="-1.8223060">
        <name>Laurel Lane</name>
      </trkpt>
      <trkpt lat="50.8381785" lon="-1.8221980">
        <name>Laurel Lane</name>
      </trkpt>
      <trkpt lat="50.8382130" lon="-1.8220900">
        <name>Laurel Lane</name>
      </trkpt>
      <trkpt lat="50.8382150" lon="-1.8220820">
        <name>Laurel Lane</name>
      </trkpt>
      <trkpt lat="50.8382440" lon="-1.8219647">
        <name>Laurel Lane</name>
      </trkpt>
      <trkpt lat="50.8382730" lon="-1.8218473">
        <name>Laurel Lane</name>
      </trkpt>
      <trkpt lat="50.8383020" lon="-1.8217300">
        <name>Laurel Lane</name>
      </trkpt>
      <trkpt lat="50.8383050" lon="-1.8217150">
        <name>Laurel Lane</name>
      </trkpt>
      <trkpt lat="50.8383270" lon="-1.8215890">
        <name>Laurel Lane</name>
      </trkpt>
      <trkpt lat="50.8383290" lon="-1.8215270">
        <name>Laurel Lane</name>
      </trkpt>
      <trkpt lat="50.8383140" lon="-1.8214390">
        <name>Laurel Lane</name>
      </trkpt>
      <trkpt lat="50.8382900" lon="-1.8213530">
        <name>Laurel Lane</name>
      </trkpt>
      <trkpt lat="50.8382380" lon="-1.8212830">
        <name>Laurel Lane</name>
      </trkpt>
      <trkpt lat="50.8382050" lon="-1.8212550">
        <name>Laurel Lane</name>
      </trkpt>
      <trkpt lat="50.8381720" lon="-1.8212280">
        <name>Laurel Lane</name>
      </trkpt>
      <trkpt lat="50.8380960" lon="-1.8211940">
        <name>Laurel Lane</name>
      </trkpt>
      <trkpt lat="50.8380200" lon="-1.8211600">
        <name>Laurel Lane</name>
      </trkpt>
      <trkpt lat="50.8379670" lon="-1.8211330">
        <name>Laurel Lane</name>
      </trkpt>
      <trkpt lat="50.8379060" lon="-1.8211030">
        <name>Laurel Lane</name>
      </trkpt>
      <trkpt lat="50.8378420" lon="-1.8210730">
        <name>Woolsbridge Road</name>
      </trkpt>
      <trkpt lat="50.8377780" lon="-1.8210430">
        <name>Woolsbridge Road</name>
      </trkpt>
      <trkpt lat="50.8377140" lon="-1.8210130">
        <name>Woolsbridge Road</name>
      </trkpt>
      <trkpt lat="50.8376446" lon="-1.8209806">
        <name>Woolsbridge Road</name>
      </trkpt>
      <trkpt lat="50.8375752" lon="-1.8209482">
        <name>Woolsbridge Road</name>
      </trkpt>
      <trkpt lat="50.8375058" lon="-1.8209158">
        <name>Woolsbridge Road</name>
      </trkpt>
      <trkpt lat="50.8374364" lon="-1.8208834">
        <name>Woolsbridge Road</name>
      </trkpt>
      <trkpt lat="50.8373670" lon="-1.8208510">
        <name>Woolsbridge Road</name>
      </trkpt>
      <trkpt lat="50.8373077" lon="-1.8208243">
        <name>Woolsbridge Road</name>
      </trkpt>
      <trkpt lat="50.8372483" lon="-1.8207977">
        <name>Woolsbridge Road</name>
      </trkpt>
      <trkpt lat="50.8371890" lon="-1.8207710">
        <name>Woolsbridge Road</name>
      </trkpt>
      <trkpt lat="50.8371119" lon="-1.8207365">
        <name>Woolsbridge Road</name>
      </trkpt>
      <trkpt lat="50.8370348" lon="-1.8207020">
        <name>Woolsbridge Road</name>
      </trkpt>
      <trkpt lat="50.8369576" lon="-1.8206675">
        <name>Woolsbridge Road</name>
      </trkpt>
      <trkpt lat="50.8368805" lon="-1.8206330">
        <name>Woolsbridge Road</name>
      </trkpt>
      <trkpt lat="50.8368034" lon="-1.8205985">
        <name>Woolsbridge Road</name>
      </trkpt>
      <trkpt lat="50.8367262" lon="-1.8205640">
        <name>Woolsbridge Road</name>
      </trkpt>
      <trkpt lat="50.8366491" lon="-1.8205295">
        <name>Woolsbridge Road</name>
      </trkpt>
      <trkpt lat="50.8365720" lon="-1.8204950">
        <name>Woolsbridge Road</name>
      </trkpt>
      <trkpt lat="50.8364983" lon="-1.8204620">
        <name>Woolsbridge Road</name>
      </trkpt>
      <trkpt lat="50.8364247" lon="-1.8204290">
        <name>Woolsbridge Road</name>
      </trkpt>
      <trkpt lat="50.8363510" lon="-1.8203960">
        <name>Woolsbridge Road</name>
      </trkpt>
      <trkpt lat="50.8363210" lon="-1.8205067">
        <name>Woolsbridge Road</name>
      </trkpt>
      <trkpt lat="50.8362910" lon="-1.8206173">
        <name>Woolsbridge Road</name>
      </trkpt>
      <trkpt lat="50.8362610" lon="-1.8207280">
        <name>Woolsbridge Road</name>
      </trkpt>
      <trkpt lat="50.8362310" lon="-1.8208387">
        <name>Woolsbridge Road</name>
      </trkpt>
      <trkpt lat="50.8362010" lon="-1.8209493">
        <name>Woolsbridge Road</name>
      </trkpt>
      <trkpt lat="50.8361710" lon="-1.8210600">
        <name>Woolsbridge Road</name>
      </trkpt>
      <trkpt lat="50.8361410" lon="-1.8211710">
        <name>Woolsbridge Road</name>
      </trkpt>
      <trkpt lat="50.8361110" lon="-1.8212820">
        <name>Woolsbridge Road</name>
      </trkpt>
      <trkpt lat="50.8360910" lon="-1.8213540">
        <name>Woolsbridge Road</name>
      </trkpt>
      <trkpt lat="50.8360570" lon="-1.8214790">
        <name>Woolsbridge Road</name>
      </trkpt>
      <trkpt lat="50.8360230" lon="-1.8216040">
        <name>Woolsbridge Road</name>
      </trkpt>
      <trkpt lat="50.8359890" lon="-1.8217290">
        <name>Woolsbridge Road</name>
      </trkpt>
      <trkpt lat="50.8359557" lon="-1.8218207">
        <name>Woolsbridge Road</name>
      </trkpt>
      <trkpt lat="50.8359223" lon="-1.8219123">
        <name>Woolsbridge Road</name>
      </trkpt>
      <trkpt lat="50.8358890" lon="-1.8220040">
        <name>Woolsbridge Road</name>
      </trkpt>
      <trkpt lat="50.8358461" lon="-1.8221217">
        <name>Woolsbridge Road</name>
      </trkpt>
      <trkpt lat="50.8358033" lon="-1.8222394">
        <name>Woolsbridge Road</name>
      </trkpt>
      <trkpt lat="50.8357604" lon="-1.8223571">
        <name>Woolsbridge Road</name>
      </trkpt>
      <trkpt lat="50.8357176" lon="-1.8224749">
        <name>Woolsbridge Road</name>
      </trkpt>
      <trkpt lat="50.8356747" lon="-1.8225926">
        <name>Woolsbridge Road</name>
      </trkpt>
      <trkpt lat="50.8356319" lon="-1.8227103">
        <name>Woolsbridge Road</name>
      </trkpt>
      <trkpt lat="50.8355890" lon="-1.8228280">
        <name>Woolsbridge Road</name>
      </trkpt>
      <trkpt lat="50.8355478" lon="-1.8229411">
        <name>Woolsbridge Road</name>
      </trkpt>
      <trkpt lat="50.8355066" lon="-1.8230542">
        <name>Woolsbridge Road</name>
      </trkpt>
      <trkpt lat="50.8354655" lon="-1.8231673">
        <name>Woolsbridge Road</name>
      </trkpt>
      <trkpt lat="50.8354243" lon="-1.8232804">
        <name>Woolsbridge Road</name>
      </trkpt>
      <trkpt lat="50.8353831" lon="-1.8233935">
        <name>Woolsbridge Road</name>
      </trkpt>
      <trkpt lat="50.8353419" lon="-1.8235065">
        <name>Woolsbridge Road</name>
      </trkpt>
      <trkpt lat="50.8353007" lon="-1.8236196">
        <name>Woolsbridge Road</name>
      </trkpt>
      <trkpt lat="50.8352595" lon="-1.8237327">
        <name>Woolsbridge Road</name>
      </trkpt>
      <trkpt lat="50.8352184" lon="-1.8238458">
        <name>Woolsbridge Road</name>
      </trkpt>
      <trkpt lat="50.8351772" lon="-1.8239589">
        <name>Woolsbridge Road</name>
      </trkpt>
      <trkpt lat="50.8351360" lon="-1.8240720">
        <name>Woolsbridge Road</name>
      </trkpt>
      <trkpt lat="50.8350984" lon="-1.8241750">
        <name>Woolsbridge Road</name>
      </trkpt>
      <trkpt lat="50.8350608" lon="-1.8242780">
        <name>Woolsbridge Road</name>
      </trkpt>
      <trkpt lat="50.8350232" lon="-1.8243810">
        <name>Woolsbridge Road</name>
      </trkpt>
      <trkpt lat="50.8349856" lon="-1.8244840">
        <name>Woolsbridge Road</name>
      </trkpt>
      <trkpt lat="50.8349480" lon="-1.8245870">
        <name>Woolsbridge Road</name>
      </trkpt>
      <trkpt lat="50.8349020" lon="-1.8247070">
        <name>Woolsbridge Road</name>
      </trkpt>
      <trkpt lat="50.8348560" lon="-1.8248270">
        <name>Woolsbridge Road</name>
      </trkpt>
      <trkpt lat="50.8348100" lon="-1.8249470">
        <name>Woolsbridge Road</name>
      </trkpt>
      <trkpt lat="50.8347640" lon="-1.8250670">
        <name>Woolsbridge Road</name>
      </trkpt>
      <trkpt lat="50.8347180" lon="-1.8251870">
        <name>Woolsbridge Road</name>
      </trkpt>
      <trkpt lat="50.8346728" lon="-1.8253047">
        <name>Woolsbridge Road</name>
      </trkpt>
      <trkpt lat="50.8346277" lon="-1.8254223">
        <name>Woolsbridge Road</name>
      </trkpt>
      <trkpt lat="50.8345825" lon="-1.8255400">
        <name>Woolsbridge Road</name>
      </trkpt>
      <trkpt lat="50.8345373" lon="-1.8256577">
        <name>Woolsbridge Road</name>
      </trkpt>
      <trkpt lat="50.8344922" lon="-1.8257753">
        <name>Woolsbridge Road</name>
      </trkpt>
      <trkpt lat="50.8344470" lon="-1.8258930">
        <name>Woolsbridge Road</name>
      </trkpt>
      <trkpt lat="50.8344049" lon="-1.8260028">
        <name>Woolsbridge Road</name>
      </trkpt>
      <trkpt lat="50.8343628" lon="-1.8261126">
        <name>Woolsbridge Road</name>
      </trkpt>
      <trkpt lat="50.8343207" lon="-1.8262223">
        <name>Woolsbridge Road</name>
      </trkpt>
      <trkpt lat="50.8342786" lon="-1.8263321">
        <name>Woolsbridge Road</name>
      </trkpt>
      <trkpt lat="50.8342364" lon="-1.8264419">
        <name>Woolsbridge Road</name>
      </trkpt>
      <trkpt lat="50.8341943" lon="-1.8265517">
        <name>Woolsbridge Road</name>
      </trkpt>
      <trkpt lat="50.8341522" lon="-1.8266614">
        <name>Woolsbridge Road</name>
      </trkpt>
      <trkpt lat="50.8341101" lon="-1.8267712">
        <name>Woolsbridge Road</name>
      </trkpt>
      <trkpt lat="50.8340680" lon="-1.8268810">
        <name>Woolsbridge Road</name>
      </trkpt>
      <trkpt lat="50.8340272" lon="-1.8269876">
        <name>Woolsbridge Road</name>
      </trkpt>
      <trkpt lat="50.8339864" lon="-1.8270942">
        <name>Woolsbridge Road</name>
      </trkpt>
      <trkpt lat="50.8339456" lon="-1.8272008">
        <name>Woolsbridge Road</name>
      </trkpt>
      <trkpt lat="50.8339048" lon="-1.8273074">
        <name>Woolsbridge Road</name>
      </trkpt>
      <trkpt lat="50.8338640" lon="-1.8274140">
        <name>Woolsbridge Road</name>
      </trkpt>
      <trkpt lat="50.8338198" lon="-1.8275280">
        <name>Woolsbridge Road</name>
      </trkpt>
      <trkpt lat="50.8337756" lon="-1.8276420">
        <name>Woolsbridge Road</name>
      </trkpt>
      <trkpt lat="50.8337314" lon="-1.8277560">
        <name>Woolsbridge Road</name>
      </trkpt>
      <trkpt lat="50.8336872" lon="-1.8278700">
        <name>Woolsbridge Road</name>
      </trkpt>
      <trkpt lat="50.8336430" lon="-1.8279840">
        <name>Woolsbridge Road</name>
      </trkpt>
      <trkpt lat="50.8335968" lon="-1.8281030">
        <name>Woolsbridge Road</name>
      </trkpt>
      <trkpt lat="50.8335506" lon="-1.8282220">
        <name>Woolsbridge Road</name>
      </trkpt>
      <trkpt lat="50.8335044" lon="-1.8283410">
        <name>Woolsbridge Road</name>
      </trkpt>
      <trkpt lat="50.8334582" lon="-1.8284600">
        <name>Woolsbridge Road</name>
      </trkpt>
      <trkpt lat="50.8334120" lon="-1.8285790">
        <name>Woolsbridge Road</name>
      </trkpt>
      <trkpt lat="50.8334745" lon="-1.8286247">
        <name>Woolsbridge Road</name>
      </trkpt>
      <trkpt lat="50.8335370" lon="-1.8286705">
        <name>Woolsbridge Road</name>
      </trkpt>
      <trkpt lat="50.8335995" lon="-1.8287163">
        <name>Woolsbridge Road</name>
      </trkpt>
      <trkpt lat="50.8336620" lon="-1.8287620">
        <name>Woolsbridge Road</name>
      </trkpt>
      <trkpt lat="50.8337308" lon="-1.8288125">
        <name>Sandy Lane</name>
      </trkpt>
      <trkpt lat="50.8337995" lon="-1.8288630">
        <name>Sandy Lane</name>
      </trkpt>
      <trkpt lat="50.8338682" lon="-1.8289135">
        <name>Sandy Lane</name>
      </trkpt>
      <trkpt lat="50.8339370" lon="-1.8289640">
        <name>Sandy Lane</name>
      </trkpt>
      <trkpt lat="50.8340058" lon="-1.8290155">
        <name>Sandy Lane</name>
      </trkpt>
      <trkpt lat="50.8340745" lon="-1.8290670">
        <name>Sandy Lane</name>
      </trkpt>
      <trkpt lat="50.8341432" lon="-1.8291185">
        <name>Sandy Lane</name>
      </trkpt>
      <trkpt lat="50.8342120" lon="-1.8291700">
        <name>Sandy Lane</name>
      </trkpt>
      <trkpt lat="50.8342810" lon="-1.8292216">
        <name>Sandy Lane</name>
      </trkpt>
      <trkpt lat="50.8343500" lon="-1.8292732">
        <name>Sandy Lane</name>
      </trkpt>
      <trkpt lat="50.8344190" lon="-1.8293248">
        <name>Sandy Lane</name>
      </trkpt>
      <trkpt lat="50.8344880" lon="-1.8293764">
        <name>Sandy Lane</name>
      </trkpt>
      <trkpt lat="50.8345570" lon="-1.8294280">
        <name>Sandy Lane</name>
      </trkpt>
      <trkpt lat="50.8346277" lon="-1.8294810">
        <name>Sandy Lane</name>
      </trkpt>
      <trkpt lat="50.8346985" lon="-1.8295340">
        <name>Sandy Lane</name>
      </trkpt>
      <trkpt lat="50.8347693" lon="-1.8295870">
        <name>Sandy Lane</name>
      </trkpt>
      <trkpt lat="50.8348400" lon="-1.8296400">
        <name>Sandy Lane</name>
      </trkpt>
      <trkpt lat="50.8349130" lon="-1.8296944">
        <name>Sandy Lane</name>
      </trkpt>
      <trkpt lat="50.8349860" lon="-1.8297489">
        <name>Sandy Lane</name>
      </trkpt>
      <trkpt lat="50.8350590" lon="-1.8298033">
        <name>Sandy Lane</name>
      </trkpt>
      <trkpt lat="50.8351320" lon="-1.8298577">
        <name>Sandy Lane</name>
      </trkpt>
      <trkpt lat="50.8352050" lon="-1.8299121">
        <name>Sandy Lane</name>
      </trkpt>
      <trkpt lat="50.8352780" lon="-1.8299666">
        <name>Sandy Lane</name>
      </trkpt>
      <trkpt lat="50.8353510" lon="-1.8300210">
        <name>Sandy Lane</name>
      </trkpt>
      <trkpt lat="50.8354165" lon="-1.8300700">
        <name>Sandy Lane</name>
      </trkpt>
      <trkpt lat="50.8354820" lon="-1.8301190">
        <name>Sandy Lane</name>
      </trkpt>
      <trkpt lat="50.8355475" lon="-1.8301680">
        <name>Sandy Lane</name>
      </trkpt>
      <trkpt lat="50.8356130" lon="-1.8302170">
        <name>Sandy Lane</name>
      </trkpt>
      <trkpt lat="50.8355832" lon="-1.8303322">
        <name>Sandy Lane</name>
      </trkpt>
      <trkpt lat="50.8355533" lon="-1.8304473">
        <name>Sandy Lane</name>
      </trkpt>
      <trkpt lat="50.8355235" lon="-1.8305625">
        <name>Sandy Lane</name>
      </trkpt>
      <trkpt lat="50.8354937" lon="-1.8306777">
        <name>Sandy Lane</name>
      </trkpt>
      <trkpt lat="50.8354638" lon="-1.8307928">
        <name>Sandy Lane</name>
      </trkpt>
      <trkpt lat="50.8354340" lon="-1.8309080">
        <name>Sandy Lane</name>
      </trkpt>
      <trkpt lat="50.8355000" lon="-1.8309590">
        <name>Sandy Lane</name>
      </trkpt>
      <trkpt lat="50.8355660" lon="-1.8310100">
        <name>Sandy Lane</name>
      </trkpt>
      <trkpt lat="50.8356392" lon="-1.8310665">
        <name>Sandy Lane</name>
      </trkpt>
      <trkpt lat="50.8357125" lon="-1.8311230">
        <name>Sandy Lane</name>
      </trkpt>
      <trkpt lat="50.8357857" lon="-1.8311795">
        <name>Sandy Lane</name>
      </trkpt>
      <trkpt lat="50.8358590" lon="-1.8312360">
        <name>Sandy Lane</name>
      </trkpt>
      <trkpt lat="50.8359280" lon="-1.8312830">
        <name>Sandy Lane</name>
      </trkpt>
      <trkpt lat="50.8359970" lon="-1.8313300">
        <name>Sandy Lane</name>
      </trkpt>
      <trkpt lat="50.8360699" lon="-1.8313800">
        <name>Sandy Lane</name>
      </trkpt>
      <trkpt lat="50.8361427" lon="-1.8314300">
        <name>Sandy Lane</name>
      </trkpt>
      <trkpt lat="50.8362156" lon="-1.8314800">
        <name>Sandy Lane</name>
      </trkpt>
      <trkpt lat="50.8362884" lon="-1.8315300">
        <name>Sandy Lane</name>
      </trkpt>
      <trkpt lat="50.8363613" lon="-1.8315800">
        <name>Sandy Lane</name>
      </trkpt>
      <trkpt lat="50.8364341" lon="-1.8316300">
        <name>Sandy Lane</name>
      </trkpt>
      <trkpt lat="50.8365070" lon="-1.8316800">
        <name>Sandy Lane</name>
      </trkpt>
      <trkpt lat="50.8365595" lon="-1.8317405">
        <name>Sandy Lane</name>
      </trkpt>
      <trkpt lat="50.8366120" lon="-1.8318010">
        <name>Sandy Lane</name>
      </trkpt>
      <trkpt lat="50.8366780" lon="-1.8318760">
        <name>Sandy Lane</name>
      </trkpt>
      <trkpt lat="50.8367267" lon="-1.8319713">
        <name>Sandy Lane</name>
      </trkpt>
      <trkpt lat="50.8367753" lon="-1.8320667">
        <name>Sandy Lane</name>
      </trkpt>
      <trkpt lat="50.8368240" lon="-1.8321620">
        <name>Sandy Lane</name>
      </trkpt>
      <trkpt lat="50.8368365" lon="-1.8322340">
        <name>Sandy Lane</name>
      </trkpt>
      <trkpt lat="50.8368490" lon="-1.8323060">
        <name>Sandy Lane</name>
      </trkpt>
      <trkpt lat="50.8368250" lon="-1.8324250">
        <name>Sandy Lane</name>
      </trkpt>
      <trkpt lat="50.8368025" lon="-1.8324905">
        <name>Sandy Lane</name>
      </trkpt>
      <trkpt lat="50.8367800" lon="-1.8325560">
        <name>Sandy Lane</name>
      </trkpt>
      <trkpt lat="50.8367500" lon="-1.8326460">
        <name>Sandy Lane</name>
      </trkpt>
      <trkpt lat="50.8367200" lon="-1.8327360">
        <name>Sandy Lane</name>
      </trkpt>
      <trkpt lat="50.8366945" lon="-1.8328110">
        <name>Sandy Lane</name>
      </trkpt>
      <trkpt lat="50.8366690" lon="-1.8328860">
        <name>Sandy Lane</name>
      </trkpt>
      <trkpt lat="50.8366360" lon="-1.8330027">
        <name>Sandy Lane</name>
      </trkpt>
      <trkpt lat="50.8366030" lon="-1.8331193">
        <name>Sandy Lane</name>
      </trkpt>
      <trkpt lat="50.8365700" lon="-1.8332360">
        <name>Sandy Lane</name>
      </trkpt>
      <trkpt lat="50.8365400" lon="-1.8333250">
        <name>Sandy Lane</name>
      </trkpt>
      <trkpt lat="50.8365157" lon="-1.8334537">
        <name>Sandy Lane</name>
      </trkpt>
      <trkpt lat="50.8364913" lon="-1.8335823">
        <name>Sandy Lane</name>
      </trkpt>
      <trkpt lat="50.8364670" lon="-1.8337110">
        <name>Sandy Lane</name>
      </trkpt>
      <trkpt lat="50.8364580" lon="-1.8337910">
        <name>Sandy Lane</name>
      </trkpt>
      <trkpt lat="50.8364500" lon="-1.8338590">
        <name>Sandy Lane</name>
      </trkpt>
      <trkpt lat="50.8364610" lon="-1.8339990">
        <name>Sandy Lane</name>
      </trkpt>
      <trkpt lat="50.8364780" lon="-1.8341080">
        <name>Sandy Lane</name>
      </trkpt>
      <trkpt lat="50.8365140" lon="-1.8341840">
        <name>Sandy Lane</name>
      </trkpt>
      <trkpt lat="50.8365540" lon="-1.8342300">
        <name>Sandy Lane</name>
      </trkpt>
      <trkpt lat="50.8366180" lon="-1.8342490">
        <name>Sandy Lane</name>
      </trkpt>
      <trkpt lat="50.8366900" lon="-1.8342310">
        <name>Sandy Lane</name>
      </trkpt>
      <trkpt lat="50.8367465" lon="-1.8342035">
        <name>Sandy Lane</name>
      </trkpt>
      <trkpt lat="50.8368030" lon="-1.8341760">
        <name>Sandy Lane</name>
      </trkpt>
      <trkpt lat="50.8368560" lon="-1.8341490">
        <name>Sandy Lane</name>
      </trkpt>
      <trkpt lat="50.8369080" lon="-1.8341640">
        <name>Sandy Lane</name>
      </trkpt>
      <trkpt lat="50.8369500" lon="-1.8341920">
        <name>Sandy Lane</name>
      </trkpt>
      <trkpt lat="50.8370033" lon="-1.8342597">
        <name>Sandy Lane</name>
      </trkpt>
      <trkpt lat="50.8370567" lon="-1.8343273">
        <name>Sandy Lane</name>
      </trkpt>
      <trkpt lat="50.8371100" lon="-1.8343950">
        <name>Sandy Lane</name>
      </trkpt>
      <trkpt lat="50.8371657" lon="-1.8344653">
        <name>Sandy Lane</name>
      </trkpt>
      <trkpt lat="50.8372213" lon="-1.8345357">
        <name>Sandy Lane</name>
      </trkpt>
      <trkpt lat="50.8372770" lon="-1.8346060">
        <name>Sandy Lane</name>
      </trkpt>
      <trkpt lat="50.8373130" lon="-1.8346290">
        <name>Sandy Lane</name>
      </trkpt>
      <trkpt lat="50.8373700" lon="-1.8346230">
        <name>Sandy Lane</name>
      </trkpt>
      <trkpt lat="50.8374270" lon="-1.8346170">
        <name>Sandy Lane</name>
      </trkpt>
      <trkpt lat="50.8374910" lon="-1.8346075">
        <name>Sandy Lane</name>
      </trkpt>
      <trkpt lat="50.8375550" lon="-1.8345980">
        <name>Sandy Lane</name>
      </trkpt>
      <trkpt lat="50.8376153" lon="-1.8345697">
        <name>Sandy Lane</name>
      </trkpt>
      <trkpt lat="50.8376757" lon="-1.8345413">
        <name>Sandy Lane</name>
      </trkpt>
      <trkpt lat="50.8377360" lon="-1.8345130">
        <name>Sandy Lane</name>
      </trkpt>
      <trkpt lat="50.8377995" lon="-1.8344695">
        <name>Sandy Lane</name>
      </trkpt>
      <trkpt lat="50.8378630" lon="-1.8344260">
        <name>Sandy Lane</name>
      </trkpt>
      <trkpt lat="50.8378910" lon="-1.8344070">
        <name>Sandy Lane</name>
      </trkpt>
      <trkpt lat="50.8379285" lon="-1.8343560">
        <name>Sandy Lane</name>
      </trkpt>
      <trkpt lat="50.8379660" lon="-1.8343050">
        <name>Sandy Lane</name>
      </trkpt>
      <trkpt lat="50.8379960" lon="-1.8342360">
        <name>Sandy Lane</name>
      </trkpt>
      <trkpt lat="50.8380260" lon="-1.8341670">
        <name>Sandy Lane</name>
      </trkpt>
      <trkpt lat="50.8380440" lon="-1.8340717">
        <name>Sandy Lane</name>
      </trkpt>
      <trkpt lat="50.8380620" lon="-1.8339763">
        <name>Sandy Lane</name>
      </trkpt>
      <trkpt lat="50.8380800" lon="-1.8338810">
        <name>Sandy Lane</name>
      </trkpt>
      <trkpt lat="50.8380937" lon="-1.8337757">
        <name>Sandy Lane</name>
      </trkpt>
      <trkpt lat="50.8381073" lon="-1.8336703">
        <name>Sandy Lane</name>
      </trkpt>
      <trkpt lat="50.8381210" lon="-1.8335650">
        <name>Sandy Lane</name>
      </trkpt>
      <trkpt lat="50.8381440" lon="-1.8334540">
        <name>Sandy Lane</name>
      </trkpt>
      <trkpt lat="50.8381675" lon="-1.8333410">
        <name>Sandy Lane</name>
      </trkpt>
      <trkpt lat="50.8381910" lon="-1.8332280">
        <name>Sandy Lane</name>
      </trkpt>
      <trkpt lat="50.8382070" lon="-1.8331330">
        <name>Sandy Lane</name>
      </trkpt>
      <trkpt lat="50.8382230" lon="-1.8330380">
        <name>Sandy Lane</name>
      </trkpt>
      <trkpt lat="50.8382360" lon="-1.8329530">
        <name>Sandy Lane</name>
      </trkpt>
      <trkpt lat="50.8382567" lon="-1.8328167">
        <name>Sandy Lane</name>
      </trkpt>
      <trkpt lat="50.8382773" lon="-1.8326803">
        <name>Sandy Lane</name>
      </trkpt>
      <trkpt lat="50.8382980" lon="-1.8325440">
        <name>Sandy Lane</name>
      </trkpt>
      <trkpt lat="50.8383763" lon="-1.8325323">
        <name>Sandy Lane</name>
      </trkpt>
      <trkpt lat="50.8384547" lon="-1.8325207">
        <name>Sandy Lane</name>
      </trkpt>
      <trkpt lat="50.8385330" lon="-1.8325090">
        <name>Sandy Lane</name>
      </trkpt>
      <trkpt lat="50.8386130" lon="-1.8324972">
        <name>Sandy Lane</name>
      </trkpt>
      <trkpt lat="50.8386930" lon="-1.8324853">
        <name>Sandy Lane</name>
      </trkpt>
      <trkpt lat="50.8387730" lon="-1.8324735">
        <name>Sandy Lane</name>
      </trkpt>
      <trkpt lat="50.8388530" lon="-1.8324617">
        <name>Sandy Lane</name>
      </trkpt>
      <trkpt lat="50.8389330" lon="-1.8324498">
        <name>Sandy Lane</name>
      </trkpt>
      <trkpt lat="50.8390130" lon="-1.8324380">
        <name>Sandy Lane</name>
      </trkpt>
      <trkpt lat="50.8390250" lon="-1.8325635">
        <name>Sandy Lane</name>
      </trkpt>
      <trkpt lat="50.8390370" lon="-1.8326890">
        <name>Sandy Lane</name>
      </trkpt>
      <trkpt lat="50.8390410" lon="-1.8327340">
        <name>Sandy Lane</name>
      </trkpt>
      <trkpt lat="50.8390510" lon="-1.8328375">
        <name>Sandy Lane</name>
      </trkpt>
      <trkpt lat="50.8390610" lon="-1.8329410">
        <name>Sandy Lane</name>
      </trkpt>
      <trkpt lat="50.8390807" lon="-1.8330343">
        <name>Sandy Lane</name>
      </trkpt>
      <trkpt lat="50.8391003" lon="-1.8331277">
        <name>Sandy Lane</name>
      </trkpt>
      <trkpt lat="50.8391200" lon="-1.8332210">
        <name>Sandy Lane</name>
      </trkpt>
      <trkpt lat="50.8391580" lon="-1.8332980">
        <name>Sandy Lane</name>
      </trkpt>
      <trkpt lat="50.8391960" lon="-1.8333750">
        <name>Sandy Lane</name>
      </trkpt>
      <trkpt lat="50.8392030" lon="-1.8333890">
        <name>Sandy Lane</name>
      </trkpt>
      <trkpt lat="50.8392560" lon="-1.8334215">
        <name>Sandy Lane</name>
      </trkpt>
      <trkpt lat="50.8393090" lon="-1.8334540">
        <name>Sandy Lane</name>
      </trkpt>
      <trkpt lat="50.8393590" lon="-1.8334680">
        <name>Sandy Lane</name>
      </trkpt>
      <trkpt lat="50.8394090" lon="-1.8334820">
        <name>Sandy Lane</name>
      </trkpt>
      <trkpt lat="50.8394560" lon="-1.8334680">
        <name>Sandy Lane</name>
      </trkpt>
      <trkpt lat="50.8395030" lon="-1.8334540">
        <name>Sandy Lane</name>
      </trkpt>
      <trkpt lat="50.8395443" lon="-1.8335663">
        <name>Sandy Lane</name>
      </trkpt>
      <trkpt lat="50.8395857" lon="-1.8336787">
        <name>Sandy Lane</name>
      </trkpt>
      <trkpt lat="50.8396270" lon="-1.8337910">
        <name>Sandy Lane</name>
      </trkpt>
      <trkpt lat="50.8396590" lon="-1.8339070">
        <name>Sandy Lane</name>
      </trkpt>
      <trkpt lat="50.8396930" lon="-1.8340323">
        <name>Sandy Lane</name>
      </trkpt>
      <trkpt lat="50.8397270" lon="-1.8341577">
        <name>Sandy Lane</name>
      </trkpt>
      <trkpt lat="50.8397610" lon="-1.8342830">
        <name>Sandy Lane</name>
      </trkpt>
      <trkpt lat="50.8397950" lon="-1.8344083">
        <name>Sandy Lane</name>
      </trkpt>
      <trkpt lat="50.8398290" lon="-1.8345337">
        <name>Sandy Lane</name>
      </trkpt>
      <trkpt lat="50.8398630" lon="-1.8346590">
        <name>Sandy Lane</name>
      </trkpt>
      <trkpt lat="50.8398680" lon="-1.8347946">
        <name>Sandy Lane</name>
      </trkpt>
      <trkpt lat="50.8398730" lon="-1.8349302">
        <name>Sandy Lane</name>
      </trkpt>
      <trkpt lat="50.8398780" lon="-1.8350658">
        <name>Sandy Lane</name>
      </trkpt>
      <trkpt lat="50.8398830" lon="-1.8352014">
        <name>Sandy Lane</name>
      </trkpt>
      <trkpt lat="50.8398880" lon="-1.8353370">
        <name>Sandy Lane</name>
      </trkpt>
      <trkpt lat="50.8398927" lon="-1.8354607">
        <name>Sandy Lane</name>
      </trkpt>
      <trkpt lat="50.8398973" lon="-1.8355843">
        <name>Sandy Lane</name>
      </trkpt>
      <trkpt lat="50.8399020" lon="-1.8357080">
        <name>Sandy Lane</name>
      </trkpt>
      <trkpt lat="50.8399067" lon="-1.8358317">
        <name>Sandy Lane</name>
      </trkpt>
      <trkpt lat="50.8399113" lon="-1.8359553">
        <name>Sandy Lane</name>
      </trkpt>
      <trkpt lat="50.8399160" lon="-1.8360790">
        <name>Sandy Lane</name>
      </trkpt>
      <trkpt lat="50.8399200" lon="-1.8362056">
        <name>Sandy Lane</name>
      </trkpt>
      <trkpt lat="50.8399240" lon="-1.8363322">
        <name>Sandy Lane</name>
      </trkpt>
      <trkpt lat="50.8399280" lon="-1.8364588">
        <name>Sandy Lane</name>
      </trkpt>
      <trkpt lat="50.8399320" lon="-1.8365854">
        <name>Sandy Lane</name>
      </trkpt>
      <trkpt lat="50.8399360" lon="-1.8367120">
        <name>Sandy Lane</name>
      </trkpt>
      <trkpt lat="50.8399396" lon="-1.8368304">
        <name>Sandy Lane</name>
      </trkpt>
      <trkpt lat="50.8399432" lon="-1.8369488">
        <name>Sandy Lane</name>
      </trkpt>
      <trkpt lat="50.8399468" lon="-1.8370672">
        <name>Sandy Lane</name>
      </trkpt>
      <trkpt lat="50.8399504" lon="-1.8371856">
        <name>Sandy Lane</name>
      </trkpt>
      <trkpt lat="50.8399540" lon="-1.8373040">
        <name>Sandy Lane</name>
      </trkpt>
      <trkpt lat="50.8398790" lon="-1.8373130">
        <name>Sandy Lane</name>
      </trkpt>
      <trkpt lat="50.8398040" lon="-1.8373220">
        <name>Sandy Lane</name>
      </trkpt>
      <trkpt lat="50.8397290" lon="-1.8373310">
        <name>Sandy Lane</name>
      </trkpt>
      <trkpt lat="50.8396617" lon="-1.8373417">
        <name>Sandy Lane</name>
      </trkpt>
      <trkpt lat="50.8395943" lon="-1.8373523">
        <name>Sandy Lane</name>
      </trkpt>
      <trkpt lat="50.8395270" lon="-1.8373630">
        <name>Sandy Lane</name>
      </trkpt>
      <trkpt lat="50.8394465" lon="-1.8373800">
        <name>Sandy Lane</name>
      </trkpt>
      <trkpt lat="50.8393660" lon="-1.8373970">
        <name>Sandy Lane</name>
      </trkpt>
      <trkpt lat="50.8392910" lon="-1.8374240">
        <name>Sandy Lane</name>
      </trkpt>
      <trkpt lat="50.8392160" lon="-1.8374510">
        <name>Sandy Lane</name>
      </trkpt>
      <trkpt lat="50.8391570" lon="-1.8374720">
        <name>Sandy Lane</name>
      </trkpt>
      <trkpt lat="50.8390980" lon="-1.8374930">
        <name>Sandy Lane</name>
      </trkpt>
      <trkpt lat="50.8390230" lon="-1.8375310">
        <name>Sandy Lane</name>
      </trkpt>
      <trkpt lat="50.8389480" lon="-1.8375690">
        <name>Sandy Lane</name>
      </trkpt>
      <trkpt lat="50.8388730" lon="-1.8376070">
        <name>Sandy Lane</name>
      </trkpt>
      <trkpt lat="50.8388033" lon="-1.8376470">
        <name>Sandy Lane</name>
      </trkpt>
      <trkpt lat="50.8387337" lon="-1.8376870">
        <name>Sandy Lane</name>
      </trkpt>
      <trkpt lat="50.8386640" lon="-1.8377270">
        <name>Sandy Lane</name>
      </trkpt>
      <trkpt lat="50.8385820" lon="-1.8377827">
        <name>Sandy Lane</name>
      </trkpt>
      <trkpt lat="50.8385000" lon="-1.8378383">
        <name>Sandy Lane</name>
      </trkpt>
      <trkpt lat="50.8384180" lon="-1.8378940">
        <name>Sandy Lane</name>
      </trkpt>
      <trkpt lat="50.8383530" lon="-1.8379400">
        <name>Sandy Lane</name>
      </trkpt>
      <trkpt lat="50.8382805" lon="-1.8379916">
        <name>Sandy Lane</name>
      </trkpt>
      <trkpt lat="50.8382080" lon="-1.8380432">
        <name>Sandy Lane</name>
      </trkpt>
      <trkpt lat="50.8381355" lon="-1.8380949">
        <name>Sandy Lane</name>
      </trkpt>
      <trkpt lat="50.8380630" lon="-1.8381465">
        <name>Sandy Lane</name>
      </trkpt>
      <trkpt lat="50.8379905" lon="-1.8381981">
        <name>Sandy Lane</name>
      </trkpt>
      <trkpt lat="50.8379180" lon="-1.8382497">
        <name>Sandy Lane</name>
      </trkpt>
      <trkpt lat="50.8378455" lon="-1.8383014">
        <name>Sandy Lane</name>
      </trkpt>
      <trkpt lat="50.8377730" lon="-1.8383530">
        <name>Sandy Lane</name>
      </trkpt>
      <trkpt lat="50.8377295" lon="-1.8383850">
        <name>Sandy Lane</name>
      </trkpt>
      <trkpt lat="50.8376860" lon="-1.8384170">
        <name>Sandy Lane</name>
      </trkpt>
      <trkpt lat="50.8376330" lon="-1.8384525">
        <name>Sandy Lane</name>
      </trkpt>
      <trkpt lat="50.8375800" lon="-1.8384880">
        <name>Sandy Lane</name>
      </trkpt>
      <trkpt lat="50.8375077" lon="-1.8385260">
        <name>Sandy Lane</name>
      </trkpt>
      <trkpt lat="50.8374353" lon="-1.8385640">
        <name>Sandy Lane</name>
      </trkpt>
      <trkpt lat="50.8373630" lon="-1.8386020">
        <name>Sandy Lane</name>
      </trkpt>
      <trkpt lat="50.8372923" lon="-1.8386370">
        <name>Sandy Lane</name>
      </trkpt>
      <trkpt lat="50.8372217" lon="-1.8386720">
        <name>Sandy Lane</name>
      </trkpt>
      <trkpt lat="50.8371510" lon="-1.8387070">
        <name>Sandy Lane</name>
      </trkpt>
      <trkpt lat="50.8370935" lon="-1.8387290">
        <name>Sandy Lane</name>
      </trkpt>
      <trkpt lat="50.8370360" lon="-1.8387510">
        <name>Sandy Lane</name>
      </trkpt>
      <trkpt lat="50.8369665" lon="-1.8387770">
        <name>Sandy Lane</name>
      </trkpt>
      <trkpt lat="50.8368970" lon="-1.8388030">
        <name>Sandy Lane</name>
      </trkpt>
      <trkpt lat="50.8368107" lon="-1.8388267">
        <name>Sandy Lane</name>
      </trkpt>
      <trkpt lat="50.8367243" lon="-1.8388503">
        <name>Sandy Lane</name>
      </trkpt>
      <trkpt lat="50.8366380" lon="-1.8388740">
        <name>Sandy Lane</name>
      </trkpt>
      <trkpt lat="50.8365755" lon="-1.8388895">
        <name>Sandy Lane</name>
      </trkpt>
      <trkpt lat="50.8365130" lon="-1.8389050">
        <name>Sandy Lane</name>
      </trkpt>
      <trkpt lat="50.8364300" lon="-1.8389185">
        <name>Sandy Lane</name>
      </trkpt>
      <trkpt lat="50.8363470" lon="-1.8389320">
        <name>Sandy Lane</name>
      </trkpt>
      <trkpt lat="50.8362800" lon="-1.8389385">
        <name>Sandy Lane</name>
      </trkpt>
      <trkpt lat="50.8362130" lon="-1.8389450">
        <name>Sandy Lane</name>
      </trkpt>
      <trkpt lat="50.8361970" lon="-1.8389460">
        <name>Sandy Lane</name>
      </trkpt>
      <trkpt lat="50.8361250" lon="-1.8389475">
        <name>Sandy Lane</name>
      </trkpt>
      <trkpt lat="50.8360530" lon="-1.8389490">
        <name>Sandy Lane</name>
      </trkpt>
      <trkpt lat="50.8359650" lon="-1.8389500">
        <name>Sandy Lane</name>
      </trkpt>
      <trkpt lat="50.8359013" lon="-1.8389450">
        <name>Sandy Lane</name>
      </trkpt>
      <trkpt lat="50.8358377" lon="-1.8389400">
        <name>Sandy Lane</name>
      </trkpt>
      <trkpt lat="50.8357740" lon="-1.8389350">
        <name>Sandy Lane</name>
      </trkpt>
      <trkpt lat="50.8356970" lon="-1.8389220">
        <name>Sandy Lane</name>
      </trkpt>
      <trkpt lat="50.8356195" lon="-1.8389095">
        <name>Sandy Lane</name>
      </trkpt>
      <trkpt lat="50.8355420" lon="-1.8388970">
        <name>Sandy Lane</name>
      </trkpt>
      <trkpt lat="50.8354570" lon="-1.8388750">
        <name>Sandy Lane</name>
      </trkpt>
      <trkpt lat="50.8353975" lon="-1.8388595">
        <name>Sandy Lane</name>
      </trkpt>
      <trkpt lat="50.8353380" lon="-1.8388440">
        <name>Sandy Lane</name>
      </trkpt>
      <trkpt lat="50.8352535" lon="-1.8388135">
      </trkpt>
      <trkpt lat="50.8351690" lon="-1.8387830">
      </trkpt>
      <trkpt lat="50.8350895" lon="-1.8387440">
      </trkpt>
      <trkpt lat="50.8350100" lon="-1.8387050">
      </trkpt>
      <trkpt lat="50.8349470" lon="-1.8386677">
      </trkpt>
      <trkpt lat="50.8348840" lon="-1.8386303">
      </trkpt>
      <trkpt lat="50.8348210" lon="-1.8385930">
      </trkpt>
      <trkpt lat="50.8347860" lon="-1.8387090">
      </trkpt>
      <trkpt lat="50.8347510" lon="-1.8388250">
      </trkpt>
      <trkpt lat="50.8347157" lon="-1.8389337">
      </trkpt>
      <trkpt lat="50.8346803" lon="-1.8390423">
      </trkpt>
      <trkpt lat="50.8346450" lon="-1.8391510">
      </trkpt>
      <trkpt lat="50.8346044" lon="-1.8392753">
      </trkpt>
      <trkpt lat="50.8345638" lon="-1.8393997">
      </trkpt>
      <trkpt lat="50.8345233" lon="-1.8395240">
      </trkpt>
      <trkpt lat="50.8344827" lon="-1.8396483">
      </trkpt>
      <trkpt lat="50.8344421" lon="-1.8397727">
      </trkpt>
      <trkpt lat="50.8344015" lon="-1.8398970">
      </trkpt>
      <trkpt lat="50.8343609" lon="-1.8400213">
      </trkpt>
      <trkpt lat="50.8343203" lon="-1.8401457">
      </trkpt>
      <trkpt lat="50.8342798" lon="-1.8402700">
      </trkpt>
      <trkpt lat="50.8342392" lon="-1.8403943">
      </trkpt>
      <trkpt lat="50.8341986" lon="-1.8405187">
      </trkpt>
      <trkpt lat="50.8341580" lon="-1.8406430">
      </trkpt>
      <trkpt lat="50.8341217" lon="-1.8407541">
      </trkpt>
      <trkpt lat="50.8340854" lon="-1.8408653">
      </trkpt>
      <trkpt lat="50.8340491" lon="-1.8409764">
      </trkpt>
      <trkpt lat="50.8340129" lon="-1.8410876">
      </trkpt>
      <trkpt lat="50.8339766" lon="-1.8411987">
      </trkpt>
      <trkpt lat="50.8339403" lon="-1.8413099">
      </trkpt>
      <trkpt lat="50.8339040" lon="-1.8414210">
      </trkpt>
      <trkpt lat="50.8338654" lon="-1.8415485">
      </trkpt>
      <trkpt lat="50.8338268" lon="-1.8416760">
      </trkpt>
      <trkpt lat="50.8337881" lon="-1.8418035">
      </trkpt>
      <trkpt lat="50.8337495" lon="-1.8419310">
      </trkpt>
      <trkpt lat="50.8337109" lon="-1.8420585">
      </trkpt>
      <trkpt lat="50.8336722" lon="-1.8421860">
      </trkpt>
      <trkpt lat="50.8336336" lon="-1.8423135">
      </trkpt>
      <trkpt lat="50.8335950" lon="-1.8424410">
      </trkpt>
      <trkpt lat="50.8335606" lon="-1.8425540">
      </trkpt>
      <trkpt lat="50.8335262" lon="-1.8426670">
      </trkpt>
      <trkpt lat="50.8334918" lon="-1.8427800">
      </trkpt>
      <trkpt lat="50.8334574" lon="-1.8428930">
      </trkpt>
      <trkpt lat="50.8334230" lon="-1.8430060">
      </trkpt>
      <trkpt lat="50.8333419" lon="-1.8429676">
      </trkpt>
      <trkpt lat="50.8332608" lon="-1.8429291">
      </trkpt>
      <trkpt lat="50.8331797" lon="-1.8428907">
      </trkpt>
      <trkpt lat="50.8330986" lon="-1.8428522">
      </trkpt>
      <trkpt lat="50.8330174" lon="-1.8428138">
      </trkpt>
      <trkpt lat="50.8329363" lon="-1.8427753">
      </trkpt>
      <trkpt lat="50.8328552" lon="-1.8427369">
      </trkpt>
      <trkpt lat="50.8327741" lon="-1.8426984">
      </trkpt>
      <trkpt lat="50.8326930" lon="-1.8426600">
      </trkpt>
      <trkpt lat="50.8326127" lon="-1.8426220">
      </trkpt>
      <trkpt lat="50.8325323" lon="-1.8425840">
      </trkpt>
      <trkpt lat="50.8324520" lon="-1.8425460">
      </trkpt>
      <trkpt lat="50.8323717" lon="-1.8425080">
      </trkpt>
      <trkpt lat="50.8322913" lon="-1.8424700">
      </trkpt>
      <trkpt lat="50.8322110" lon="-1.8424320">
      </trkpt>
      <trkpt lat="50.8321307" lon="-1.8423940">
      </trkpt>
      <trkpt lat="50.8320503" lon="-1.8423560">
      </trkpt>
      <trkpt lat="50.8319700" lon="-1.8423180">
      </trkpt>
    </trkseg>
  </trk>
</gpx>