<?xml version="1.0" encoding="UTF-8"?>
<gpx version="1.1" creator="TurboSanta Route Planner">
  <trk>
    <name>TurboSanta Route (10m density)</name>
    <trkseg>
      <trkpt lat="50.8084210" lon="-1.8775320">
        <name>Turbary Road</name>
      </trkpt>
      <trkpt lat="50.8083930" lon="-1.8774270">
        <name>Turbary Road</name>
      </trkpt>
      <trkpt lat="50.8083645" lon="-1.8773228">
        <name>Turbary Road</name>
      </trkpt>
      <trkpt lat="50.8083360" lon="-1.8772185">
        <name>Turbary Road</name>
      </trkpt>
      <trkpt lat="50.8083075" lon="-1.8771142">
        <name>Turbary Road</name>
      </trkpt>
      <trkpt lat="50.8082790" lon="-1.8770100">
        <name>Turbary Road</name>
      </trkpt>
      <trkpt lat="50.8082550" lon="-1.8769260">
        <name>Turbary Road</name>
      </trkpt>
      <trkpt lat="50.8082328" lon="-1.8767967">
        <name>Turbary Road</name>
      </trkpt>
      <trkpt lat="50.8082107" lon="-1.8766673">
        <name>Turbary Road</name>
      </trkpt>
      <trkpt lat="50.8081885" lon="-1.8765380">
        <name>Turbary Road</name>
      </trkpt>
      <trkpt lat="50.8081663" lon="-1.8764087">
        <name>Turbary Road</name>
      </trkpt>
      <trkpt lat="50.8081442" lon="-1.8762793">
        <name>Turbary Road</name>
      </trkpt>
      <trkpt lat="50.8081220" lon="-1.8761500">
        <name>Turbary Road</name>
      </trkpt>
      <trkpt lat="50.8080947" lon="-1.8760382">
        <name>Turbary Road</name>
      </trkpt>
      <trkpt lat="50.8080675" lon="-1.8759265">
        <name>Turbary Road</name>
      </trkpt>
      <trkpt lat="50.8080403" lon="-1.8758147">
        <name>Turbary Road</name>
      </trkpt>
      <trkpt lat="50.8080130" lon="-1.8757030">
        <name>Turbary Road</name>
      </trkpt>
      <trkpt lat="50.8079812" lon="-1.8755803">
        <name>Turbary Road</name>
      </trkpt>
      <trkpt lat="50.8079493" lon="-1.8754577">
        <name>Turbary Road</name>
      </trkpt>
      <trkpt lat="50.8079175" lon="-1.8753350">
        <name>Turbary Road</name>
      </trkpt>
      <trkpt lat="50.8078857" lon="-1.8752123">
        <name>Turbary Road</name>
      </trkpt>
      <trkpt lat="50.8078538" lon="-1.8750897">
        <name>Turbary Road</name>
      </trkpt>
      <trkpt lat="50.8078220" lon="-1.8749670">
        <name>Turbary Road</name>
      </trkpt>
      <trkpt lat="50.8077915" lon="-1.8748395">
        <name>Turbary Road</name>
      </trkpt>
      <trkpt lat="50.8077610" lon="-1.8747120">
        <name>Turbary Road</name>
      </trkpt>
      <trkpt lat="50.8077440" lon="-1.8746410">
        <name>Turbary Road</name>
      </trkpt>
      <trkpt lat="50.8077270" lon="-1.8745700">
        <name>Turbary Road</name>
      </trkpt>
      <trkpt lat="50.8077157" lon="-1.8744427">
        <name>Turbary Road</name>
      </trkpt>
      <trkpt lat="50.8077043" lon="-1.8743153">
        <name>Turbary Road</name>
      </trkpt>
      <trkpt lat="50.8076930" lon="-1.8741880">
        <name>Turbary Road</name>
      </trkpt>
      <trkpt lat="50.8076220" lon="-1.8742017">
        <name>Turbary Road</name>
      </trkpt>
      <trkpt lat="50.8075510" lon="-1.8742153">
        <name>Turbary Road</name>
      </trkpt>
      <trkpt lat="50.8074800" lon="-1.8742290">
        <name>Turbary Road</name>
      </trkpt>
      <trkpt lat="50.8073910" lon="-1.8742465">
        <name>Turbary Road</name>
      </trkpt>
      <trkpt lat="50.8073020" lon="-1.8742640">
        <name>Turbary Road</name>
      </trkpt>
      <trkpt lat="50.8072495" lon="-1.8742740">
        <name>Turbary Road</name>
      </trkpt>
      <trkpt lat="50.8071970" lon="-1.8742840">
        <name>Turbary Road</name>
      </trkpt>
      <trkpt lat="50.8071330" lon="-1.8742740">
        <name>Lockyers Drive</name>
      </trkpt>
      <trkpt lat="50.8070690" lon="-1.8742640">
        <name>Lockyers Drive</name>
      </trkpt>
      <trkpt lat="50.8070160" lon="-1.8742445">
        <name>Lockyers Drive</name>
      </trkpt>
      <trkpt lat="50.8069630" lon="-1.8742250">
        <name>Lockyers Drive</name>
      </trkpt>
      <trkpt lat="50.8069057" lon="-1.8741590">
        <name>Lockyers Drive</name>
      </trkpt>
      <trkpt lat="50.8068483" lon="-1.8740930">
        <name>Lockyers Drive</name>
      </trkpt>
      <trkpt lat="50.8067910" lon="-1.8740270">
        <name>Lockyers Drive</name>
      </trkpt>
      <trkpt lat="50.8067520" lon="-1.8739477">
        <name>Lockyers Drive</name>
      </trkpt>
      <trkpt lat="50.8067130" lon="-1.8738683">
        <name>Lockyers Drive</name>
      </trkpt>
      <trkpt lat="50.8066740" lon="-1.8737890">
        <name>Lockyers Drive</name>
      </trkpt>
      <trkpt lat="50.8066620" lon="-1.8737650">
        <name>Lockyers Drive</name>
      </trkpt>
      <trkpt lat="50.8066388" lon="-1.8736427">
        <name>Lockyers Drive</name>
      </trkpt>
      <trkpt lat="50.8066155" lon="-1.8735205">
        <name>Lockyers Drive</name>
      </trkpt>
      <trkpt lat="50.8065923" lon="-1.8733982">
        <name>Lockyers Drive</name>
      </trkpt>
      <trkpt lat="50.8065690" lon="-1.8732760">
        <name>Lockyers Drive</name>
      </trkpt>
      <trkpt lat="50.8065441" lon="-1.8731457">
        <name>Lockyers Drive</name>
      </trkpt>
      <trkpt lat="50.8065192" lon="-1.8730153">
        <name>Lockyers Drive</name>
      </trkpt>
      <trkpt lat="50.8064943" lon="-1.8728850">
        <name>Lockyers Drive</name>
      </trkpt>
      <trkpt lat="50.8064694" lon="-1.8727547">
        <name>Lockyers Drive</name>
      </trkpt>
      <trkpt lat="50.8064446" lon="-1.8726243">
        <name>Lockyers Drive</name>
      </trkpt>
      <trkpt lat="50.8064197" lon="-1.8724940">
        <name>Lockyers Drive</name>
      </trkpt>
      <trkpt lat="50.8063948" lon="-1.8723637">
        <name>Lockyers Drive</name>
      </trkpt>
      <trkpt lat="50.8063699" lon="-1.8722333">
        <name>Lockyers Drive</name>
      </trkpt>
      <trkpt lat="50.8063450" lon="-1.8721030">
        <name>Lockyers Drive</name>
      </trkpt>
      <trkpt lat="50.8063033" lon="-1.8720110">
        <name>Lockyers Drive</name>
      </trkpt>
      <trkpt lat="50.8062617" lon="-1.8719190">
        <name>Lockyers Drive</name>
      </trkpt>
      <trkpt lat="50.8062200" lon="-1.8718270">
        <name>Lockyers Drive</name>
      </trkpt>
      <trkpt lat="50.8061730" lon="-1.8717510">
        <name>Lockyers Drive</name>
      </trkpt>
      <trkpt lat="50.8061260" lon="-1.8716750">
        <name>Lockyers Drive</name>
      </trkpt>
      <trkpt lat="50.8061220" lon="-1.8716620">
        <name>Lockyers Drive</name>
      </trkpt>
      <trkpt lat="50.8060980" lon="-1.8715915">
        <name>Lockyers Drive</name>
      </trkpt>
      <trkpt lat="50.8060740" lon="-1.8715210">
        <name>Lockyers Drive</name>
      </trkpt>
      <trkpt lat="50.8060690" lon="-1.8713985">
        <name>Lockyers Drive</name>
      </trkpt>
      <trkpt lat="50.8060640" lon="-1.8712760">
        <name>Lockyers Drive</name>
      </trkpt>
      <trkpt lat="50.8060700" lon="-1.8711680">
        <name>Lockyers Drive</name>
      </trkpt>
      <trkpt lat="50.8060760" lon="-1.8710600">
        <name>Lockyers Drive</name>
      </trkpt>
      <trkpt lat="50.8059995" lon="-1.8710607">
        <name>Lockyers Drive</name>
      </trkpt>
      <trkpt lat="50.8059230" lon="-1.8710615">
        <name>Lockyers Drive</name>
      </trkpt>
      <trkpt lat="50.8058465" lon="-1.8710623">
        <name>Lockyers Drive</name>
      </trkpt>
      <trkpt lat="50.8057700" lon="-1.8710630">
        <name>Lockyers Drive</name>
      </trkpt>
      <trkpt lat="50.8056818" lon="-1.8710637">
        <name>Lockyers Drive</name>
      </trkpt>
      <trkpt lat="50.8055935" lon="-1.8710645">
        <name>Lockyers Drive</name>
      </trkpt>
      <trkpt lat="50.8055052" lon="-1.8710653">
        <name>Lockyers Drive</name>
      </trkpt>
      <trkpt lat="50.8054170" lon="-1.8710660">
        <name>Lockyers Drive</name>
      </trkpt>
      <trkpt lat="50.8053525" lon="-1.8710665">
        <name>Lockyers Drive</name>
      </trkpt>
      <trkpt lat="50.8052880" lon="-1.8710670">
        <name>Lockyers Drive</name>
      </trkpt>
      <trkpt lat="50.8052183" lon="-1.8710393">
        <name>Lockyers Drive</name>
      </trkpt>
      <trkpt lat="50.8051487" lon="-1.8710117">
        <name>Lockyers Drive</name>
      </trkpt>
      <trkpt lat="50.8050790" lon="-1.8709840">
        <name>Lockyers Drive</name>
      </trkpt>
      <trkpt lat="50.8050390" lon="-1.8709610">
        <name>Lockyers Drive</name>
      </trkpt>
      <trkpt lat="50.8049855" lon="-1.8709310">
        <name>Lockyers Drive</name>
      </trkpt>
      <trkpt lat="50.8049320" lon="-1.8709010">
        <name>Lockyers Drive</name>
      </trkpt>
      <trkpt lat="50.8049020" lon="-1.8708740">
        <name>Lockyers Drive</name>
      </trkpt>
      <trkpt lat="50.8048425" lon="-1.8708215">
        <name>Lockyers Drive</name>
      </trkpt>
      <trkpt lat="50.8047830" lon="-1.8707690">
        <name>Lockyers Drive</name>
      </trkpt>
      <trkpt lat="50.8047480" lon="-1.8706813">
        <name>Lockyers Drive</name>
      </trkpt>
      <trkpt lat="50.8047130" lon="-1.8705937">
        <name>Lockyers Drive</name>
      </trkpt>
      <trkpt lat="50.8046780" lon="-1.8705060">
        <name>Lockyers Drive</name>
      </trkpt>
      <trkpt lat="50.8046595" lon="-1.8703785">
        <name>Lockyers Drive</name>
      </trkpt>
      <trkpt lat="50.8046410" lon="-1.8702510">
        <name>Lockyers Drive</name>
      </trkpt>
      <trkpt lat="50.8046340" lon="-1.8701710">
        <name>Lockyers Drive</name>
      </trkpt>
      <trkpt lat="50.8046270" lon="-1.8700910">
        <name>Lockyers Drive</name>
      </trkpt>
      <trkpt lat="50.8046160" lon="-1.8699500">
        <name>Lockyers Drive</name>
      </trkpt>
      <trkpt lat="50.8046066" lon="-1.8698336">
        <name>Lockyers Drive</name>
      </trkpt>
      <trkpt lat="50.8045972" lon="-1.8697172">
        <name>Lockyers Drive</name>
      </trkpt>
      <trkpt lat="50.8045878" lon="-1.8696008">
        <name>Lockyers Drive</name>
      </trkpt>
      <trkpt lat="50.8045784" lon="-1.8694844">
        <name>Lockyers Drive</name>
      </trkpt>
      <trkpt lat="50.8045690" lon="-1.8693680">
        <name>Lockyers Drive</name>
      </trkpt>
      <trkpt lat="50.8045590" lon="-1.8692454">
        <name>Barns Road</name>
      </trkpt>
      <trkpt lat="50.8045490" lon="-1.8691228">
        <name>Barns Road</name>
      </trkpt>
      <trkpt lat="50.8045390" lon="-1.8690002">
        <name>Barns Road</name>
      </trkpt>
      <trkpt lat="50.8045290" lon="-1.8688776">
        <name>Barns Road</name>
      </trkpt>
      <trkpt lat="50.8045190" lon="-1.8687550">
        <name>Barns Road</name>
      </trkpt>
      <trkpt lat="50.8045085" lon="-1.8686323">
        <name>Barns Road</name>
      </trkpt>
      <trkpt lat="50.8044980" lon="-1.8685097">
        <name>Barns Road</name>
      </trkpt>
      <trkpt lat="50.8044875" lon="-1.8683870">
        <name>Barns Road</name>
      </trkpt>
      <trkpt lat="50.8044770" lon="-1.8682643">
        <name>Barns Road</name>
      </trkpt>
      <trkpt lat="50.8044665" lon="-1.8681417">
        <name>Barns Road</name>
      </trkpt>
      <trkpt lat="50.8044560" lon="-1.8680190">
        <name>Barns Road</name>
      </trkpt>
      <trkpt lat="50.8044470" lon="-1.8679137">
        <name>Barns Road</name>
      </trkpt>
      <trkpt lat="50.8044380" lon="-1.8678083">
        <name>Barns Road</name>
      </trkpt>
      <trkpt lat="50.8044290" lon="-1.8677030">
        <name>Barns Road</name>
      </trkpt>
      <trkpt lat="50.8044160" lon="-1.8675727">
        <name>Barns Road</name>
      </trkpt>
      <trkpt lat="50.8044030" lon="-1.8674425">
        <name>Barns Road</name>
      </trkpt>
      <trkpt lat="50.8043900" lon="-1.8673122">
        <name>Barns Road</name>
      </trkpt>
      <trkpt lat="50.8043770" lon="-1.8671820">
        <name>Barns Road</name>
      </trkpt>
      <trkpt lat="50.8043690" lon="-1.8670620">
        <name>Barns Road</name>
      </trkpt>
      <trkpt lat="50.8043690" lon="-1.8670270">
        <name>Barns Road</name>
      </trkpt>
      <trkpt lat="50.8043730" lon="-1.8669980">
        <name>Barns Road</name>
      </trkpt>
      <trkpt lat="50.8043900" lon="-1.8669520">
        <name>Barns Road</name>
      </trkpt>
      <trkpt lat="50.8044100" lon="-1.8669250">
        <name>Barns Road</name>
      </trkpt>
      <trkpt lat="50.8044250" lon="-1.8669090">
        <name>Barns Road</name>
      </trkpt>
      <trkpt lat="50.8044400" lon="-1.8668930">
        <name>Barns Road</name>
      </trkpt>
      <trkpt lat="50.8044660" lon="-1.8668790">
        <name>Barns Road</name>
      </trkpt>
      <trkpt lat="50.8044890" lon="-1.8668770">
        <name>Barns Road</name>
      </trkpt>
      <trkpt lat="50.8045365" lon="-1.8668880">
        <name>Barns Road</name>
      </trkpt>
      <trkpt lat="50.8045840" lon="-1.8668990">
        <name>Barns Road</name>
      </trkpt>
      <trkpt lat="50.8046570" lon="-1.8669220">
        <name>Barns Road</name>
      </trkpt>
      <trkpt lat="50.8047385" lon="-1.8669480">
        <name>Barns Road</name>
      </trkpt>
      <trkpt lat="50.8048200" lon="-1.8669740">
        <name>Barns Road</name>
      </trkpt>
      <trkpt lat="50.8049043" lon="-1.8670068">
        <name>Barns Road</name>
      </trkpt>
      <trkpt lat="50.8049887" lon="-1.8670396">
        <name>Barns Road</name>
      </trkpt>
      <trkpt lat="50.8050730" lon="-1.8670723">
        <name>Barns Road</name>
      </trkpt>
      <trkpt lat="50.8051573" lon="-1.8671051">
        <name>Barns Road</name>
      </trkpt>
      <trkpt lat="50.8052417" lon="-1.8671379">
        <name>Barns Road</name>
      </trkpt>
      <trkpt lat="50.8053260" lon="-1.8671707">
        <name>Barns Road</name>
      </trkpt>
      <trkpt lat="50.8054103" lon="-1.8672034">
        <name>Barns Road</name>
      </trkpt>
      <trkpt lat="50.8054947" lon="-1.8672362">
        <name>Barns Road</name>
      </trkpt>
      <trkpt lat="50.8055790" lon="-1.8672690">
        <name>Barns Road</name>
      </trkpt>
      <trkpt lat="50.8056417" lon="-1.8673233">
        <name>Barns Road</name>
      </trkpt>
      <trkpt lat="50.8057045" lon="-1.8673775">
        <name>Barns Road</name>
      </trkpt>
      <trkpt lat="50.8057673" lon="-1.8674317">
        <name>Barns Road</name>
      </trkpt>
      <trkpt lat="50.8058300" lon="-1.8674860">
        <name>Barns Road</name>
      </trkpt>
      <trkpt lat="50.8059072" lon="-1.8675526">
        <name>Barns Road</name>
      </trkpt>
      <trkpt lat="50.8059844" lon="-1.8676192">
        <name>Barns Road</name>
      </trkpt>
      <trkpt lat="50.8060616" lon="-1.8676858">
        <name>Barns Road</name>
      </trkpt>
      <trkpt lat="50.8061388" lon="-1.8677524">
        <name>Barns Road</name>
      </trkpt>
      <trkpt lat="50.8062160" lon="-1.8678190">
        <name>Barns Road</name>
      </trkpt>
      <trkpt lat="50.8062798" lon="-1.8678740">
        <name>Barns Road</name>
      </trkpt>
      <trkpt lat="50.8063436" lon="-1.8679290">
        <name>Barns Road</name>
      </trkpt>
      <trkpt lat="50.8064074" lon="-1.8679840">
        <name>Barns Road</name>
      </trkpt>
      <trkpt lat="50.8064712" lon="-1.8680390">
        <name>Barns Road</name>
      </trkpt>
      <trkpt lat="50.8065350" lon="-1.8680940">
        <name>Barns Road</name>
      </trkpt>
      <trkpt lat="50.8066049" lon="-1.8681544">
        <name>Barns Road</name>
      </trkpt>
      <trkpt lat="50.8066747" lon="-1.8682147">
        <name>Barns Road</name>
      </trkpt>
      <trkpt lat="50.8067446" lon="-1.8682751">
        <name>Barns Road</name>
      </trkpt>
      <trkpt lat="50.8068145" lon="-1.8683355">
        <name>Barns Road</name>
      </trkpt>
      <trkpt lat="50.8068844" lon="-1.8683959">
        <name>Barns Road</name>
      </trkpt>
      <trkpt lat="50.8069542" lon="-1.8684562">
        <name>Barns Road</name>
      </trkpt>
      <trkpt lat="50.8070241" lon="-1.8685166">
        <name>Barns Road</name>
      </trkpt>
      <trkpt lat="50.8070940" lon="-1.8685770">
        <name>Barns Road</name>
      </trkpt>
      <trkpt lat="50.8071420" lon="-1.8686185">
        <name>Barns Road</name>
      </trkpt>
      <trkpt lat="50.8071900" lon="-1.8686600">
        <name>Barns Road</name>
      </trkpt>
      <trkpt lat="50.8072597" lon="-1.8686897">
        <name>Barns Road</name>
      </trkpt>
      <trkpt lat="50.8073293" lon="-1.8687193">
        <name>Barns Road</name>
      </trkpt>
      <trkpt lat="50.8073990" lon="-1.8687490">
        <name>Barns Road</name>
      </trkpt>
      <trkpt lat="50.8074777" lon="-1.8687567">
        <name>Barns Road</name>
      </trkpt>
      <trkpt lat="50.8075563" lon="-1.8687643">
        <name>Barns Road</name>
      </trkpt>
      <trkpt lat="50.8076350" lon="-1.8687720">
        <name>Barns Road</name>
      </trkpt>
      <trkpt lat="50.8076955" lon="-1.8687700">
        <name>Barns Road</name>
      </trkpt>
      <trkpt lat="50.8077560" lon="-1.8687680">
        <name>Barns Road</name>
      </trkpt>
      <trkpt lat="50.8078310" lon="-1.8687650">
        <name>Barns Road</name>
      </trkpt>
      <trkpt lat="50.8078840" lon="-1.8688090">
        <name>Barns Road</name>
      </trkpt>
      <trkpt lat="50.8079060" lon="-1.8688810">
        <name>Barns Road</name>
      </trkpt>
      <trkpt lat="50.8079110" lon="-1.8689855">
        <name>Barns Road</name>
      </trkpt>
      <trkpt lat="50.8079160" lon="-1.8690900">
        <name>Barns Road</name>
      </trkpt>
      <trkpt lat="50.8079200" lon="-1.8691150">
        <name>Barns Road</name>
      </trkpt>
      <trkpt lat="50.8079355" lon="-1.8692155">
        <name>Barns Road</name>
      </trkpt>
      <trkpt lat="50.8079510" lon="-1.8693160">
        <name>Barns Road</name>
      </trkpt>
      <trkpt lat="50.8079895" lon="-1.8694095">
        <name>Humber Road</name>
      </trkpt>
      <trkpt lat="50.8080280" lon="-1.8695030">
        <name>Humber Road</name>
      </trkpt>
      <trkpt lat="50.8080725" lon="-1.8696205">
        <name>Humber Road</name>
      </trkpt>
      <trkpt lat="50.8081170" lon="-1.8697380">
        <name>Humber Road</name>
      </trkpt>
      <trkpt lat="50.8081590" lon="-1.8698502">
        <name>Humber Road</name>
      </trkpt>
      <trkpt lat="50.8082010" lon="-1.8699623">
        <name>Humber Road</name>
      </trkpt>
      <trkpt lat="50.8082430" lon="-1.8700745">
        <name>Humber Road</name>
      </trkpt>
      <trkpt lat="50.8082850" lon="-1.8701867">
        <name>Humber Road</name>
      </trkpt>
      <trkpt lat="50.8083270" lon="-1.8702988">
        <name>Humber Road</name>
      </trkpt>
      <trkpt lat="50.8083690" lon="-1.8704110">
        <name>Humber Road</name>
      </trkpt>
      <trkpt lat="50.8084033" lon="-1.8705027">
        <name>Humber Road</name>
      </trkpt>
      <trkpt lat="50.8084377" lon="-1.8705943">
        <name>Humber Road</name>
      </trkpt>
      <trkpt lat="50.8084720" lon="-1.8706860">
        <name>Humber Road</name>
      </trkpt>
      <trkpt lat="50.8083960" lon="-1.8707487">
        <name>Humber Road</name>
      </trkpt>
      <trkpt lat="50.8083200" lon="-1.8708113">
        <name>Humber Road</name>
      </trkpt>
      <trkpt lat="50.8082440" lon="-1.8708740">
        <name>Humber Road</name>
      </trkpt>
      <trkpt lat="50.8081850" lon="-1.8709225">
        <name>Humber Road</name>
      </trkpt>
      <trkpt lat="50.8081260" lon="-1.8709710">
        <name>Humber Road</name>
      </trkpt>
      <trkpt lat="50.8080915" lon="-1.8710190">
        <name>Humber Road</name>
      </trkpt>
      <trkpt lat="50.8080570" lon="-1.8710670">
        <name>Humber Road</name>
      </trkpt>
      <trkpt lat="50.8080130" lon="-1.8711910">
        <name>Humber Road</name>
      </trkpt>
      <trkpt lat="50.8080020" lon="-1.8712940">
        <name>Humber Road</name>
      </trkpt>
      <trkpt lat="50.8079910" lon="-1.8713970">
        <name>Humber Road</name>
      </trkpt>
      <trkpt lat="50.8080100" lon="-1.8715173">
        <name>Humber Road</name>
      </trkpt>
      <trkpt lat="50.8080290" lon="-1.8716377">
        <name>Humber Road</name>
      </trkpt>
      <trkpt lat="50.8080480" lon="-1.8717580">
        <name>Humber Road</name>
      </trkpt>
      <trkpt lat="50.8080570" lon="-1.8718170">
        <name>Humber Road</name>
      </trkpt>
      <trkpt lat="50.8080830" lon="-1.8719432">
        <name>Humber Road</name>
      </trkpt>
      <trkpt lat="50.8081090" lon="-1.8720693">
        <name>Humber Road</name>
      </trkpt>
      <trkpt lat="50.8081350" lon="-1.8721955">
        <name>Humber Road</name>
      </trkpt>
      <trkpt lat="50.8081610" lon="-1.8723217">
        <name>Humber Road</name>
      </trkpt>
      <trkpt lat="50.8081870" lon="-1.8724478">
        <name>Humber Road</name>
      </trkpt>
      <trkpt lat="50.8082130" lon="-1.8725740">
        <name>Humber Road</name>
      </trkpt>
      <trkpt lat="50.8082360" lon="-1.8726970">
        <name>Humber Road</name>
      </trkpt>
      <trkpt lat="50.8082590" lon="-1.8728200">
        <name>Humber Road</name>
      </trkpt>
      <trkpt lat="50.8082775" lon="-1.8729585">
        <name>Humber Road</name>
      </trkpt>
      <trkpt lat="50.8082960" lon="-1.8730970">
        <name>Humber Road</name>
      </trkpt>
      <trkpt lat="50.8083125" lon="-1.8732210">
        <name>Humber Road</name>
      </trkpt>
      <trkpt lat="50.8083290" lon="-1.8733450">
        <name>Humber Road</name>
      </trkpt>
      <trkpt lat="50.8083455" lon="-1.8734690">
        <name>Humber Road</name>
      </trkpt>
      <trkpt lat="50.8083620" lon="-1.8735930">
        <name>Humber Road</name>
      </trkpt>
      <trkpt lat="50.8083758" lon="-1.8736980">
        <name>Humber Road</name>
      </trkpt>
      <trkpt lat="50.8083895" lon="-1.8738030">
        <name>Humber Road</name>
      </trkpt>
      <trkpt lat="50.8084032" lon="-1.8739080">
        <name>Humber Road</name>
      </trkpt>
      <trkpt lat="50.8084170" lon="-1.8740130">
        <name>Humber Road</name>
      </trkpt>
      <trkpt lat="50.8083302" lon="-1.8740340">
        <name>Humber Road</name>
      </trkpt>
      <trkpt lat="50.8082434" lon="-1.8740550">
        <name>Humber Road</name>
      </trkpt>
      <trkpt lat="50.8081566" lon="-1.8740760">
        <name>Humber Road</name>
      </trkpt>
      <trkpt lat="50.8080698" lon="-1.8740970">
        <name>Humber Road</name>
      </trkpt>
      <trkpt lat="50.8079830" lon="-1.8741180">
        <name>Humber Road</name>
      </trkpt>
      <trkpt lat="50.8079105" lon="-1.8741355">
        <name>Humber Road</name>
      </trkpt>
      <trkpt lat="50.8078380" lon="-1.8741530">
        <name>Humber Road</name>
      </trkpt>
      <trkpt lat="50.8077655" lon="-1.8741705">
        <name>Humber Road</name>
      </trkpt>
      <trkpt lat="50.8076930" lon="-1.8741880">
        <name>Humber Road</name>
      </trkpt>
      <trkpt lat="50.8077043" lon="-1.8743153">
        <name>Humber Road</name>
      </trkpt>
      <trkpt lat="50.8077157" lon="-1.8744427">
        <name>Humber Road</name>
      </trkpt>
      <trkpt lat="50.8077270" lon="-1.8745700">
        <name>Humber Road</name>
      </trkpt>
      <trkpt lat="50.8077587" lon="-1.8747023">
        <name>Humber Road</name>
      </trkpt>
      <trkpt lat="50.8077903" lon="-1.8748347">
        <name>Humber Road</name>
      </trkpt>
      <trkpt lat="50.8078220" lon="-1.8749670">
        <name>Humber Road</name>
      </trkpt>
      <trkpt lat="50.8078400" lon="-1.8750355">
        <name>Humber Road</name>
      </trkpt>
      <trkpt lat="50.8078580" lon="-1.8751040">
        <name>Humber Road</name>
      </trkpt>
      <trkpt lat="50.8078890" lon="-1.8752238">
        <name>Humber Road</name>
      </trkpt>
      <trkpt lat="50.8079200" lon="-1.8753436">
        <name>Humber Road</name>
      </trkpt>
      <trkpt lat="50.8079510" lon="-1.8754634">
        <name>Humber Road</name>
      </trkpt>
      <trkpt lat="50.8079820" lon="-1.8755832">
        <name>Humber Road</name>
      </trkpt>
      <trkpt lat="50.8080130" lon="-1.8757030">
        <name>Humber Road</name>
      </trkpt>
      <trkpt lat="50.8080403" lon="-1.8758147">
        <name>Humber Road</name>
      </trkpt>
      <trkpt lat="50.8080675" lon="-1.8759265">
        <name>Humber Road</name>
      </trkpt>
      <trkpt lat="50.8080947" lon="-1.8760382">
        <name>Humber Road</name>
      </trkpt>
      <trkpt lat="50.8081220" lon="-1.8761500">
        <name>Humber Road</name>
      </trkpt>
      <trkpt lat="50.8081442" lon="-1.8762793">
        <name>Humber Road</name>
      </trkpt>
      <trkpt lat="50.8081663" lon="-1.8764087">
        <name>Humber Road</name>
      </trkpt>
      <trkpt lat="50.8081885" lon="-1.8765380">
        <name>Humber Road</name>
      </trkpt>
      <trkpt lat="50.8082107" lon="-1.8766673">
        <name>Humber Road</name>
      </trkpt>
      <trkpt lat="50.8082328" lon="-1.8767967">
        <name>Humber Road</name>
      </trkpt>
      <trkpt lat="50.8082550" lon="-1.8769260">
        <name>Humber Road</name>
      </trkpt>
      <trkpt lat="50.8082790" lon="-1.8770100">
        <name>Humber Road</name>
      </trkpt>
      <trkpt lat="50.8083093" lon="-1.8771207">
        <name>Humber Road</name>
      </trkpt>
      <trkpt lat="50.8083397" lon="-1.8772313">
        <name>Humber Road</name>
      </trkpt>
      <trkpt lat="50.8083700" lon="-1.8773420">
        <name>Humber Road</name>
      </trkpt>
    </trkseg>
  </trk>
</gpx>