<?xml version="1.0" encoding="UTF-8"?>
<gpx version="1.1" creator="TurboSanta Route Planner">
  <trk>
    <name>TurboSanta Route (10m density)</name>
    <trkseg>
      <trkpt lat="50.8270210" lon="-1.7025100">
      </trkpt>
      <trkpt lat="50.8270300" lon="-1.7024870">
      </trkpt>
      <trkpt lat="50.8269733" lon="-1.7024187">
        <name>Ringwood Road</name>
      </trkpt>
      <trkpt lat="50.8269167" lon="-1.7023503">
        <name>Ringwood Road</name>
      </trkpt>
      <trkpt lat="50.8268600" lon="-1.7022820">
        <name>Ringwood Road</name>
      </trkpt>
      <trkpt lat="50.8268050" lon="-1.7022220">
        <name>Ringwood Road</name>
      </trkpt>
      <trkpt lat="50.8267430" lon="-1.7021530">
        <name>Ringwood Road</name>
      </trkpt>
      <trkpt lat="50.8266935" lon="-1.7020870">
        <name>Ringwood Road</name>
      </trkpt>
      <trkpt lat="50.8266440" lon="-1.7020210">
        <name>Ringwood Road</name>
      </trkpt>
      <trkpt lat="50.8266085" lon="-1.7019560">
        <name>Ringwood Road</name>
      </trkpt>
      <trkpt lat="50.8265730" lon="-1.7018910">
        <name>Ringwood Road</name>
      </trkpt>
      <trkpt lat="50.8264900" lon="-1.7018420">
        <name>Ringwood Road</name>
      </trkpt>
      <trkpt lat="50.8264187" lon="-1.7018400">
        <name>Ringwood Road</name>
      </trkpt>
      <trkpt lat="50.8263473" lon="-1.7018380">
        <name>Ringwood Road</name>
      </trkpt>
      <trkpt lat="50.8262760" lon="-1.7018360">
        <name>Ringwood Road</name>
      </trkpt>
      <trkpt lat="50.8262130" lon="-1.7018650">
        <name>Ringwood Road</name>
      </trkpt>
      <trkpt lat="50.8261520" lon="-1.7018930">
        <name>Ringwood Road</name>
      </trkpt>
      <trkpt lat="50.8260870" lon="-1.7019310">
        <name>Pound Lane</name>
      </trkpt>
      <trkpt lat="50.8260220" lon="-1.7019690">
        <name>Pound Lane</name>
      </trkpt>
      <trkpt lat="50.8259570" lon="-1.7020070">
        <name>Pound Lane</name>
      </trkpt>
      <trkpt lat="50.8259470" lon="-1.7020130">
        <name>Pound Lane</name>
      </trkpt>
      <trkpt lat="50.8258693" lon="-1.7020650">
        <name>Pound Lane</name>
      </trkpt>
      <trkpt lat="50.8257917" lon="-1.7021170">
        <name>Pound Lane</name>
      </trkpt>
      <trkpt lat="50.8257140" lon="-1.7021690">
        <name>Pound Lane</name>
      </trkpt>
      <trkpt lat="50.8256830" lon="-1.7022060">
        <name>Pound Lane</name>
      </trkpt>
      <trkpt lat="50.8256680" lon="-1.7022240">
        <name>Pound Lane</name>
      </trkpt>
      <trkpt lat="50.8256490" lon="-1.7022460">
        <name>Pound Lane</name>
      </trkpt>
      <trkpt lat="50.8255920" lon="-1.7022840">
        <name>Pound Lane</name>
      </trkpt>
      <trkpt lat="50.8255350" lon="-1.7023220">
        <name>Pound Lane</name>
      </trkpt>
      <trkpt lat="50.8254737" lon="-1.7023633">
        <name>Pound Lane</name>
      </trkpt>
      <trkpt lat="50.8254123" lon="-1.7024047">
        <name>Pound Lane</name>
      </trkpt>
      <trkpt lat="50.8253510" lon="-1.7024460">
        <name>Pound Lane</name>
      </trkpt>
      <trkpt lat="50.8252865" lon="-1.7024890">
        <name>Pound Lane</name>
      </trkpt>
      <trkpt lat="50.8252220" lon="-1.7025320">
        <name>Pound Lane</name>
      </trkpt>
      <trkpt lat="50.8251515" lon="-1.7025795">
        <name>Pound Lane</name>
      </trkpt>
      <trkpt lat="50.8250810" lon="-1.7026270">
        <name>Pound Lane</name>
      </trkpt>
      <trkpt lat="50.8250385" lon="-1.7026885">
        <name>Pound Lane</name>
      </trkpt>
      <trkpt lat="50.8249960" lon="-1.7027500">
        <name>Pound Lane</name>
      </trkpt>
      <trkpt lat="50.8249457" lon="-1.7028227">
        <name>Pound Lane</name>
      </trkpt>
      <trkpt lat="50.8248955" lon="-1.7028955">
        <name>Pound Lane</name>
      </trkpt>
      <trkpt lat="50.8248453" lon="-1.7029683">
        <name>Pound Lane</name>
      </trkpt>
      <trkpt lat="50.8247950" lon="-1.7030410">
        <name>Pound Lane</name>
      </trkpt>
      <trkpt lat="50.8247440" lon="-1.7031143">
        <name>Pound Lane</name>
      </trkpt>
      <trkpt lat="50.8246930" lon="-1.7031877">
        <name>Pound Lane</name>
      </trkpt>
      <trkpt lat="50.8246420" lon="-1.7032610">
        <name>Pound Lane</name>
      </trkpt>
      <trkpt lat="50.8246040" lon="-1.7033330">
        <name>Pound Lane</name>
      </trkpt>
      <trkpt lat="50.8245660" lon="-1.7034050">
        <name>Pound Lane</name>
      </trkpt>
      <trkpt lat="50.8245135" lon="-1.7035045">
        <name>Pound Lane</name>
      </trkpt>
      <trkpt lat="50.8244610" lon="-1.7036040">
        <name>Pound Lane</name>
      </trkpt>
      <trkpt lat="50.8244085" lon="-1.7037035">
        <name>Pound Lane</name>
      </trkpt>
      <trkpt lat="50.8243560" lon="-1.7038030">
        <name>Pound Lane</name>
      </trkpt>
      <trkpt lat="50.8243050" lon="-1.7038970">
        <name>Pound Lane</name>
      </trkpt>
      <trkpt lat="50.8242540" lon="-1.7039910">
        <name>Pound Lane</name>
      </trkpt>
      <trkpt lat="50.8242070" lon="-1.7040775">
        <name>Pound Lane</name>
      </trkpt>
      <trkpt lat="50.8241600" lon="-1.7041640">
        <name>Pound Lane</name>
      </trkpt>
      <trkpt lat="50.8241130" lon="-1.7042505">
        <name>Pound Lane</name>
      </trkpt>
      <trkpt lat="50.8240660" lon="-1.7043370">
        <name>Pound Lane</name>
      </trkpt>
      <trkpt lat="50.8240101" lon="-1.7044414">
        <name>Pound Lane</name>
      </trkpt>
      <trkpt lat="50.8239542" lon="-1.7045457">
        <name>Pound Lane</name>
      </trkpt>
      <trkpt lat="50.8238984" lon="-1.7046501">
        <name>Pound Lane</name>
      </trkpt>
      <trkpt lat="50.8238425" lon="-1.7047545">
        <name>Pound Lane</name>
      </trkpt>
      <trkpt lat="50.8237866" lon="-1.7048589">
        <name>Pound Lane</name>
      </trkpt>
      <trkpt lat="50.8237308" lon="-1.7049633">
        <name>Pound Lane</name>
      </trkpt>
      <trkpt lat="50.8236749" lon="-1.7050676">
        <name>Pound Lane</name>
      </trkpt>
      <trkpt lat="50.8236190" lon="-1.7051720">
        <name>Pound Lane</name>
      </trkpt>
      <trkpt lat="50.8235660" lon="-1.7052715">
        <name>Pound Lane</name>
      </trkpt>
      <trkpt lat="50.8235130" lon="-1.7053710">
        <name>Pound Lane</name>
      </trkpt>
      <trkpt lat="50.8234685" lon="-1.7054718">
        <name>Pound Lane</name>
      </trkpt>
      <trkpt lat="50.8234240" lon="-1.7055727">
        <name>Pound Lane</name>
      </trkpt>
      <trkpt lat="50.8233795" lon="-1.7056735">
        <name>Pound Lane</name>
      </trkpt>
      <trkpt lat="50.8233350" lon="-1.7057743">
        <name>Pound Lane</name>
      </trkpt>
      <trkpt lat="50.8232905" lon="-1.7058752">
        <name>Pound Lane</name>
      </trkpt>
      <trkpt lat="50.8232460" lon="-1.7059760">
        <name>Pound Lane</name>
      </trkpt>
      <trkpt lat="50.8232040" lon="-1.7060700">
        <name>Pound Lane</name>
      </trkpt>
      <trkpt lat="50.8231513" lon="-1.7061727">
        <name>Pound Lane</name>
      </trkpt>
      <trkpt lat="50.8230987" lon="-1.7062753">
        <name>Pound Lane</name>
      </trkpt>
      <trkpt lat="50.8230460" lon="-1.7063780">
        <name>Pound Lane</name>
      </trkpt>
      <trkpt lat="50.8230004" lon="-1.7064668">
        <name>Pound Lane</name>
      </trkpt>
      <trkpt lat="50.8229548" lon="-1.7065556">
        <name>Pound Lane</name>
      </trkpt>
      <trkpt lat="50.8229092" lon="-1.7066444">
        <name>Pound Lane</name>
      </trkpt>
      <trkpt lat="50.8228636" lon="-1.7067332">
        <name>Pound Lane</name>
      </trkpt>
      <trkpt lat="50.8228180" lon="-1.7068220">
        <name>Pound Lane</name>
      </trkpt>
      <trkpt lat="50.8227627" lon="-1.7069292">
        <name>Pound Lane</name>
      </trkpt>
      <trkpt lat="50.8227075" lon="-1.7070365">
        <name>Pound Lane</name>
      </trkpt>
      <trkpt lat="50.8226523" lon="-1.7071438">
        <name>Pound Lane</name>
      </trkpt>
      <trkpt lat="50.8225970" lon="-1.7072510">
        <name>Pound Lane</name>
      </trkpt>
      <trkpt lat="50.8225610" lon="-1.7073205">
        <name>Pound Lane</name>
      </trkpt>
      <trkpt lat="50.8225250" lon="-1.7073900">
        <name>Pound Lane</name>
      </trkpt>
      <trkpt lat="50.8225770" lon="-1.7074625">
        <name>Pound Lane</name>
      </trkpt>
      <trkpt lat="50.8226290" lon="-1.7075350">
        <name>Pound Lane</name>
      </trkpt>
      <trkpt lat="50.8226755" lon="-1.7076000">
        <name>Pound Lane</name>
      </trkpt>
      <trkpt lat="50.8227220" lon="-1.7076650">
        <name>Pound Lane</name>
      </trkpt>
      <trkpt lat="50.8227930" lon="-1.7077430">
        <name>Pound Lane</name>
      </trkpt>
      <trkpt lat="50.8228640" lon="-1.7078210">
        <name>Pound Lane</name>
      </trkpt>
      <trkpt lat="50.8229350" lon="-1.7078990">
        <name>Pound Lane</name>
      </trkpt>
      <trkpt lat="50.8229680" lon="-1.7079350">
        <name>Pound Lane</name>
      </trkpt>
      <trkpt lat="50.8230460" lon="-1.7080035">
        <name>Pound Lane</name>
      </trkpt>
      <trkpt lat="50.8231240" lon="-1.7080720">
        <name>Pound Lane</name>
      </trkpt>
      <trkpt lat="50.8231940" lon="-1.7081335">
        <name>Pound Lane</name>
      </trkpt>
      <trkpt lat="50.8232640" lon="-1.7081950">
        <name>Pound Lane</name>
      </trkpt>
      <trkpt lat="50.8232967" lon="-1.7082927">
        <name>Pound Lane</name>
      </trkpt>
      <trkpt lat="50.8233293" lon="-1.7083903">
        <name>Pound Lane</name>
      </trkpt>
      <trkpt lat="50.8233620" lon="-1.7084880">
        <name>Pound Lane</name>
      </trkpt>
      <trkpt lat="50.8233733" lon="-1.7086087">
        <name>Pound Lane</name>
      </trkpt>
      <trkpt lat="50.8233846" lon="-1.7087294">
        <name>Pound Lane</name>
      </trkpt>
      <trkpt lat="50.8233959" lon="-1.7088501">
        <name>Pound Lane</name>
      </trkpt>
      <trkpt lat="50.8234071" lon="-1.7089709">
        <name>Pound Lane</name>
      </trkpt>
      <trkpt lat="50.8234184" lon="-1.7090916">
        <name>Pound Lane</name>
      </trkpt>
      <trkpt lat="50.8234297" lon="-1.7092123">
        <name>Pound Lane</name>
      </trkpt>
      <trkpt lat="50.8234410" lon="-1.7093330">
        <name>Pound Lane</name>
      </trkpt>
      <trkpt lat="50.8234490" lon="-1.7094155">
        <name>Pound Lane</name>
      </trkpt>
      <trkpt lat="50.8234570" lon="-1.7094980">
        <name>Pound Lane</name>
      </trkpt>
      <trkpt lat="50.8234610" lon="-1.7095410">
        <name>Pound Lane</name>
      </trkpt>
      <trkpt lat="50.8234550" lon="-1.7096543">
        <name>Pound Lane</name>
      </trkpt>
      <trkpt lat="50.8234490" lon="-1.7097677">
        <name>Pound Lane</name>
      </trkpt>
      <trkpt lat="50.8234430" lon="-1.7098810">
        <name>Pound Lane</name>
      </trkpt>
      <trkpt lat="50.8234400" lon="-1.7099460">
        <name>Pound Lane</name>
      </trkpt>
      <trkpt lat="50.8234740" lon="-1.7100283">
        <name>Pound Lane</name>
      </trkpt>
      <trkpt lat="50.8235080" lon="-1.7101107">
        <name>Pound Lane</name>
      </trkpt>
      <trkpt lat="50.8235420" lon="-1.7101930">
        <name>Pound Lane</name>
      </trkpt>
      <trkpt lat="50.8236130" lon="-1.7101930">
        <name>Pound Lane</name>
      </trkpt>
      <trkpt lat="50.8236840" lon="-1.7101930">
        <name>Pound Lane</name>
      </trkpt>
      <trkpt lat="50.8237570" lon="-1.7101930">
        <name>Pound Lane</name>
      </trkpt>
      <trkpt lat="50.8238335" lon="-1.7101840">
        <name>Pound Lane</name>
      </trkpt>
      <trkpt lat="50.8239100" lon="-1.7101750">
        <name>Pound Lane</name>
      </trkpt>
      <trkpt lat="50.8239190" lon="-1.7101740">
        <name>Pound Lane</name>
      </trkpt>
      <trkpt lat="50.8239076" lon="-1.7100353">
        <name>Pound Lane</name>
      </trkpt>
      <trkpt lat="50.8238962" lon="-1.7098966">
        <name>Pound Lane</name>
      </trkpt>
      <trkpt lat="50.8238848" lon="-1.7097579">
        <name>Pound Lane</name>
      </trkpt>
      <trkpt lat="50.8238735" lon="-1.7096192">
        <name>Pound Lane</name>
      </trkpt>
      <trkpt lat="50.8238621" lon="-1.7094805">
        <name>Pound Lane</name>
      </trkpt>
      <trkpt lat="50.8238507" lon="-1.7093418">
        <name>Pound Lane</name>
      </trkpt>
      <trkpt lat="50.8238393" lon="-1.7092032">
        <name>Pound Lane</name>
      </trkpt>
      <trkpt lat="50.8238279" lon="-1.7090645">
        <name>Pound Lane</name>
      </trkpt>
      <trkpt lat="50.8238165" lon="-1.7089258">
        <name>Pound Lane</name>
      </trkpt>
      <trkpt lat="50.8238052" lon="-1.7087871">
        <name>Pound Lane</name>
      </trkpt>
      <trkpt lat="50.8237938" lon="-1.7086484">
        <name>Pound Lane</name>
      </trkpt>
      <trkpt lat="50.8237824" lon="-1.7085097">
        <name>Pound Lane</name>
      </trkpt>
      <trkpt lat="50.8237710" lon="-1.7083710">
        <name>Pound Lane</name>
      </trkpt>
      <trkpt lat="50.8237640" lon="-1.7082890">
        <name>Pound Lane</name>
      </trkpt>
      <trkpt lat="50.8237570" lon="-1.7082070">
        <name>Pound Lane</name>
      </trkpt>
      <trkpt lat="50.8237467" lon="-1.7080975">
        <name>Pound Lane</name>
      </trkpt>
      <trkpt lat="50.8237365" lon="-1.7079880">
        <name>Pound Lane</name>
      </trkpt>
      <trkpt lat="50.8237262" lon="-1.7078785">
        <name>Pound Lane</name>
      </trkpt>
      <trkpt lat="50.8237160" lon="-1.7077690">
        <name>Pound Lane</name>
      </trkpt>
      <trkpt lat="50.8237030" lon="-1.7076290">
        <name>Pound Lane</name>
      </trkpt>
      <trkpt lat="50.8236900" lon="-1.7074890">
        <name>Pound Lane</name>
      </trkpt>
      <trkpt lat="50.8236770" lon="-1.7073490">
        <name>Pound Lane</name>
      </trkpt>
      <trkpt lat="50.8236640" lon="-1.7072090">
        <name>Pound Lane</name>
      </trkpt>
      <trkpt lat="50.8236510" lon="-1.7070690">
        <name>Pound Lane</name>
      </trkpt>
      <trkpt lat="50.8236385" lon="-1.7069420">
        <name>Pound Lane</name>
      </trkpt>
      <trkpt lat="50.8236260" lon="-1.7068150">
        <name>Pound Lane</name>
      </trkpt>
      <trkpt lat="50.8236100" lon="-1.7066983">
        <name>Pound Lane</name>
      </trkpt>
      <trkpt lat="50.8235940" lon="-1.7065817">
        <name>Pound Lane</name>
      </trkpt>
      <trkpt lat="50.8235780" lon="-1.7064650">
        <name>Pound Lane</name>
      </trkpt>
      <trkpt lat="50.8235290" lon="-1.7063970">
        <name>Pound Lane</name>
      </trkpt>
      <trkpt lat="50.8234800" lon="-1.7063290">
        <name>Pound Lane</name>
      </trkpt>
      <trkpt lat="50.8234217" lon="-1.7062917">
        <name>Pound Lane</name>
      </trkpt>
      <trkpt lat="50.8233633" lon="-1.7062543">
        <name>Pound Lane</name>
      </trkpt>
      <trkpt lat="50.8233050" lon="-1.7062170">
        <name>Pound Lane</name>
      </trkpt>
      <trkpt lat="50.8232910" lon="-1.7061960">
        <name>Pound Lane</name>
      </trkpt>
      <trkpt lat="50.8232475" lon="-1.7061330">
        <name>Pound Lane</name>
      </trkpt>
      <trkpt lat="50.8232040" lon="-1.7060700">
        <name>Pound Lane</name>
      </trkpt>
      <trkpt lat="50.8231489" lon="-1.7061774">
        <name>Pound Lane</name>
      </trkpt>
      <trkpt lat="50.8230937" lon="-1.7062849">
        <name>Pound Lane</name>
      </trkpt>
      <trkpt lat="50.8230386" lon="-1.7063923">
        <name>Pound Lane</name>
      </trkpt>
      <trkpt lat="50.8229834" lon="-1.7064997">
        <name>Pound Lane</name>
      </trkpt>
      <trkpt lat="50.8229283" lon="-1.7066071">
        <name>Pound Lane</name>
      </trkpt>
      <trkpt lat="50.8228731" lon="-1.7067146">
        <name>Pound Lane</name>
      </trkpt>
      <trkpt lat="50.8228180" lon="-1.7068220">
        <name>Pound Lane</name>
      </trkpt>
      <trkpt lat="50.8227692" lon="-1.7069167">
        <name>Pound Lane</name>
      </trkpt>
      <trkpt lat="50.8227203" lon="-1.7070113">
        <name>Pound Lane</name>
      </trkpt>
      <trkpt lat="50.8226715" lon="-1.7071060">
        <name>Pound Lane</name>
      </trkpt>
      <trkpt lat="50.8226227" lon="-1.7072007">
        <name>Pound Lane</name>
      </trkpt>
      <trkpt lat="50.8225738" lon="-1.7072953">
        <name>Pound Lane</name>
      </trkpt>
      <trkpt lat="50.8225250" lon="-1.7073900">
        <name>Pound Lane</name>
      </trkpt>
      <trkpt lat="50.8224730" lon="-1.7075040">
        <name>Pound Lane</name>
      </trkpt>
    </trkseg>
  </trk>
</gpx>