<?xml version="1.0" encoding="UTF-8"?>
<gpx version="1.1" creator="TurboSanta Route Planner">
  <trk>
    <name>TurboSanta Route (10m density)</name>
    <trkseg>
      <trkpt lat="50.8153210" lon="-1.8696720">
        <name>Pinehurst Road</name>
      </trkpt>
      <trkpt lat="50.8153653" lon="-1.8697510">
        <name>Pinehurst Road</name>
      </trkpt>
      <trkpt lat="50.8154097" lon="-1.8698300">
        <name>Pinehurst Road</name>
      </trkpt>
      <trkpt lat="50.8154540" lon="-1.8699090">
        <name>Pinehurst Road</name>
      </trkpt>
      <trkpt lat="50.8155136" lon="-1.8700124">
        <name>Pinehurst Road</name>
      </trkpt>
      <trkpt lat="50.8155731" lon="-1.8701159">
        <name>Pinehurst Road</name>
      </trkpt>
      <trkpt lat="50.8156327" lon="-1.8702193">
        <name>Pinehurst Road</name>
      </trkpt>
      <trkpt lat="50.8156923" lon="-1.8703227">
        <name>Pinehurst Road</name>
      </trkpt>
      <trkpt lat="50.8157519" lon="-1.8704261">
        <name>Pinehurst Road</name>
      </trkpt>
      <trkpt lat="50.8158114" lon="-1.8705296">
        <name>Pinehurst Road</name>
      </trkpt>
      <trkpt lat="50.8158710" lon="-1.8706330">
        <name>Pinehurst Road</name>
      </trkpt>
      <trkpt lat="50.8159296" lon="-1.8707254">
        <name>Pinehurst Road</name>
      </trkpt>
      <trkpt lat="50.8159882" lon="-1.8708178">
        <name>Pinehurst Road</name>
      </trkpt>
      <trkpt lat="50.8160468" lon="-1.8709102">
        <name>Pinehurst Road</name>
      </trkpt>
      <trkpt lat="50.8161054" lon="-1.8710026">
        <name>Pinehurst Road</name>
      </trkpt>
      <trkpt lat="50.8161640" lon="-1.8710950">
        <name>Pinehurst Road</name>
      </trkpt>
      <trkpt lat="50.8162110" lon="-1.8711690">
        <name>Pinehurst Road</name>
      </trkpt>
      <trkpt lat="50.8162580" lon="-1.8712430">
        <name>Pinehurst Road</name>
      </trkpt>
      <trkpt lat="50.8163050" lon="-1.8713170">
        <name>Pinehurst Road</name>
      </trkpt>
      <trkpt lat="50.8163608" lon="-1.8712396">
        <name>Pinehurst Road</name>
      </trkpt>
      <trkpt lat="50.8164166" lon="-1.8711622">
        <name>Pinehurst Road</name>
      </trkpt>
      <trkpt lat="50.8164724" lon="-1.8710848">
        <name>Pinehurst Road</name>
      </trkpt>
      <trkpt lat="50.8165282" lon="-1.8710074">
        <name>Pinehurst Road</name>
      </trkpt>
      <trkpt lat="50.8165840" lon="-1.8709300">
        <name>Pinehurst Road</name>
      </trkpt>
      <trkpt lat="50.8166480" lon="-1.8708413">
        <name>Pinehurst Road</name>
      </trkpt>
      <trkpt lat="50.8167120" lon="-1.8707525">
        <name>Pinehurst Road</name>
      </trkpt>
      <trkpt lat="50.8167760" lon="-1.8706638">
        <name>Pinehurst Road</name>
      </trkpt>
      <trkpt lat="50.8168400" lon="-1.8705750">
        <name>Pinehurst Road</name>
      </trkpt>
      <trkpt lat="50.8169040" lon="-1.8704862">
        <name>Pinehurst Road</name>
      </trkpt>
      <trkpt lat="50.8169680" lon="-1.8703975">
        <name>Pinehurst Road</name>
      </trkpt>
      <trkpt lat="50.8170320" lon="-1.8703087">
        <name>Pinehurst Road</name>
      </trkpt>
      <trkpt lat="50.8170960" lon="-1.8702200">
        <name>Pinehurst Road</name>
      </trkpt>
      <trkpt lat="50.8171583" lon="-1.8701253">
        <name>Pinehurst Road</name>
      </trkpt>
      <trkpt lat="50.8172206" lon="-1.8700306">
        <name>Pinehurst Road</name>
      </trkpt>
      <trkpt lat="50.8172829" lon="-1.8699359">
        <name>Pinehurst Road</name>
      </trkpt>
      <trkpt lat="50.8173451" lon="-1.8698411">
        <name>Pinehurst Road</name>
      </trkpt>
      <trkpt lat="50.8174074" lon="-1.8697464">
        <name>Pinehurst Road</name>
      </trkpt>
      <trkpt lat="50.8174697" lon="-1.8696517">
        <name>Pinehurst Road</name>
      </trkpt>
      <trkpt lat="50.8175320" lon="-1.8695570">
        <name>Pinehurst Road</name>
      </trkpt>
      <trkpt lat="50.8175902" lon="-1.8694685">
        <name>Uplands Road</name>
      </trkpt>
      <trkpt lat="50.8176483" lon="-1.8693800">
        <name>Uplands Road</name>
      </trkpt>
      <trkpt lat="50.8177065" lon="-1.8692915">
        <name>Uplands Road</name>
      </trkpt>
      <trkpt lat="50.8177647" lon="-1.8692030">
        <name>Uplands Road</name>
      </trkpt>
      <trkpt lat="50.8178228" lon="-1.8691145">
        <name>Uplands Road</name>
      </trkpt>
      <trkpt lat="50.8178810" lon="-1.8690260">
        <name>Uplands Road</name>
      </trkpt>
      <trkpt lat="50.8179362" lon="-1.8689407">
        <name>Uplands Road</name>
      </trkpt>
      <trkpt lat="50.8179913" lon="-1.8688553">
        <name>Uplands Road</name>
      </trkpt>
      <trkpt lat="50.8180465" lon="-1.8687700">
        <name>Uplands Road</name>
      </trkpt>
      <trkpt lat="50.8181017" lon="-1.8686847">
        <name>Uplands Road</name>
      </trkpt>
      <trkpt lat="50.8181568" lon="-1.8685993">
        <name>Uplands Road</name>
      </trkpt>
      <trkpt lat="50.8182120" lon="-1.8685140">
        <name>Uplands Road</name>
      </trkpt>
      <trkpt lat="50.8182660" lon="-1.8684336">
        <name>Uplands Road</name>
      </trkpt>
      <trkpt lat="50.8183200" lon="-1.8683532">
        <name>Uplands Road</name>
      </trkpt>
      <trkpt lat="50.8183740" lon="-1.8682728">
        <name>Uplands Road</name>
      </trkpt>
      <trkpt lat="50.8184280" lon="-1.8681924">
        <name>Uplands Road</name>
      </trkpt>
      <trkpt lat="50.8184820" lon="-1.8681120">
        <name>Uplands Road</name>
      </trkpt>
      <trkpt lat="50.8185307" lon="-1.8682217">
        <name>Uplands Road</name>
      </trkpt>
      <trkpt lat="50.8185793" lon="-1.8683313">
        <name>Uplands Road</name>
      </trkpt>
      <trkpt lat="50.8186280" lon="-1.8684410">
        <name>Uplands Road</name>
      </trkpt>
      <trkpt lat="50.8186565" lon="-1.8685140">
        <name>Uplands Road</name>
      </trkpt>
      <trkpt lat="50.8186850" lon="-1.8685870">
        <name>Uplands Road</name>
      </trkpt>
      <trkpt lat="50.8187288" lon="-1.8686998">
        <name>Uplands Road</name>
      </trkpt>
      <trkpt lat="50.8187727" lon="-1.8688127">
        <name>Uplands Road</name>
      </trkpt>
      <trkpt lat="50.8188165" lon="-1.8689255">
        <name>Uplands Road</name>
      </trkpt>
      <trkpt lat="50.8188603" lon="-1.8690383">
        <name>Uplands Road</name>
      </trkpt>
      <trkpt lat="50.8189042" lon="-1.8691512">
        <name>Uplands Road</name>
      </trkpt>
      <trkpt lat="50.8189480" lon="-1.8692640">
        <name>Uplands Road</name>
      </trkpt>
      <trkpt lat="50.8189850" lon="-1.8693593">
        <name>Uplands Road</name>
      </trkpt>
      <trkpt lat="50.8190220" lon="-1.8694547">
        <name>Uplands Road</name>
      </trkpt>
      <trkpt lat="50.8190590" lon="-1.8695500">
        <name>Uplands Road</name>
      </trkpt>
      <trkpt lat="50.8190996" lon="-1.8696562">
        <name>Uplands Road</name>
      </trkpt>
      <trkpt lat="50.8191402" lon="-1.8697624">
        <name>Uplands Road</name>
      </trkpt>
      <trkpt lat="50.8191808" lon="-1.8698686">
        <name>Uplands Road</name>
      </trkpt>
      <trkpt lat="50.8192214" lon="-1.8699748">
        <name>Uplands Road</name>
      </trkpt>
      <trkpt lat="50.8192620" lon="-1.8700810">
        <name>Uplands Road</name>
      </trkpt>
      <trkpt lat="50.8192995" lon="-1.8701630">
        <name>Uplands Road</name>
      </trkpt>
      <trkpt lat="50.8193370" lon="-1.8702450">
        <name>Uplands Road</name>
      </trkpt>
      <trkpt lat="50.8193773" lon="-1.8703455">
        <name>Uplands Road</name>
      </trkpt>
      <trkpt lat="50.8194175" lon="-1.8704460">
        <name>Uplands Road</name>
      </trkpt>
      <trkpt lat="50.8194577" lon="-1.8705465">
        <name>Uplands Road</name>
      </trkpt>
      <trkpt lat="50.8194980" lon="-1.8706470">
        <name>Uplands Road</name>
      </trkpt>
      <trkpt lat="50.8195170" lon="-1.8707020">
        <name>Uplands Road</name>
      </trkpt>
      <trkpt lat="50.8195415" lon="-1.8707730">
        <name>Uplands Road</name>
      </trkpt>
      <trkpt lat="50.8195660" lon="-1.8708440">
        <name>Uplands Road</name>
      </trkpt>
      <trkpt lat="50.8195750" lon="-1.8709160">
        <name>Uplands Road</name>
      </trkpt>
      <trkpt lat="50.8195750" lon="-1.8709990">
        <name>Southern Avenue</name>
      </trkpt>
      <trkpt lat="50.8195680" lon="-1.8710730">
        <name>Southern Avenue</name>
      </trkpt>
      <trkpt lat="50.8195485" lon="-1.8711525">
        <name>Southern Avenue</name>
      </trkpt>
      <trkpt lat="50.8195290" lon="-1.8712320">
        <name>Southern Avenue</name>
      </trkpt>
      <trkpt lat="50.8195097" lon="-1.8713247">
        <name>Southern Avenue</name>
      </trkpt>
      <trkpt lat="50.8194903" lon="-1.8714173">
        <name>Southern Avenue</name>
      </trkpt>
      <trkpt lat="50.8194710" lon="-1.8715100">
        <name>Southern Avenue</name>
      </trkpt>
      <trkpt lat="50.8194470" lon="-1.8716403">
        <name>Southern Avenue</name>
      </trkpt>
      <trkpt lat="50.8194230" lon="-1.8717707">
        <name>Southern Avenue</name>
      </trkpt>
      <trkpt lat="50.8193990" lon="-1.8719010">
        <name>Southern Avenue</name>
      </trkpt>
      <trkpt lat="50.8193860" lon="-1.8720410">
        <name>Southern Avenue</name>
      </trkpt>
      <trkpt lat="50.8193890" lon="-1.8721660">
        <name>Southern Avenue</name>
      </trkpt>
      <trkpt lat="50.8193970" lon="-1.8722650">
        <name>Southern Avenue</name>
      </trkpt>
      <trkpt lat="50.8194140" lon="-1.8723770">
        <name>Southern Avenue</name>
      </trkpt>
      <trkpt lat="50.8194397" lon="-1.8724663">
        <name>Southern Avenue</name>
      </trkpt>
      <trkpt lat="50.8194653" lon="-1.8725557">
        <name>Southern Avenue</name>
      </trkpt>
      <trkpt lat="50.8194910" lon="-1.8726450">
        <name>Southern Avenue</name>
      </trkpt>
      <trkpt lat="50.8195560" lon="-1.8726025">
        <name>Southern Avenue</name>
      </trkpt>
      <trkpt lat="50.8196210" lon="-1.8725600">
        <name>Southern Avenue</name>
      </trkpt>
      <trkpt lat="50.8196935" lon="-1.8725312">
        <name>Southern Avenue</name>
      </trkpt>
      <trkpt lat="50.8197660" lon="-1.8725025">
        <name>Southern Avenue</name>
      </trkpt>
      <trkpt lat="50.8198385" lon="-1.8724737">
        <name>Southern Avenue</name>
      </trkpt>
      <trkpt lat="50.8199110" lon="-1.8724450">
        <name>Southern Avenue</name>
      </trkpt>
      <trkpt lat="50.8199980" lon="-1.8724207">
        <name>Southern Avenue</name>
      </trkpt>
      <trkpt lat="50.8200850" lon="-1.8723965">
        <name>Southern Avenue</name>
      </trkpt>
      <trkpt lat="50.8201720" lon="-1.8723722">
        <name>Southern Avenue</name>
      </trkpt>
      <trkpt lat="50.8202590" lon="-1.8723480">
        <name>Southern Avenue</name>
      </trkpt>
      <trkpt lat="50.8203237" lon="-1.8723370">
        <name>Southern Avenue</name>
      </trkpt>
      <trkpt lat="50.8203883" lon="-1.8723260">
        <name>Southern Avenue</name>
      </trkpt>
      <trkpt lat="50.8204530" lon="-1.8723150">
        <name>Southern Avenue</name>
      </trkpt>
      <trkpt lat="50.8205260" lon="-1.8723280">
        <name>Southern Avenue</name>
      </trkpt>
      <trkpt lat="50.8205990" lon="-1.8723410">
        <name>Southern Avenue</name>
      </trkpt>
      <trkpt lat="50.8206755" lon="-1.8723580">
        <name>Southern Avenue</name>
      </trkpt>
      <trkpt lat="50.8207520" lon="-1.8723750">
        <name>Southern Avenue</name>
      </trkpt>
      <trkpt lat="50.8207610" lon="-1.8723770">
        <name>Southern Avenue</name>
      </trkpt>
      <trkpt lat="50.8208448" lon="-1.8724243">
        <name>Southern Avenue</name>
      </trkpt>
      <trkpt lat="50.8209286" lon="-1.8724717">
        <name>Southern Avenue</name>
      </trkpt>
      <trkpt lat="50.8210123" lon="-1.8725190">
        <name>Southern Avenue</name>
      </trkpt>
      <trkpt lat="50.8210961" lon="-1.8725663">
        <name>Southern Avenue</name>
      </trkpt>
      <trkpt lat="50.8211799" lon="-1.8726137">
        <name>Southern Avenue</name>
      </trkpt>
      <trkpt lat="50.8212637" lon="-1.8726610">
        <name>Southern Avenue</name>
      </trkpt>
      <trkpt lat="50.8213474" lon="-1.8727083">
        <name>Southern Avenue</name>
      </trkpt>
      <trkpt lat="50.8214312" lon="-1.8727557">
        <name>Southern Avenue</name>
      </trkpt>
      <trkpt lat="50.8215150" lon="-1.8728030">
        <name>Southern Avenue</name>
      </trkpt>
      <trkpt lat="50.8215600" lon="-1.8728275">
        <name>Southern Avenue</name>
      </trkpt>
      <trkpt lat="50.8216050" lon="-1.8728520">
        <name>Southern Avenue</name>
      </trkpt>
      <trkpt lat="50.8216856" lon="-1.8728960">
        <name>Southern Avenue</name>
      </trkpt>
      <trkpt lat="50.8217662" lon="-1.8729400">
        <name>Southern Avenue</name>
      </trkpt>
      <trkpt lat="50.8218468" lon="-1.8729840">
        <name>Southern Avenue</name>
      </trkpt>
      <trkpt lat="50.8219274" lon="-1.8730280">
        <name>Southern Avenue</name>
      </trkpt>
      <trkpt lat="50.8220080" lon="-1.8730720">
        <name>Southern Avenue</name>
      </trkpt>
      <trkpt lat="50.8220953" lon="-1.8730923">
        <name>Southern Avenue</name>
      </trkpt>
      <trkpt lat="50.8221827" lon="-1.8731127">
        <name>Southern Avenue</name>
      </trkpt>
      <trkpt lat="50.8222700" lon="-1.8731330">
        <name>Southern Avenue</name>
      </trkpt>
      <trkpt lat="50.8223317" lon="-1.8731237">
        <name>Southern Avenue</name>
      </trkpt>
      <trkpt lat="50.8223933" lon="-1.8731143">
        <name>Southern Avenue</name>
      </trkpt>
      <trkpt lat="50.8224550" lon="-1.8731050">
        <name>Southern Avenue</name>
      </trkpt>
      <trkpt lat="50.8225160" lon="-1.8730960">
        <name>Southern Avenue</name>
      </trkpt>
      <trkpt lat="50.8225835" lon="-1.8730505">
        <name>Southern Avenue</name>
      </trkpt>
      <trkpt lat="50.8226510" lon="-1.8730050">
        <name>Southern Avenue</name>
      </trkpt>
      <trkpt lat="50.8227185" lon="-1.8729595">
        <name>Southern Avenue</name>
      </trkpt>
      <trkpt lat="50.8227860" lon="-1.8729140">
        <name>Southern Avenue</name>
      </trkpt>
      <trkpt lat="50.8228553" lon="-1.8728437">
        <name>Southern Avenue</name>
      </trkpt>
      <trkpt lat="50.8229245" lon="-1.8727735">
        <name>Southern Avenue</name>
      </trkpt>
      <trkpt lat="50.8229937" lon="-1.8727033">
        <name>Southern Avenue</name>
      </trkpt>
      <trkpt lat="50.8230630" lon="-1.8726330">
        <name>Southern Avenue</name>
      </trkpt>
      <trkpt lat="50.8230735" lon="-1.8727690">
        <name>Southern Avenue</name>
      </trkpt>
      <trkpt lat="50.8230840" lon="-1.8729050">
        <name>Southern Avenue</name>
      </trkpt>
      <trkpt lat="50.8230945" lon="-1.8730410">
        <name>Southern Avenue</name>
      </trkpt>
      <trkpt lat="50.8231050" lon="-1.8731770">
        <name>Southern Avenue</name>
      </trkpt>
      <trkpt lat="50.8231120" lon="-1.8732873">
        <name>Southern Avenue</name>
      </trkpt>
      <trkpt lat="50.8231190" lon="-1.8733977">
        <name>Southern Avenue</name>
      </trkpt>
      <trkpt lat="50.8231260" lon="-1.8735080">
        <name>Southern Avenue</name>
      </trkpt>
      <trkpt lat="50.8231465" lon="-1.8736000">
        <name>Southern Avenue</name>
      </trkpt>
      <trkpt lat="50.8231670" lon="-1.8736920">
        <name>Southern Avenue</name>
      </trkpt>
      <trkpt lat="50.8231975" lon="-1.8737855">
        <name>Southern Avenue</name>
      </trkpt>
      <trkpt lat="50.8232280" lon="-1.8738790">
        <name>Southern Avenue</name>
      </trkpt>
      <trkpt lat="50.8232510" lon="-1.8739500">
        <name>Southern Avenue</name>
      </trkpt>
      <trkpt lat="50.8232740" lon="-1.8740210">
        <name>Southern Avenue</name>
      </trkpt>
      <trkpt lat="50.8233106" lon="-1.8741499">
        <name>Heathfield Road</name>
      </trkpt>
      <trkpt lat="50.8233472" lon="-1.8742788">
        <name>Heathfield Road</name>
      </trkpt>
      <trkpt lat="50.8233838" lon="-1.8744077">
        <name>Heathfield Road</name>
      </trkpt>
      <trkpt lat="50.8234204" lon="-1.8745366">
        <name>Heathfield Road</name>
      </trkpt>
      <trkpt lat="50.8234570" lon="-1.8746655">
        <name>Heathfield Road</name>
      </trkpt>
      <trkpt lat="50.8234936" lon="-1.8747944">
        <name>Heathfield Road</name>
      </trkpt>
      <trkpt lat="50.8235302" lon="-1.8749233">
        <name>Heathfield Road</name>
      </trkpt>
      <trkpt lat="50.8235668" lon="-1.8750522">
        <name>Heathfield Road</name>
      </trkpt>
      <trkpt lat="50.8236034" lon="-1.8751811">
        <name>Heathfield Road</name>
      </trkpt>
      <trkpt lat="50.8236400" lon="-1.8753100">
        <name>Heathfield Road</name>
      </trkpt>
      <trkpt lat="50.8235570" lon="-1.8753262">
        <name>Heathfield Road</name>
      </trkpt>
      <trkpt lat="50.8234740" lon="-1.8753424">
        <name>Heathfield Road</name>
      </trkpt>
      <trkpt lat="50.8233910" lon="-1.8753586">
        <name>Heathfield Road</name>
      </trkpt>
      <trkpt lat="50.8233080" lon="-1.8753748">
        <name>Heathfield Road</name>
      </trkpt>
      <trkpt lat="50.8232250" lon="-1.8753910">
        <name>Heathfield Road</name>
      </trkpt>
      <trkpt lat="50.8231477" lon="-1.8754062">
        <name>Heathfield Road</name>
      </trkpt>
      <trkpt lat="50.8230703" lon="-1.8754213">
        <name>Heathfield Road</name>
      </trkpt>
      <trkpt lat="50.8229930" lon="-1.8754365">
        <name>Heathfield Road</name>
      </trkpt>
      <trkpt lat="50.8229157" lon="-1.8754517">
        <name>Heathfield Road</name>
      </trkpt>
      <trkpt lat="50.8228383" lon="-1.8754668">
        <name>Heathfield Road</name>
      </trkpt>
      <trkpt lat="50.8227610" lon="-1.8754820">
        <name>Heathfield Road</name>
      </trkpt>
      <trkpt lat="50.8227383" lon="-1.8753530">
        <name>Heathfield Road</name>
      </trkpt>
      <trkpt lat="50.8227157" lon="-1.8752240">
        <name>Heathfield Road</name>
      </trkpt>
      <trkpt lat="50.8226930" lon="-1.8750950">
        <name>Heathfield Road</name>
      </trkpt>
      <trkpt lat="50.8226750" lon="-1.8750160">
        <name>Heathfield Road</name>
      </trkpt>
      <trkpt lat="50.8226570" lon="-1.8749370">
        <name>Heathfield Road</name>
      </trkpt>
      <trkpt lat="50.8226405" lon="-1.8748635">
        <name>Heathfield Road</name>
      </trkpt>
      <trkpt lat="50.8226240" lon="-1.8747900">
        <name>Heathfield Road</name>
      </trkpt>
      <trkpt lat="50.8225930" lon="-1.8746985">
        <name>Heathfield Road</name>
      </trkpt>
      <trkpt lat="50.8225620" lon="-1.8746070">
        <name>Heathfield Road</name>
      </trkpt>
      <trkpt lat="50.8225235" lon="-1.8745645">
        <name>Heathfield Road</name>
      </trkpt>
      <trkpt lat="50.8224850" lon="-1.8745220">
        <name>Heathfield Road</name>
      </trkpt>
      <trkpt lat="50.8224210" lon="-1.8745100">
        <name>Heathfield Road</name>
      </trkpt>
      <trkpt lat="50.8223570" lon="-1.8744980">
        <name>Heathfield Road</name>
      </trkpt>
      <trkpt lat="50.8222930" lon="-1.8744860">
        <name>Heathfield Road</name>
      </trkpt>
      <trkpt lat="50.8222237" lon="-1.8745013">
        <name>Heathfield Road</name>
      </trkpt>
      <trkpt lat="50.8221545" lon="-1.8745165">
        <name>Heathfield Road</name>
      </trkpt>
      <trkpt lat="50.8220853" lon="-1.8745318">
        <name>Heathfield Road</name>
      </trkpt>
      <trkpt lat="50.8220160" lon="-1.8745470">
        <name>Heathfield Road</name>
      </trkpt>
      <trkpt lat="50.8219417" lon="-1.8745753">
        <name>Heathfield Road</name>
      </trkpt>
      <trkpt lat="50.8218673" lon="-1.8746037">
        <name>Heathfield Road</name>
      </trkpt>
      <trkpt lat="50.8217930" lon="-1.8746320">
        <name>Heathfield Road</name>
      </trkpt>
      <trkpt lat="50.8217410" lon="-1.8746555">
        <name>Heathfield Road</name>
      </trkpt>
      <trkpt lat="50.8216890" lon="-1.8746790">
        <name>Heathfield Road</name>
      </trkpt>
      <trkpt lat="50.8216330" lon="-1.8747040">
        <name>Heathfield Road</name>
      </trkpt>
      <trkpt lat="50.8215770" lon="-1.8747290">
        <name>Heathfield Road</name>
      </trkpt>
      <trkpt lat="50.8215310" lon="-1.8747540">
        <name>Heathfield Road</name>
      </trkpt>
      <trkpt lat="50.8214540" lon="-1.8747947">
        <name>Heathfield Road</name>
      </trkpt>
      <trkpt lat="50.8213770" lon="-1.8748353">
        <name>Heathfield Road</name>
      </trkpt>
      <trkpt lat="50.8213000" lon="-1.8748760">
        <name>Heathfield Road</name>
      </trkpt>
      <trkpt lat="50.8212257" lon="-1.8749367">
        <name>Heathfield Road</name>
      </trkpt>
      <trkpt lat="50.8211513" lon="-1.8749973">
        <name>Heathfield Road</name>
      </trkpt>
      <trkpt lat="50.8210770" lon="-1.8750580">
        <name>Heathfield Road</name>
      </trkpt>
      <trkpt lat="50.8210030" lon="-1.8751110">
        <name>Heathfield Road</name>
      </trkpt>
      <trkpt lat="50.8209377" lon="-1.8751583">
        <name>Heathfield Road</name>
      </trkpt>
      <trkpt lat="50.8208723" lon="-1.8752057">
        <name>Heathfield Road</name>
      </trkpt>
      <trkpt lat="50.8208070" lon="-1.8752530">
        <name>Heathfield Road</name>
      </trkpt>
      <trkpt lat="50.8207435" lon="-1.8753055">
        <name>Heathfield Road</name>
      </trkpt>
      <trkpt lat="50.8206800" lon="-1.8753580">
        <name>Heathfield Road</name>
      </trkpt>
      <trkpt lat="50.8207115" lon="-1.8754715">
        <name>Heathfield Road</name>
      </trkpt>
      <trkpt lat="50.8207430" lon="-1.8755850">
        <name>Heathfield Road</name>
      </trkpt>
      <trkpt lat="50.8207705" lon="-1.8756838">
        <name>Heathfield Road</name>
      </trkpt>
      <trkpt lat="50.8207980" lon="-1.8757825">
        <name>Heathfield Road</name>
      </trkpt>
      <trkpt lat="50.8208255" lon="-1.8758812">
        <name>Heathfield Road</name>
      </trkpt>
      <trkpt lat="50.8208530" lon="-1.8759800">
        <name>Heathfield Road</name>
      </trkpt>
      <trkpt lat="50.8209334" lon="-1.8759634">
        <name>Heathfield Road</name>
      </trkpt>
      <trkpt lat="50.8210139" lon="-1.8759469">
        <name>Heathfield Road</name>
      </trkpt>
      <trkpt lat="50.8210943" lon="-1.8759303">
        <name>Heathfield Road</name>
      </trkpt>
      <trkpt lat="50.8211748" lon="-1.8759138">
        <name>Heathfield Road</name>
      </trkpt>
      <trkpt lat="50.8212552" lon="-1.8758972">
        <name>Heathfield Road</name>
      </trkpt>
      <trkpt lat="50.8213357" lon="-1.8758807">
        <name>Heathfield Road</name>
      </trkpt>
      <trkpt lat="50.8214161" lon="-1.8758641">
        <name>Heathfield Road</name>
      </trkpt>
      <trkpt lat="50.8214966" lon="-1.8758476">
        <name>Heathfield Road</name>
      </trkpt>
      <trkpt lat="50.8215770" lon="-1.8758310">
        <name>Heathfield Road</name>
      </trkpt>
      <trkpt lat="50.8216077" lon="-1.8759587">
        <name>Uplands Road</name>
      </trkpt>
      <trkpt lat="50.8216383" lon="-1.8760863">
        <name>Uplands Road</name>
      </trkpt>
      <trkpt lat="50.8216690" lon="-1.8762140">
        <name>Uplands Road</name>
      </trkpt>
      <trkpt lat="50.8216999" lon="-1.8763422">
        <name>Uplands Road</name>
      </trkpt>
      <trkpt lat="50.8217308" lon="-1.8764705">
        <name>Uplands Road</name>
      </trkpt>
      <trkpt lat="50.8217616" lon="-1.8765988">
        <name>Uplands Road</name>
      </trkpt>
      <trkpt lat="50.8217925" lon="-1.8767270">
        <name>Uplands Road</name>
      </trkpt>
      <trkpt lat="50.8218234" lon="-1.8768552">
        <name>Uplands Road</name>
      </trkpt>
      <trkpt lat="50.8218543" lon="-1.8769835">
        <name>Uplands Road</name>
      </trkpt>
      <trkpt lat="50.8218851" lon="-1.8771118">
        <name>Uplands Road</name>
      </trkpt>
      <trkpt lat="50.8219160" lon="-1.8772400">
        <name>Uplands Road</name>
      </trkpt>
      <trkpt lat="50.8219422" lon="-1.8773546">
        <name>Uplands Road</name>
      </trkpt>
      <trkpt lat="50.8219684" lon="-1.8774692">
        <name>Uplands Road</name>
      </trkpt>
      <trkpt lat="50.8219946" lon="-1.8775838">
        <name>Uplands Road</name>
      </trkpt>
      <trkpt lat="50.8220208" lon="-1.8776984">
        <name>Uplands Road</name>
      </trkpt>
      <trkpt lat="50.8220470" lon="-1.8778130">
        <name>Uplands Road</name>
      </trkpt>
      <trkpt lat="50.8220880" lon="-1.8779387">
        <name>Uplands Road</name>
      </trkpt>
      <trkpt lat="50.8221290" lon="-1.8780643">
        <name>Uplands Road</name>
      </trkpt>
      <trkpt lat="50.8221700" lon="-1.8781900">
        <name>Uplands Road</name>
      </trkpt>
      <trkpt lat="50.8221815" lon="-1.8782815">
        <name>Uplands Road</name>
      </trkpt>
      <trkpt lat="50.8221930" lon="-1.8783730">
        <name>Uplands Road</name>
      </trkpt>
      <trkpt lat="50.8221930" lon="-1.8784525">
        <name>Uplands Road</name>
      </trkpt>
      <trkpt lat="50.8221930" lon="-1.8785320">
        <name>Uplands Road</name>
      </trkpt>
      <trkpt lat="50.8221660" lon="-1.8786420">
        <name>Uplands Road</name>
      </trkpt>
      <trkpt lat="50.8221540" lon="-1.8786900">
        <name>Uplands Road</name>
      </trkpt>
      <trkpt lat="50.8221040" lon="-1.8787450">
        <name>Uplands Road</name>
      </trkpt>
      <trkpt lat="50.8220540" lon="-1.8788000">
        <name>Uplands Road</name>
      </trkpt>
      <trkpt lat="50.8220220" lon="-1.8788380">
        <name>Uplands Road</name>
      </trkpt>
      <trkpt lat="50.8219620" lon="-1.8789090">
        <name>Elmhurst Road</name>
      </trkpt>
      <trkpt lat="50.8219310" lon="-1.8789640">
        <name>Elmhurst Road</name>
      </trkpt>
      <trkpt lat="50.8219000" lon="-1.8790190">
        <name>Elmhurst Road</name>
      </trkpt>
      <trkpt lat="50.8218540" lon="-1.8791410">
        <name>Elmhurst Road</name>
      </trkpt>
      <trkpt lat="50.8218480" lon="-1.8792260">
        <name>Elmhurst Road</name>
      </trkpt>
      <trkpt lat="50.8218420" lon="-1.8793110">
        <name>Elmhurst Road</name>
      </trkpt>
      <trkpt lat="50.8218460" lon="-1.8794460">
        <name>Elmhurst Road</name>
      </trkpt>
      <trkpt lat="50.8218730" lon="-1.8795740">
        <name>Elmhurst Road</name>
      </trkpt>
      <trkpt lat="50.8219000" lon="-1.8797020">
        <name>Elmhurst Road</name>
      </trkpt>
      <trkpt lat="50.8219340" lon="-1.8798183">
        <name>Elmhurst Way</name>
      </trkpt>
      <trkpt lat="50.8219680" lon="-1.8799345">
        <name>Elmhurst Way</name>
      </trkpt>
      <trkpt lat="50.8220020" lon="-1.8800507">
        <name>Elmhurst Way</name>
      </trkpt>
      <trkpt lat="50.8220360" lon="-1.8801670">
        <name>Elmhurst Way</name>
      </trkpt>
      <trkpt lat="50.8221032" lon="-1.8801214">
        <name>Elmhurst Way</name>
      </trkpt>
      <trkpt lat="50.8221704" lon="-1.8800758">
        <name>Elmhurst Way</name>
      </trkpt>
      <trkpt lat="50.8222376" lon="-1.8800302">
        <name>Elmhurst Way</name>
      </trkpt>
      <trkpt lat="50.8223048" lon="-1.8799846">
        <name>Elmhurst Way</name>
      </trkpt>
      <trkpt lat="50.8223720" lon="-1.8799390">
        <name>Elmhurst Way</name>
      </trkpt>
      <trkpt lat="50.8224506" lon="-1.8798856">
        <name>Elmhurst Way</name>
      </trkpt>
      <trkpt lat="50.8225291" lon="-1.8798322">
        <name>Elmhurst Way</name>
      </trkpt>
      <trkpt lat="50.8226077" lon="-1.8797789">
        <name>Elmhurst Way</name>
      </trkpt>
      <trkpt lat="50.8226863" lon="-1.8797255">
        <name>Elmhurst Way</name>
      </trkpt>
      <trkpt lat="50.8227648" lon="-1.8796721">
        <name>Elmhurst Way</name>
      </trkpt>
      <trkpt lat="50.8228434" lon="-1.8796187">
        <name>Elmhurst Way</name>
      </trkpt>
      <trkpt lat="50.8229219" lon="-1.8795654">
        <name>Elmhurst Way</name>
      </trkpt>
      <trkpt lat="50.8230005" lon="-1.8795120">
        <name>Elmhurst Way</name>
      </trkpt>
      <trkpt lat="50.8230791" lon="-1.8794586">
        <name>Elmhurst Way</name>
      </trkpt>
      <trkpt lat="50.8231576" lon="-1.8794053">
        <name>Elmhurst Way</name>
      </trkpt>
      <trkpt lat="50.8232362" lon="-1.8793519">
        <name>Elmhurst Way</name>
      </trkpt>
      <trkpt lat="50.8233147" lon="-1.8792985">
        <name>Elmhurst Way</name>
      </trkpt>
      <trkpt lat="50.8233933" lon="-1.8792451">
        <name>Elmhurst Way</name>
      </trkpt>
      <trkpt lat="50.8234719" lon="-1.8791917">
        <name>Elmhurst Way</name>
      </trkpt>
      <trkpt lat="50.8235504" lon="-1.8791384">
        <name>Elmhurst Way</name>
      </trkpt>
      <trkpt lat="50.8236290" lon="-1.8790850">
        <name>Elmhurst Way</name>
      </trkpt>
      <trkpt lat="50.8236582" lon="-1.8792075">
        <name>Elmhurst Way</name>
      </trkpt>
      <trkpt lat="50.8236875" lon="-1.8793300">
        <name>Elmhurst Way</name>
      </trkpt>
      <trkpt lat="50.8237168" lon="-1.8794525">
        <name>Elmhurst Way</name>
      </trkpt>
      <trkpt lat="50.8237460" lon="-1.8795750">
        <name>Elmhurst Way</name>
      </trkpt>
      <trkpt lat="50.8237752" lon="-1.8796978">
        <name>Elmhurst Way</name>
      </trkpt>
      <trkpt lat="50.8238045" lon="-1.8798205">
        <name>Elmhurst Way</name>
      </trkpt>
      <trkpt lat="50.8238338" lon="-1.8799432">
        <name>Elmhurst Way</name>
      </trkpt>
      <trkpt lat="50.8238630" lon="-1.8800660">
        <name>Elmhurst Way</name>
      </trkpt>
      <trkpt lat="50.8238947" lon="-1.8801992">
        <name>Elmhurst Way</name>
      </trkpt>
      <trkpt lat="50.8239265" lon="-1.8803324">
        <name>Elmhurst Way</name>
      </trkpt>
      <trkpt lat="50.8239582" lon="-1.8804656">
        <name>Elmhurst Way</name>
      </trkpt>
      <trkpt lat="50.8239899" lon="-1.8805988">
        <name>Elmhurst Way</name>
      </trkpt>
      <trkpt lat="50.8240217" lon="-1.8807320">
        <name>Elmhurst Way</name>
      </trkpt>
      <trkpt lat="50.8240534" lon="-1.8808652">
        <name>Elmhurst Way</name>
      </trkpt>
      <trkpt lat="50.8240851" lon="-1.8809984">
        <name>Elmhurst Way</name>
      </trkpt>
      <trkpt lat="50.8241169" lon="-1.8811316">
        <name>Elmhurst Way</name>
      </trkpt>
      <trkpt lat="50.8241486" lon="-1.8812648">
        <name>Elmhurst Way</name>
      </trkpt>
      <trkpt lat="50.8241803" lon="-1.8813980">
        <name>Elmhurst Way</name>
      </trkpt>
      <trkpt lat="50.8242121" lon="-1.8815312">
        <name>Elmhurst Way</name>
      </trkpt>
      <trkpt lat="50.8242438" lon="-1.8816644">
        <name>Elmhurst Way</name>
      </trkpt>
      <trkpt lat="50.8242755" lon="-1.8817976">
        <name>Elmhurst Way</name>
      </trkpt>
      <trkpt lat="50.8243073" lon="-1.8819308">
        <name>Elmhurst Way</name>
      </trkpt>
      <trkpt lat="50.8243390" lon="-1.8820640">
        <name>Elmhurst Way</name>
      </trkpt>
      <trkpt lat="50.8243760" lon="-1.8821828">
        <name>Elmhurst Way</name>
      </trkpt>
      <trkpt lat="50.8244130" lon="-1.8823016">
        <name>Elmhurst Way</name>
      </trkpt>
      <trkpt lat="50.8244500" lon="-1.8824204">
        <name>Elmhurst Way</name>
      </trkpt>
      <trkpt lat="50.8244870" lon="-1.8825392">
        <name>Elmhurst Way</name>
      </trkpt>
      <trkpt lat="50.8245240" lon="-1.8826580">
        <name>Elmhurst Way</name>
      </trkpt>
      <trkpt lat="50.8245603" lon="-1.8827745">
        <name>Elmhurst Way</name>
      </trkpt>
      <trkpt lat="50.8245967" lon="-1.8828910">
        <name>Elmhurst Way</name>
      </trkpt>
      <trkpt lat="50.8246330" lon="-1.8830075">
        <name>Elmhurst Way</name>
      </trkpt>
      <trkpt lat="50.8246693" lon="-1.8831240">
        <name>Elmhurst Way</name>
      </trkpt>
      <trkpt lat="50.8247057" lon="-1.8832405">
        <name>Elmhurst Way</name>
      </trkpt>
      <trkpt lat="50.8247420" lon="-1.8833570">
        <name>Elmhurst Way</name>
      </trkpt>
      <trkpt lat="50.8247008" lon="-1.8834765">
        <name>Elmhurst Way</name>
      </trkpt>
      <trkpt lat="50.8246597" lon="-1.8835961">
        <name>Elmhurst Way</name>
      </trkpt>
      <trkpt lat="50.8246185" lon="-1.8837156">
        <name>Elmhurst Way</name>
      </trkpt>
      <trkpt lat="50.8245774" lon="-1.8838352">
        <name>Elmhurst Way</name>
      </trkpt>
      <trkpt lat="50.8245362" lon="-1.8839547">
        <name>Elmhurst Way</name>
      </trkpt>
      <trkpt lat="50.8244951" lon="-1.8840742">
        <name>Elmhurst Way</name>
      </trkpt>
      <trkpt lat="50.8244539" lon="-1.8841938">
        <name>Elmhurst Way</name>
      </trkpt>
      <trkpt lat="50.8244128" lon="-1.8843133">
        <name>Elmhurst Way</name>
      </trkpt>
      <trkpt lat="50.8243716" lon="-1.8844328">
        <name>Elmhurst Way</name>
      </trkpt>
      <trkpt lat="50.8243305" lon="-1.8845524">
        <name>Elmhurst Way</name>
      </trkpt>
      <trkpt lat="50.8242893" lon="-1.8846719">
        <name>Elmhurst Way</name>
      </trkpt>
      <trkpt lat="50.8242482" lon="-1.8847915">
        <name>Elmhurst Way</name>
      </trkpt>
      <trkpt lat="50.8242070" lon="-1.8849110">
        <name>Elmhurst Way</name>
      </trkpt>
      <trkpt lat="50.8241682" lon="-1.8850235">
        <name>Elmhurst Way</name>
      </trkpt>
      <trkpt lat="50.8241294" lon="-1.8851360">
        <name>Elmhurst Way</name>
      </trkpt>
      <trkpt lat="50.8240906" lon="-1.8852485">
        <name>Elmhurst Way</name>
      </trkpt>
      <trkpt lat="50.8240518" lon="-1.8853610">
        <name>Elmhurst Way</name>
      </trkpt>
      <trkpt lat="50.8240130" lon="-1.8854735">
        <name>Elmhurst Way</name>
      </trkpt>
      <trkpt lat="50.8239742" lon="-1.8855860">
        <name>Elmhurst Way</name>
      </trkpt>
      <trkpt lat="50.8239354" lon="-1.8856985">
        <name>Elmhurst Way</name>
      </trkpt>
      <trkpt lat="50.8238966" lon="-1.8858110">
        <name>Elmhurst Way</name>
      </trkpt>
      <trkpt lat="50.8238578" lon="-1.8859235">
        <name>Elmhurst Way</name>
      </trkpt>
      <trkpt lat="50.8238190" lon="-1.8860360">
        <name>Elmhurst Way</name>
      </trkpt>
      <trkpt lat="50.8238896" lon="-1.8860956">
        <name>Elmhurst Way</name>
      </trkpt>
      <trkpt lat="50.8239602" lon="-1.8861552">
        <name>Elmhurst Way</name>
      </trkpt>
      <trkpt lat="50.8240308" lon="-1.8862148">
        <name>Elmhurst Way</name>
      </trkpt>
      <trkpt lat="50.8241014" lon="-1.8862744">
        <name>Elmhurst Way</name>
      </trkpt>
      <trkpt lat="50.8241720" lon="-1.8863340">
        <name>Elmhurst Way</name>
      </trkpt>
      <trkpt lat="50.8242437" lon="-1.8863837">
        <name>Elmhurst Way</name>
      </trkpt>
      <trkpt lat="50.8243153" lon="-1.8864333">
        <name>Elmhurst Way</name>
      </trkpt>
      <trkpt lat="50.8243870" lon="-1.8864830">
        <name>Elmhurst Way</name>
      </trkpt>
      <trkpt lat="50.8244680" lon="-1.8864930">
        <name>Elmhurst Way</name>
      </trkpt>
      <trkpt lat="50.8245480" lon="-1.8864610">
        <name>Elmhurst Way</name>
      </trkpt>
      <trkpt lat="50.8245920" lon="-1.8863710">
        <name>Elmhurst Way</name>
      </trkpt>
      <trkpt lat="50.8246360" lon="-1.8862810">
        <name>Elmhurst Way</name>
      </trkpt>
      <trkpt lat="50.8246680" lon="-1.8861653">
        <name>Elmhurst Way</name>
      </trkpt>
      <trkpt lat="50.8247000" lon="-1.8860497">
        <name>Elmhurst Way</name>
      </trkpt>
      <trkpt lat="50.8247320" lon="-1.8859340">
        <name>Elmhurst Way</name>
      </trkpt>
      <trkpt lat="50.8247691" lon="-1.8858210">
        <name>Elmhurst Way</name>
      </trkpt>
      <trkpt lat="50.8248063" lon="-1.8857080">
        <name>Elmhurst Way</name>
      </trkpt>
      <trkpt lat="50.8248434" lon="-1.8855950">
        <name>Elmhurst Way</name>
      </trkpt>
      <trkpt lat="50.8248806" lon="-1.8854820">
        <name>Elmhurst Way</name>
      </trkpt>
      <trkpt lat="50.8249177" lon="-1.8853690">
        <name>Elmhurst Way</name>
      </trkpt>
      <trkpt lat="50.8249549" lon="-1.8852560">
        <name>Elmhurst Way</name>
      </trkpt>
      <trkpt lat="50.8249920" lon="-1.8851430">
        <name>Elmhurst Way</name>
      </trkpt>
      <trkpt lat="50.8250413" lon="-1.8850437">
        <name>Elmhurst Way</name>
      </trkpt>
      <trkpt lat="50.8250907" lon="-1.8849443">
        <name>Elmhurst Way</name>
      </trkpt>
      <trkpt lat="50.8251400" lon="-1.8848450">
        <name>Elmhurst Way</name>
      </trkpt>
      <trkpt lat="50.8251937" lon="-1.8847703">
        <name>Elmhurst Way</name>
      </trkpt>
      <trkpt lat="50.8252473" lon="-1.8846957">
        <name>Elmhurst Way</name>
      </trkpt>
      <trkpt lat="50.8253010" lon="-1.8846210">
        <name>Elmhurst Way</name>
      </trkpt>
      <trkpt lat="50.8253395" lon="-1.8845430">
        <name>Elmhurst Way</name>
      </trkpt>
      <trkpt lat="50.8253780" lon="-1.8844650">
        <name>Elmhurst Way</name>
      </trkpt>
      <trkpt lat="50.8254220" lon="-1.8843770">
        <name>Elmhurst Way</name>
      </trkpt>
      <trkpt lat="50.8254536" lon="-1.8842686">
        <name>Elmhurst Way</name>
      </trkpt>
      <trkpt lat="50.8254852" lon="-1.8841602">
        <name>Elmhurst Way</name>
      </trkpt>
      <trkpt lat="50.8255168" lon="-1.8840518">
        <name>Elmhurst Way</name>
      </trkpt>
      <trkpt lat="50.8255484" lon="-1.8839434">
        <name>Elmhurst Way</name>
      </trkpt>
      <trkpt lat="50.8255800" lon="-1.8838350">
        <name>Elmhurst Way</name>
      </trkpt>
      <trkpt lat="50.8256056" lon="-1.8837220">
        <name>Elmhurst Way</name>
      </trkpt>
      <trkpt lat="50.8256312" lon="-1.8836090">
        <name>Elmhurst Way</name>
      </trkpt>
      <trkpt lat="50.8256568" lon="-1.8834960">
        <name>Elmhurst Way</name>
      </trkpt>
      <trkpt lat="50.8256824" lon="-1.8833830">
        <name>Elmhurst Way</name>
      </trkpt>
      <trkpt lat="50.8257080" lon="-1.8832700">
        <name>Elmhurst Way</name>
      </trkpt>
      <trkpt lat="50.8257405" lon="-1.8831603">
        <name>Heathfield Way</name>
      </trkpt>
      <trkpt lat="50.8257730" lon="-1.8830507">
        <name>Heathfield Way</name>
      </trkpt>
      <trkpt lat="50.8258055" lon="-1.8829410">
        <name>Heathfield Way</name>
      </trkpt>
      <trkpt lat="50.8258380" lon="-1.8828313">
        <name>Heathfield Way</name>
      </trkpt>
      <trkpt lat="50.8258705" lon="-1.8827217">
        <name>Heathfield Way</name>
      </trkpt>
      <trkpt lat="50.8259030" lon="-1.8826120">
        <name>Heathfield Way</name>
      </trkpt>
      <trkpt lat="50.8259372" lon="-1.8824922">
        <name>Heathfield Way</name>
      </trkpt>
      <trkpt lat="50.8259715" lon="-1.8823725">
        <name>Heathfield Way</name>
      </trkpt>
      <trkpt lat="50.8260058" lon="-1.8822528">
        <name>Heathfield Way</name>
      </trkpt>
      <trkpt lat="50.8260400" lon="-1.8821330">
        <name>Heathfield Way</name>
      </trkpt>
      <trkpt lat="50.8260825" lon="-1.8820595">
        <name>Heathfield Way</name>
      </trkpt>
      <trkpt lat="50.8261250" lon="-1.8819860">
        <name>Heathfield Way</name>
      </trkpt>
      <trkpt lat="50.8261740" lon="-1.8819110">
        <name>Heathfield Way</name>
      </trkpt>
      <trkpt lat="50.8262280" lon="-1.8818670">
        <name>Heathfield Way</name>
      </trkpt>
      <trkpt lat="50.8262932" lon="-1.8819147">
        <name>Heathfield Way</name>
      </trkpt>
      <trkpt lat="50.8263585" lon="-1.8819625">
        <name>Heathfield Way</name>
      </trkpt>
      <trkpt lat="50.8264238" lon="-1.8820102">
        <name>Heathfield Way</name>
      </trkpt>
      <trkpt lat="50.8264890" lon="-1.8820580">
        <name>Heathfield Way</name>
      </trkpt>
      <trkpt lat="50.8265500" lon="-1.8820933">
        <name>Elmhurst Road</name>
      </trkpt>
      <trkpt lat="50.8266110" lon="-1.8821287">
        <name>Elmhurst Road</name>
      </trkpt>
      <trkpt lat="50.8266720" lon="-1.8821640">
        <name>Elmhurst Road</name>
      </trkpt>
      <trkpt lat="50.8267390" lon="-1.8821997">
        <name>Elmhurst Road</name>
      </trkpt>
      <trkpt lat="50.8268060" lon="-1.8822353">
        <name>Elmhurst Road</name>
      </trkpt>
      <trkpt lat="50.8268730" lon="-1.8822710">
        <name>Elmhurst Road</name>
      </trkpt>
      <trkpt lat="50.8269467" lon="-1.8823245">
        <name>Shaftesbury Road</name>
      </trkpt>
      <trkpt lat="50.8270205" lon="-1.8823780">
        <name>Shaftesbury Road</name>
      </trkpt>
      <trkpt lat="50.8270943" lon="-1.8824315">
        <name>Shaftesbury Road</name>
      </trkpt>
      <trkpt lat="50.8271680" lon="-1.8824850">
        <name>Shaftesbury Road</name>
      </trkpt>
      <trkpt lat="50.8271325" lon="-1.8826053">
        <name>Shaftesbury Road</name>
      </trkpt>
      <trkpt lat="50.8270970" lon="-1.8827256">
        <name>Shaftesbury Road</name>
      </trkpt>
      <trkpt lat="50.8270615" lon="-1.8828459">
        <name>Shaftesbury Road</name>
      </trkpt>
      <trkpt lat="50.8270260" lon="-1.8829662">
        <name>Shaftesbury Road</name>
      </trkpt>
      <trkpt lat="50.8269905" lon="-1.8830865">
        <name>Shaftesbury Road</name>
      </trkpt>
      <trkpt lat="50.8269550" lon="-1.8832068">
        <name>Shaftesbury Road</name>
      </trkpt>
      <trkpt lat="50.8269195" lon="-1.8833271">
        <name>Shaftesbury Road</name>
      </trkpt>
      <trkpt lat="50.8268840" lon="-1.8834474">
        <name>Shaftesbury Road</name>
      </trkpt>
      <trkpt lat="50.8268485" lon="-1.8835677">
        <name>Shaftesbury Road</name>
      </trkpt>
      <trkpt lat="50.8268130" lon="-1.8836880">
        <name>Shaftesbury Road</name>
      </trkpt>
      <trkpt lat="50.8267870" lon="-1.8837705">
        <name>Shaftesbury Road</name>
      </trkpt>
      <trkpt lat="50.8267610" lon="-1.8838530">
        <name>Shaftesbury Road</name>
      </trkpt>
      <trkpt lat="50.8267460" lon="-1.8839000">
        <name>Shaftesbury Road</name>
      </trkpt>
      <trkpt lat="50.8267320" lon="-1.8839480">
        <name>Shaftesbury Road</name>
      </trkpt>
      <trkpt lat="50.8266955" lon="-1.8840705">
        <name>Shaftesbury Road</name>
      </trkpt>
      <trkpt lat="50.8266591" lon="-1.8841931">
        <name>Shaftesbury Road</name>
      </trkpt>
      <trkpt lat="50.8266226" lon="-1.8843156">
        <name>Shaftesbury Road</name>
      </trkpt>
      <trkpt lat="50.8265861" lon="-1.8844381">
        <name>Shaftesbury Road</name>
      </trkpt>
      <trkpt lat="50.8265497" lon="-1.8845607">
        <name>Shaftesbury Road</name>
      </trkpt>
      <trkpt lat="50.8265132" lon="-1.8846832">
        <name>Shaftesbury Road</name>
      </trkpt>
      <trkpt lat="50.8264767" lon="-1.8848057">
        <name>Shaftesbury Road</name>
      </trkpt>
      <trkpt lat="50.8264403" lon="-1.8849283">
        <name>Shaftesbury Road</name>
      </trkpt>
      <trkpt lat="50.8264038" lon="-1.8850508">
        <name>Shaftesbury Road</name>
      </trkpt>
      <trkpt lat="50.8263673" lon="-1.8851733">
        <name>Shaftesbury Road</name>
      </trkpt>
      <trkpt lat="50.8263309" lon="-1.8852959">
        <name>Shaftesbury Road</name>
      </trkpt>
      <trkpt lat="50.8262944" lon="-1.8854184">
        <name>Shaftesbury Road</name>
      </trkpt>
      <trkpt lat="50.8262579" lon="-1.8855409">
        <name>Shaftesbury Road</name>
      </trkpt>
      <trkpt lat="50.8262215" lon="-1.8856635">
        <name>Shaftesbury Road</name>
      </trkpt>
      <trkpt lat="50.8261850" lon="-1.8857860">
        <name>Shaftesbury Road</name>
      </trkpt>
      <trkpt lat="50.8261573" lon="-1.8858783">
        <name>Shaftesbury Road</name>
      </trkpt>
      <trkpt lat="50.8261297" lon="-1.8859707">
        <name>Shaftesbury Road</name>
      </trkpt>
      <trkpt lat="50.8261020" lon="-1.8860630">
        <name>Shaftesbury Road</name>
      </trkpt>
      <trkpt lat="50.8260636" lon="-1.8861889">
        <name>Shaftesbury Road</name>
      </trkpt>
      <trkpt lat="50.8260252" lon="-1.8863148">
        <name>Shaftesbury Road</name>
      </trkpt>
      <trkpt lat="50.8259868" lon="-1.8864408">
        <name>Shaftesbury Road</name>
      </trkpt>
      <trkpt lat="50.8259485" lon="-1.8865667">
        <name>Shaftesbury Road</name>
      </trkpt>
      <trkpt lat="50.8259101" lon="-1.8866926">
        <name>Shaftesbury Road</name>
      </trkpt>
      <trkpt lat="50.8258717" lon="-1.8868185">
        <name>Shaftesbury Road</name>
      </trkpt>
      <trkpt lat="50.8258333" lon="-1.8869445">
        <name>Shaftesbury Road</name>
      </trkpt>
      <trkpt lat="50.8257949" lon="-1.8870704">
        <name>Shaftesbury Road</name>
      </trkpt>
      <trkpt lat="50.8257565" lon="-1.8871963">
        <name>Shaftesbury Road</name>
      </trkpt>
      <trkpt lat="50.8257182" lon="-1.8873222">
        <name>Shaftesbury Road</name>
      </trkpt>
      <trkpt lat="50.8256798" lon="-1.8874482">
        <name>Shaftesbury Road</name>
      </trkpt>
      <trkpt lat="50.8256414" lon="-1.8875741">
        <name>Shaftesbury Road</name>
      </trkpt>
      <trkpt lat="50.8256030" lon="-1.8877000">
        <name>Shaftesbury Road</name>
      </trkpt>
      <trkpt lat="50.8255644" lon="-1.8878264">
        <name>Shaftesbury Road</name>
      </trkpt>
      <trkpt lat="50.8255259" lon="-1.8879529">
        <name>Shaftesbury Road</name>
      </trkpt>
      <trkpt lat="50.8254873" lon="-1.8880793">
        <name>Shaftesbury Road</name>
      </trkpt>
      <trkpt lat="50.8254487" lon="-1.8882057">
        <name>Shaftesbury Road</name>
      </trkpt>
      <trkpt lat="50.8254101" lon="-1.8883321">
        <name>Shaftesbury Road</name>
      </trkpt>
      <trkpt lat="50.8253716" lon="-1.8884586">
        <name>Shaftesbury Road</name>
      </trkpt>
      <trkpt lat="50.8253330" lon="-1.8885850">
        <name>Shaftesbury Road</name>
      </trkpt>
      <trkpt lat="50.8253010" lon="-1.8886904">
        <name>Shaftesbury Road</name>
      </trkpt>
      <trkpt lat="50.8252690" lon="-1.8887958">
        <name>Shaftesbury Road</name>
      </trkpt>
      <trkpt lat="50.8252370" lon="-1.8889012">
        <name>Shaftesbury Road</name>
      </trkpt>
      <trkpt lat="50.8252050" lon="-1.8890066">
        <name>Shaftesbury Road</name>
      </trkpt>
      <trkpt lat="50.8251730" lon="-1.8891120">
        <name>Shaftesbury Road</name>
      </trkpt>
      <trkpt lat="50.8250944" lon="-1.8890614">
        <name>Shaftesbury Road</name>
      </trkpt>
      <trkpt lat="50.8250158" lon="-1.8890108">
        <name>Shaftesbury Road</name>
      </trkpt>
      <trkpt lat="50.8249372" lon="-1.8889602">
        <name>Shaftesbury Road</name>
      </trkpt>
      <trkpt lat="50.8248586" lon="-1.8889096">
        <name>Shaftesbury Road</name>
      </trkpt>
      <trkpt lat="50.8247800" lon="-1.8888590">
        <name>Shaftesbury Road</name>
      </trkpt>
      <trkpt lat="50.8247096" lon="-1.8888022">
        <name>Shaftesbury Road</name>
      </trkpt>
      <trkpt lat="50.8246392" lon="-1.8887454">
        <name>Shaftesbury Road</name>
      </trkpt>
      <trkpt lat="50.8245688" lon="-1.8886886">
        <name>Shaftesbury Road</name>
      </trkpt>
      <trkpt lat="50.8244984" lon="-1.8886318">
        <name>Shaftesbury Road</name>
      </trkpt>
      <trkpt lat="50.8244280" lon="-1.8885750">
        <name>Shaftesbury Road</name>
      </trkpt>
      <trkpt lat="50.8243745" lon="-1.8885310">
        <name>Shaftesbury Road</name>
      </trkpt>
      <trkpt lat="50.8243210" lon="-1.8884870">
        <name>Shaftesbury Road</name>
      </trkpt>
      <trkpt lat="50.8242550" lon="-1.8884320">
        <name>Shaftesbury Road</name>
      </trkpt>
      <trkpt lat="50.8241878" lon="-1.8883694">
        <name>Shaftesbury Road</name>
      </trkpt>
      <trkpt lat="50.8241206" lon="-1.8883068">
        <name>Shaftesbury Road</name>
      </trkpt>
      <trkpt lat="50.8240534" lon="-1.8882442">
        <name>Shaftesbury Road</name>
      </trkpt>
      <trkpt lat="50.8239862" lon="-1.8881816">
        <name>Shaftesbury Road</name>
      </trkpt>
      <trkpt lat="50.8239190" lon="-1.8881190">
        <name>Shaftesbury Road</name>
      </trkpt>
      <trkpt lat="50.8238810" lon="-1.8880740">
        <name>Shaftesbury Road</name>
      </trkpt>
      <trkpt lat="50.8238163" lon="-1.8880020">
        <name>Shaftesbury Road</name>
      </trkpt>
      <trkpt lat="50.8237517" lon="-1.8879300">
        <name>Shaftesbury Road</name>
      </trkpt>
      <trkpt lat="50.8236870" lon="-1.8878580">
        <name>Shaftesbury Road</name>
      </trkpt>
      <trkpt lat="50.8236183" lon="-1.8877970">
        <name>Shaftesbury Road</name>
      </trkpt>
      <trkpt lat="50.8235497" lon="-1.8877360">
        <name>Shaftesbury Road</name>
      </trkpt>
      <trkpt lat="50.8234810" lon="-1.8876750">
        <name>Shaftesbury Road</name>
      </trkpt>
      <trkpt lat="50.8234120" lon="-1.8876233">
        <name>Shaftesbury Road</name>
      </trkpt>
      <trkpt lat="50.8233430" lon="-1.8875717">
        <name>Shaftesbury Road</name>
      </trkpt>
      <trkpt lat="50.8232740" lon="-1.8875200">
        <name>Shaftesbury Road</name>
      </trkpt>
      <trkpt lat="50.8231935" lon="-1.8874847">
        <name>Shaftesbury Road</name>
      </trkpt>
      <trkpt lat="50.8231130" lon="-1.8874493">
        <name>Shaftesbury Road</name>
      </trkpt>
      <trkpt lat="50.8230325" lon="-1.8874140">
        <name>Shaftesbury Road</name>
      </trkpt>
      <trkpt lat="50.8229520" lon="-1.8873787">
        <name>Shaftesbury Road</name>
      </trkpt>
      <trkpt lat="50.8228715" lon="-1.8873433">
        <name>Shaftesbury Road</name>
      </trkpt>
      <trkpt lat="50.8227910" lon="-1.8873080">
        <name>Shaftesbury Road</name>
      </trkpt>
      <trkpt lat="50.8227140" lon="-1.8872797">
        <name>Shaftesbury Road</name>
      </trkpt>
      <trkpt lat="50.8226370" lon="-1.8872513">
        <name>Shaftesbury Road</name>
      </trkpt>
      <trkpt lat="50.8225600" lon="-1.8872230">
        <name>Shaftesbury Road</name>
      </trkpt>
      <trkpt lat="50.8224900" lon="-1.8871973">
        <name>Shaftesbury Road</name>
      </trkpt>
      <trkpt lat="50.8224200" lon="-1.8871717">
        <name>Shaftesbury Road</name>
      </trkpt>
      <trkpt lat="50.8223500" lon="-1.8871460">
        <name>Shaftesbury Road</name>
      </trkpt>
      <trkpt lat="50.8222698" lon="-1.8871166">
        <name>Shaftesbury Road</name>
      </trkpt>
      <trkpt lat="50.8221896" lon="-1.8870872">
        <name>Shaftesbury Road</name>
      </trkpt>
      <trkpt lat="50.8221094" lon="-1.8870578">
        <name>Shaftesbury Road</name>
      </trkpt>
      <trkpt lat="50.8220292" lon="-1.8870284">
        <name>Shaftesbury Road</name>
      </trkpt>
      <trkpt lat="50.8219490" lon="-1.8869990">
        <name>Shaftesbury Road</name>
      </trkpt>
      <trkpt lat="50.8219140" lon="-1.8868873">
        <name>Shaftesbury Road</name>
      </trkpt>
      <trkpt lat="50.8218790" lon="-1.8867755">
        <name>Shaftesbury Road</name>
      </trkpt>
      <trkpt lat="50.8218440" lon="-1.8866638">
        <name>Shaftesbury Road</name>
      </trkpt>
      <trkpt lat="50.8218090" lon="-1.8865520">
        <name>Shaftesbury Road</name>
      </trkpt>
      <trkpt lat="50.8217680" lon="-1.8864318">
        <name>Oakhurst Road</name>
      </trkpt>
      <trkpt lat="50.8217270" lon="-1.8863115">
        <name>Oakhurst Road</name>
      </trkpt>
      <trkpt lat="50.8216860" lon="-1.8861912">
        <name>Oakhurst Road</name>
      </trkpt>
      <trkpt lat="50.8216450" lon="-1.8860710">
        <name>Oakhurst Road</name>
      </trkpt>
      <trkpt lat="50.8216330" lon="-1.8860350">
        <name>Oakhurst Road</name>
      </trkpt>
      <trkpt lat="50.8216040" lon="-1.8859131">
        <name>Oakhurst Road</name>
      </trkpt>
      <trkpt lat="50.8215750" lon="-1.8857913">
        <name>Oakhurst Road</name>
      </trkpt>
      <trkpt lat="50.8215460" lon="-1.8856694">
        <name>Oakhurst Road</name>
      </trkpt>
      <trkpt lat="50.8215170" lon="-1.8855476">
        <name>Oakhurst Road</name>
      </trkpt>
      <trkpt lat="50.8214880" lon="-1.8854257">
        <name>Oakhurst Road</name>
      </trkpt>
      <trkpt lat="50.8214590" lon="-1.8853039">
        <name>Oakhurst Road</name>
      </trkpt>
      <trkpt lat="50.8214300" lon="-1.8851820">
        <name>Oakhurst Road</name>
      </trkpt>
      <trkpt lat="50.8213984" lon="-1.8850497">
        <name>Oakhurst Road</name>
      </trkpt>
      <trkpt lat="50.8213669" lon="-1.8849174">
        <name>Oakhurst Road</name>
      </trkpt>
      <trkpt lat="50.8213353" lon="-1.8847851">
        <name>Oakhurst Road</name>
      </trkpt>
      <trkpt lat="50.8213037" lon="-1.8846529">
        <name>Oakhurst Road</name>
      </trkpt>
      <trkpt lat="50.8212721" lon="-1.8845206">
        <name>Oakhurst Road</name>
      </trkpt>
      <trkpt lat="50.8212406" lon="-1.8843883">
        <name>Oakhurst Road</name>
      </trkpt>
      <trkpt lat="50.8212090" lon="-1.8842560">
        <name>Oakhurst Road</name>
      </trkpt>
      <trkpt lat="50.8211287" lon="-1.8843130">
        <name>Oakhurst Road</name>
      </trkpt>
      <trkpt lat="50.8210485" lon="-1.8843700">
        <name>Oakhurst Road</name>
      </trkpt>
      <trkpt lat="50.8209682" lon="-1.8844270">
        <name>Oakhurst Road</name>
      </trkpt>
      <trkpt lat="50.8208880" lon="-1.8844840">
        <name>Oakhurst Road</name>
      </trkpt>
      <trkpt lat="50.8208060" lon="-1.8845420">
        <name>Oakhurst Road</name>
      </trkpt>
      <trkpt lat="50.8207303" lon="-1.8845953">
        <name>Firs Glen Road</name>
      </trkpt>
      <trkpt lat="50.8206547" lon="-1.8846487">
        <name>Firs Glen Road</name>
      </trkpt>
      <trkpt lat="50.8205790" lon="-1.8847020">
        <name>Firs Glen Road</name>
      </trkpt>
      <trkpt lat="50.8204990" lon="-1.8847590">
        <name>Firs Glen Road</name>
      </trkpt>
      <trkpt lat="50.8204265" lon="-1.8848110">
        <name>Firs Glen Road</name>
      </trkpt>
      <trkpt lat="50.8203540" lon="-1.8848630">
        <name>Firs Glen Road</name>
      </trkpt>
      <trkpt lat="50.8203300" lon="-1.8848810">
        <name>Firs Glen Road</name>
      </trkpt>
      <trkpt lat="50.8202760" lon="-1.8849115">
        <name>Firs Glen Road</name>
      </trkpt>
      <trkpt lat="50.8202220" lon="-1.8849420">
        <name>Firs Glen Road</name>
      </trkpt>
      <trkpt lat="50.8201630" lon="-1.8849623">
        <name>Firs Glen Road</name>
      </trkpt>
      <trkpt lat="50.8201040" lon="-1.8849827">
        <name>Firs Glen Road</name>
      </trkpt>
      <trkpt lat="50.8200450" lon="-1.8850030">
        <name>Firs Glen Road</name>
      </trkpt>
      <trkpt lat="50.8199990" lon="-1.8849970">
        <name>Firs Glen Road</name>
      </trkpt>
      <trkpt lat="50.8199530" lon="-1.8849910">
        <name>Firs Glen Road</name>
      </trkpt>
      <trkpt lat="50.8198740" lon="-1.8849710">
        <name>Firs Glen Road</name>
      </trkpt>
      <trkpt lat="50.8197950" lon="-1.8849510">
        <name>Firs Glen Road</name>
      </trkpt>
      <trkpt lat="50.8197220" lon="-1.8848690">
        <name>Firs Glen Road</name>
      </trkpt>
      <trkpt lat="50.8196680" lon="-1.8848020">
        <name>Firs Glen Road</name>
      </trkpt>
      <trkpt lat="50.8196140" lon="-1.8847350">
        <name>Firs Glen Road</name>
      </trkpt>
      <trkpt lat="50.8195675" lon="-1.8846555">
        <name>Firs Glen Road</name>
      </trkpt>
      <trkpt lat="50.8195210" lon="-1.8845760">
        <name>Firs Glen Road</name>
      </trkpt>
      <trkpt lat="50.8194905" lon="-1.8844725">
        <name>Firs Glen Road</name>
      </trkpt>
      <trkpt lat="50.8194600" lon="-1.8843690">
        <name>Firs Glen Road</name>
      </trkpt>
      <trkpt lat="50.8194298" lon="-1.8842414">
        <name>Glenwood Road</name>
      </trkpt>
      <trkpt lat="50.8193996" lon="-1.8841138">
        <name>Glenwood Road</name>
      </trkpt>
      <trkpt lat="50.8193694" lon="-1.8839862">
        <name>Glenwood Road</name>
      </trkpt>
      <trkpt lat="50.8193392" lon="-1.8838586">
        <name>Glenwood Road</name>
      </trkpt>
      <trkpt lat="50.8193090" lon="-1.8837310">
        <name>Glenwood Road</name>
      </trkpt>
      <trkpt lat="50.8192910" lon="-1.8835937">
        <name>Glenwood Road</name>
      </trkpt>
      <trkpt lat="50.8192730" lon="-1.8834564">
        <name>Glenwood Road</name>
      </trkpt>
      <trkpt lat="50.8192550" lon="-1.8833191">
        <name>Glenwood Road</name>
      </trkpt>
      <trkpt lat="50.8192370" lon="-1.8831818">
        <name>Glenwood Road</name>
      </trkpt>
      <trkpt lat="50.8192190" lon="-1.8830445">
        <name>Glenwood Road</name>
      </trkpt>
      <trkpt lat="50.8192010" lon="-1.8829072">
        <name>Glenwood Road</name>
      </trkpt>
      <trkpt lat="50.8191830" lon="-1.8827699">
        <name>Glenwood Road</name>
      </trkpt>
      <trkpt lat="50.8191650" lon="-1.8826326">
        <name>Glenwood Road</name>
      </trkpt>
      <trkpt lat="50.8191470" lon="-1.8824953">
        <name>Glenwood Road</name>
      </trkpt>
      <trkpt lat="50.8191290" lon="-1.8823580">
        <name>Glenwood Road</name>
      </trkpt>
      <trkpt lat="50.8191147" lon="-1.8822347">
        <name>Glenwood Road</name>
      </trkpt>
      <trkpt lat="50.8191005" lon="-1.8821115">
        <name>Glenwood Road</name>
      </trkpt>
      <trkpt lat="50.8190862" lon="-1.8819883">
        <name>Glenwood Road</name>
      </trkpt>
      <trkpt lat="50.8190720" lon="-1.8818650">
        <name>Glenwood Road</name>
      </trkpt>
      <trkpt lat="50.8190535" lon="-1.8817490">
        <name>Glenwood Road</name>
      </trkpt>
      <trkpt lat="50.8190350" lon="-1.8816330">
        <name>Glenwood Road</name>
      </trkpt>
      <trkpt lat="50.8190225" lon="-1.8815570">
        <name>Glenwood Road</name>
      </trkpt>
      <trkpt lat="50.8190100" lon="-1.8814810">
        <name>Glenwood Road</name>
      </trkpt>
      <trkpt lat="50.8189750" lon="-1.8813560">
        <name>Glenwood Road</name>
      </trkpt>
      <trkpt lat="50.8189570" lon="-1.8813080">
        <name>Glenwood Way</name>
      </trkpt>
      <trkpt lat="50.8189250" lon="-1.8812215">
        <name>Glenwood Way</name>
      </trkpt>
      <trkpt lat="50.8188930" lon="-1.8811350">
        <name>Glenwood Way</name>
      </trkpt>
      <trkpt lat="50.8188790" lon="-1.8810990">
        <name>Glenwood Way</name>
      </trkpt>
      <trkpt lat="50.8188545" lon="-1.8810390">
        <name>Glenwood Way</name>
      </trkpt>
      <trkpt lat="50.8188300" lon="-1.8809790">
        <name>Glenwood Way</name>
      </trkpt>
      <trkpt lat="50.8187960" lon="-1.8808700">
        <name>Glenwood Way</name>
      </trkpt>
      <trkpt lat="50.8187620" lon="-1.8807610">
        <name>Glenwood Way</name>
      </trkpt>
      <trkpt lat="50.8187280" lon="-1.8806520">
        <name>Glenwood Way</name>
      </trkpt>
      <trkpt lat="50.8187065" lon="-1.8805735">
        <name>Glenwood Way</name>
      </trkpt>
      <trkpt lat="50.8186850" lon="-1.8804950">
        <name>Glenwood Way</name>
      </trkpt>
      <trkpt lat="50.8186565" lon="-1.8803910">
        <name>Glenwood Way</name>
      </trkpt>
      <trkpt lat="50.8186280" lon="-1.8802870">
        <name>Glenwood Way</name>
      </trkpt>
      <trkpt lat="50.8186125" lon="-1.8802015">
        <name>Glenwood Way</name>
      </trkpt>
      <trkpt lat="50.8185970" lon="-1.8801160">
        <name>Glenwood Way</name>
      </trkpt>
      <trkpt lat="50.8186050" lon="-1.8799880">
        <name>Glenwood Way</name>
      </trkpt>
      <trkpt lat="50.8186130" lon="-1.8798600">
        <name>Glenwood Way</name>
      </trkpt>
      <trkpt lat="50.8186257" lon="-1.8797583">
        <name>Glenwood Way</name>
      </trkpt>
      <trkpt lat="50.8186383" lon="-1.8796567">
        <name>Glenwood Way</name>
      </trkpt>
      <trkpt lat="50.8186510" lon="-1.8795550">
        <name>Glenwood Way</name>
      </trkpt>
      <trkpt lat="50.8186843" lon="-1.8794577">
        <name>Glenwood Way</name>
      </trkpt>
      <trkpt lat="50.8187177" lon="-1.8793603">
        <name>Glenwood Way</name>
      </trkpt>
      <trkpt lat="50.8187510" lon="-1.8792630">
        <name>Glenwood Way</name>
      </trkpt>
      <trkpt lat="50.8188130" lon="-1.8791655">
        <name>Glenwood Way</name>
      </trkpt>
      <trkpt lat="50.8188750" lon="-1.8790680">
        <name>Glenwood Way</name>
      </trkpt>
      <trkpt lat="50.8189340" lon="-1.8790233">
        <name>Glenwood Way</name>
      </trkpt>
      <trkpt lat="50.8189930" lon="-1.8789787">
        <name>Glenwood Way</name>
      </trkpt>
      <trkpt lat="50.8190520" lon="-1.8789340">
        <name>Glenwood Way</name>
      </trkpt>
      <trkpt lat="50.8191290" lon="-1.8788640">
        <name>Glenwood Way</name>
      </trkpt>
      <trkpt lat="50.8192060" lon="-1.8787940">
        <name>Glenwood Way</name>
      </trkpt>
      <trkpt lat="50.8192830" lon="-1.8787240">
        <name>Glenwood Way</name>
      </trkpt>
      <trkpt lat="50.8193600" lon="-1.8786540">
        <name>Glenwood Way</name>
      </trkpt>
      <trkpt lat="50.8194220" lon="-1.8785604">
        <name>Glenwood Way</name>
      </trkpt>
      <trkpt lat="50.8194840" lon="-1.8784668">
        <name>Glenwood Way</name>
      </trkpt>
      <trkpt lat="50.8195460" lon="-1.8783731">
        <name>Glenwood Way</name>
      </trkpt>
      <trkpt lat="50.8196080" lon="-1.8782795">
        <name>Glenwood Way</name>
      </trkpt>
      <trkpt lat="50.8196700" lon="-1.8781859">
        <name>Glenwood Way</name>
      </trkpt>
      <trkpt lat="50.8197320" lon="-1.8780922">
        <name>Glenwood Way</name>
      </trkpt>
      <trkpt lat="50.8197940" lon="-1.8779986">
        <name>Glenwood Way</name>
      </trkpt>
      <trkpt lat="50.8198560" lon="-1.8779050">
        <name>Glenwood Way</name>
      </trkpt>
      <trkpt lat="50.8197959" lon="-1.8777994">
        <name>Glenwood Way</name>
      </trkpt>
      <trkpt lat="50.8197357" lon="-1.8776937">
        <name>Glenwood Way</name>
      </trkpt>
      <trkpt lat="50.8196756" lon="-1.8775881">
        <name>Glenwood Way</name>
      </trkpt>
      <trkpt lat="50.8196155" lon="-1.8774825">
        <name>Glenwood Way</name>
      </trkpt>
      <trkpt lat="50.8195554" lon="-1.8773769">
        <name>Glenwood Way</name>
      </trkpt>
      <trkpt lat="50.8194953" lon="-1.8772712">
        <name>Glenwood Way</name>
      </trkpt>
      <trkpt lat="50.8194351" lon="-1.8771656">
        <name>Glenwood Way</name>
      </trkpt>
      <trkpt lat="50.8193750" lon="-1.8770600">
        <name>Glenwood Way</name>
      </trkpt>
      <trkpt lat="50.8193680" lon="-1.8770440">
        <name>Glenwood Way</name>
      </trkpt>
      <trkpt lat="50.8193195" lon="-1.8769400">
        <name>Glenwood Way</name>
      </trkpt>
      <trkpt lat="50.8192710" lon="-1.8768360">
        <name>Glenwood Way</name>
      </trkpt>
      <trkpt lat="50.8192225" lon="-1.8767320">
        <name>Glenwood Way</name>
      </trkpt>
      <trkpt lat="50.8191740" lon="-1.8766280">
        <name>Glenwood Way</name>
      </trkpt>
      <trkpt lat="50.8191207" lon="-1.8765228">
        <name>Glenwood Way</name>
      </trkpt>
      <trkpt lat="50.8190673" lon="-1.8764177">
        <name>Glenwood Way</name>
      </trkpt>
      <trkpt lat="50.8190140" lon="-1.8763125">
        <name>Glenwood Way</name>
      </trkpt>
      <trkpt lat="50.8189607" lon="-1.8762073">
        <name>Glenwood Way</name>
      </trkpt>
      <trkpt lat="50.8189073" lon="-1.8761022">
        <name>Glenwood Way</name>
      </trkpt>
      <trkpt lat="50.8188540" lon="-1.8759970">
        <name>Glenwood Way</name>
      </trkpt>
      <trkpt lat="50.8188056" lon="-1.8759018">
        <name>Glenwood Way</name>
      </trkpt>
      <trkpt lat="50.8187572" lon="-1.8758066">
        <name>Glenwood Way</name>
      </trkpt>
      <trkpt lat="50.8187088" lon="-1.8757114">
        <name>Glenwood Way</name>
      </trkpt>
      <trkpt lat="50.8186604" lon="-1.8756162">
        <name>Glenwood Way</name>
      </trkpt>
      <trkpt lat="50.8186120" lon="-1.8755210">
        <name>Glenwood Way</name>
      </trkpt>
      <trkpt lat="50.8185628" lon="-1.8754302">
        <name>Glenwood Way</name>
      </trkpt>
      <trkpt lat="50.8185136" lon="-1.8753394">
        <name>Glenwood Way</name>
      </trkpt>
      <trkpt lat="50.8184644" lon="-1.8752486">
        <name>Glenwood Way</name>
      </trkpt>
      <trkpt lat="50.8184152" lon="-1.8751578">
        <name>Glenwood Way</name>
      </trkpt>
      <trkpt lat="50.8183660" lon="-1.8750670">
        <name>Glenwood Way</name>
      </trkpt>
      <trkpt lat="50.8183136" lon="-1.8749705">
        <name>Glenwood Way</name>
      </trkpt>
      <trkpt lat="50.8182612" lon="-1.8748740">
        <name>Glenwood Way</name>
      </trkpt>
      <trkpt lat="50.8182089" lon="-1.8747775">
        <name>Glenwood Way</name>
      </trkpt>
      <trkpt lat="50.8181565" lon="-1.8746810">
        <name>Glenwood Way</name>
      </trkpt>
      <trkpt lat="50.8181041" lon="-1.8745845">
        <name>Glenwood Way</name>
      </trkpt>
      <trkpt lat="50.8180517" lon="-1.8744880">
        <name>Glenwood Way</name>
      </trkpt>
      <trkpt lat="50.8179994" lon="-1.8743915">
        <name>Glenwood Way</name>
      </trkpt>
      <trkpt lat="50.8179470" lon="-1.8742950">
        <name>Glenwood Way</name>
      </trkpt>
      <trkpt lat="50.8178914" lon="-1.8741941">
        <name>Summercroft Way</name>
      </trkpt>
      <trkpt lat="50.8178358" lon="-1.8740932">
        <name>Summercroft Way</name>
      </trkpt>
      <trkpt lat="50.8177802" lon="-1.8739923">
        <name>Summercroft Way</name>
      </trkpt>
      <trkpt lat="50.8177247" lon="-1.8738913">
        <name>Summercroft Way</name>
      </trkpt>
      <trkpt lat="50.8176691" lon="-1.8737904">
        <name>Summercroft Way</name>
      </trkpt>
      <trkpt lat="50.8176135" lon="-1.8736895">
        <name>Summercroft Way</name>
      </trkpt>
      <trkpt lat="50.8175579" lon="-1.8735886">
        <name>Summercroft Way</name>
      </trkpt>
      <trkpt lat="50.8175023" lon="-1.8734877">
        <name>Summercroft Way</name>
      </trkpt>
      <trkpt lat="50.8174467" lon="-1.8733867">
        <name>Summercroft Way</name>
      </trkpt>
      <trkpt lat="50.8173912" lon="-1.8732858">
        <name>Summercroft Way</name>
      </trkpt>
      <trkpt lat="50.8173356" lon="-1.8731849">
        <name>Summercroft Way</name>
      </trkpt>
      <trkpt lat="50.8172800" lon="-1.8730840">
        <name>Summercroft Way</name>
      </trkpt>
      <trkpt lat="50.8172992" lon="-1.8729567">
        <name>Summercroft Way</name>
      </trkpt>
      <trkpt lat="50.8173183" lon="-1.8728293">
        <name>Summercroft Way</name>
      </trkpt>
      <trkpt lat="50.8173375" lon="-1.8727020">
        <name>Summercroft Way</name>
      </trkpt>
      <trkpt lat="50.8173567" lon="-1.8725747">
        <name>Summercroft Way</name>
      </trkpt>
      <trkpt lat="50.8173758" lon="-1.8724473">
        <name>Summercroft Way</name>
      </trkpt>
      <trkpt lat="50.8173950" lon="-1.8723200">
        <name>Summercroft Way</name>
      </trkpt>
      <trkpt lat="50.8174145" lon="-1.8721915">
        <name>Summercroft Way</name>
      </trkpt>
      <trkpt lat="50.8174340" lon="-1.8720630">
        <name>Summercroft Way</name>
      </trkpt>
      <trkpt lat="50.8174535" lon="-1.8719345">
        <name>Summercroft Way</name>
      </trkpt>
      <trkpt lat="50.8174730" lon="-1.8718060">
        <name>Summercroft Way</name>
      </trkpt>
      <trkpt lat="50.8174925" lon="-1.8716775">
        <name>Summercroft Way</name>
      </trkpt>
      <trkpt lat="50.8175120" lon="-1.8715490">
        <name>Summercroft Way</name>
      </trkpt>
      <trkpt lat="50.8175040" lon="-1.8714330">
        <name>Summercroft Way</name>
      </trkpt>
      <trkpt lat="50.8174960" lon="-1.8713170">
        <name>Summercroft Way</name>
      </trkpt>
      <trkpt lat="50.8174615" lon="-1.8712165">
        <name>Summercroft Way</name>
      </trkpt>
      <trkpt lat="50.8174270" lon="-1.8711160">
        <name>Summercroft Way</name>
      </trkpt>
      <trkpt lat="50.8173925" lon="-1.8710155">
        <name>Summercroft Way</name>
      </trkpt>
      <trkpt lat="50.8173580" lon="-1.8709150">
        <name>Summercroft Way</name>
      </trkpt>
      <trkpt lat="50.8173143" lon="-1.8707992">
        <name>Moorlands Road</name>
      </trkpt>
      <trkpt lat="50.8172707" lon="-1.8706833">
        <name>Moorlands Road</name>
      </trkpt>
      <trkpt lat="50.8172270" lon="-1.8705675">
        <name>Moorlands Road</name>
      </trkpt>
      <trkpt lat="50.8171833" lon="-1.8704517">
        <name>Moorlands Road</name>
      </trkpt>
      <trkpt lat="50.8171397" lon="-1.8703358">
        <name>Moorlands Road</name>
      </trkpt>
      <trkpt lat="50.8170960" lon="-1.8702200">
        <name>Moorlands Road</name>
      </trkpt>
      <trkpt lat="50.8170539" lon="-1.8701018">
        <name>Moorlands Road</name>
      </trkpt>
      <trkpt lat="50.8170119" lon="-1.8699836">
        <name>Moorlands Road</name>
      </trkpt>
      <trkpt lat="50.8169698" lon="-1.8698654">
        <name>Moorlands Road</name>
      </trkpt>
      <trkpt lat="50.8169277" lon="-1.8697472">
        <name>Moorlands Road</name>
      </trkpt>
      <trkpt lat="50.8168857" lon="-1.8696290">
        <name>Moorlands Road</name>
      </trkpt>
      <trkpt lat="50.8168436" lon="-1.8695108">
        <name>Moorlands Road</name>
      </trkpt>
      <trkpt lat="50.8168015" lon="-1.8693926">
        <name>Moorlands Road</name>
      </trkpt>
      <trkpt lat="50.8167595" lon="-1.8692744">
        <name>Moorlands Road</name>
      </trkpt>
      <trkpt lat="50.8167174" lon="-1.8691562">
        <name>Moorlands Road</name>
      </trkpt>
      <trkpt lat="50.8166753" lon="-1.8690380">
        <name>Moorlands Road</name>
      </trkpt>
      <trkpt lat="50.8166333" lon="-1.8689198">
        <name>Moorlands Road</name>
      </trkpt>
      <trkpt lat="50.8165912" lon="-1.8688016">
        <name>Moorlands Road</name>
      </trkpt>
      <trkpt lat="50.8165491" lon="-1.8686834">
        <name>Moorlands Road</name>
      </trkpt>
      <trkpt lat="50.8165071" lon="-1.8685652">
        <name>Moorlands Road</name>
      </trkpt>
      <trkpt lat="50.8164650" lon="-1.8684470">
        <name>Moorlands Road</name>
      </trkpt>
    </trkseg>
  </trk>
</gpx>
